0144008415999992015102002394+07300+134200FM-16+000099999V0200301N006719999999N999999999+02881+02281999999ADDMA1100951999999OC100821REMMET109MOBOB2 SPECI XM21 //000 073342 200239Z AUTO 03013G16KT 29/23 A2981      RMK A02 SLPNO T02880228 PA103 DA2084=
0144008415999992015102002534+07300+134200FM-15+000099999V0200301N007219999999N999999999+02881+02281999999ADDMA1100911999999OC100821REMMET109MOBOB2 METAR XM21 //000 073342 200253Z AUTO 03014G16KT 29/23 A2980      RMK A02 SLPNO T02880228 PA112 DA2095=
0144008415999992015102003534+07300+134200FM-15+000099999V0200301N007719999999N999999999+02881+02251999999ADDMA1100851999999OC100931REMMET109MOBOB2 METAR XM21 //000 073342 200353Z AUTO 03015G18KT 29/23 A2978      RMK A02 SLPNO T02880225 PA131 DA2112=
0144008415999992015102004534+07300+134200FM-15+000099999V0200301N007719999999N999999999+02891+02291999999ADDMA1100741999999OC100931REMMET109MOBOB2 METAR XM21 //000 073342 200453Z AUTO 03015G18KT 29/23 A2975      RMK A02 SLPNO T02890229 PA159 DA2166=
0144008415999992015102005534+07300+134200FM-15+000099999V0200301N007719999999N999999999+02861+02391999999ADDMA1100711999999OC100931REMMET109MOBOB2 METAR XM21 //000 073342 200553Z AUTO 03015G18KT 29/24 A2974      RMK A02 SLPNO T02860239 PA168 DA2165=
0144008415999992015102006534+07300+134200FM-15+000099999V0200301N007719999999N999999999+02851+02351999999ADDMA1100711999999OC100931REMMET109MOBOB2 METAR XM21 //000 073342 200653Z AUTO 03015G18KT 29/23 A2974      RMK A02 SLPNO T02850235 PA168 DA2145=
0144008415999992015102007534+07300+134200FM-15+000099999V0200201N007719999999N999999999+02831+02361999999ADDMA1100741999999OC100931REMMET109MOBOB2 METAR XM21 //000 073342 200753Z AUTO 02015G18KT 28/24 A2975      RMK A02 SLPNO T02830236 PA159 DA2115=
0144008415999992015102008534+07300+134200FM-15+000099999V0200301N007719999999N999999999+02831+02331999999ADDMA1100811999999OC100881REMMET109MOBOB2 METAR XM21 //000 073342 200853Z AUTO 03015G17KT 28/23 A2977      RMK A02 SLPNO T02830233 PA140 DA2085=
0144008415999992015102009534+07300+134200FM-15+000099999V0200201N007219999999N999999999+02831+02341999999ADDMA1100881999999OC100821REMMET109MOBOB2 METAR XM21 //000 073342 200953Z AUTO 02014G16KT 28/23 A2979      RMK A02 SLPNO T02830234 PA122 DA2065=
0144008415999992015102010534+07300+134200FM-15+000099999V0200201N006719999999N999999999+02841+02331999999ADDMA1100951999999OC100821REMMET109MOBOB2 METAR XM21 //000 073342 201053Z AUTO 02013G16KT 28/23 A2981      RMK A02 SLPNO T02840233 PA103 DA2050=
0144008415999992015102011534+07300+134200FM-15+000099999V0200201N006719999999N999999999+02831+02331999999ADDMA1100981999999OC100821REMMET109MOBOB2 METAR XM21 //000 073342 201153Z AUTO 02013G16KT 28/23 A2982      RMK A02 SLPNO T02830233 PA094 DA2029=
0144008415999992015102012534+07300+134200FM-15+000099999V0200201N006719999999N999999999+02831+02401999999ADDMA1101021999999OC100821REMMET109MOBOB2 METAR XM21 //000 073342 201253Z AUTO 02013G16KT 28/24 A2983      RMK A02 SLPNO T02830240 PA084 DA2033=
0144008415999992015102013534+07300+134200FM-15+000099999V0200201N007219999999N999999999+02821+02381999999ADDMA1100951999999OC100881REMMET109MOBOB2 METAR XM21 //000 073342 201353Z AUTO 02014G17KT 28/24 A2981      RMK A02 SLPNO T02820238 PA103 DA2039=
0145008415999992015102014534+07300+134200FM-15+000099999V0200201N006719999999N999999999+02821+02461100951ADDMA1100951999999OC100881REMMET110MOBOB2 METAR XM21 //000 073342 201453Z AUTO 02013G17KT 28/25 A2981      RMK A02 SLP095 T02820246 PA103 DA2057=
0145008415999992015102015534+07300+134200FM-15+000099999V0200101N007219999999N999999999+02811+02371100891ADDMA1100881999999OC100981REMMET110MOBOB2 METAR XM21 //000 073342 201553Z AUTO 01014G19KT 28/24 A2979      RMK A02 SLP089 T02810237 PA122 DA2048=
0145008415999992015102016534+07300+134200FM-15+000099999V0200101N006719999999N999999999+02811+02401100851ADDMA1100851999999OC100821REMMET110MOBOB2 METAR XM21 //000 073342 201653Z AUTO 01013G16KT 28/24 A2978      RMK A02 SLP085 T02810240 PA131 DA2066=
0145008415999992015102017534+07300+134200FM-15+000099999V0200101N007219999999N999999999+02811+02401100821ADDMA1100811999999OC100881REMMET110MOBOB2 METAR XM21 //000 073342 201753Z AUTO 01014G17KT 28/24 A2977      RMK A02 SLP082 T02810240 PA140 DA2078=
0145008415999992015102018534+07300+134200FM-15+000099999V0200201N007219999999N999999999+02811+02351100821ADDMA1100811999999OC100821REMMET110MOBOB2 METAR XM21 //000 073342 201853Z AUTO 02014G16KT 28/23 A2977      RMK A02 SLP082 T02810235 PA140 DA2067=
0145008415999992015102019534+07300+134200FM-15+000099999V0200101N007219999999N999999999+02801+02301100851ADDMA1100851999999OC100821REMMET110MOBOB2 METAR XM21 //000 073342 201953Z AUTO 01014G16KT 28/23 A2978      RMK A02 SLP085 T02800230 PA131 DA2034=
0145008415999992015102020534+07300+134200FM-15+000099999V0200101N006719999999N999999999+02811+02391100951ADDMA1100951999999OC100771REMMET110MOBOB2 METAR XM21 //000 073342 202053Z AUTO 01013G15KT 28/24 A2981      RMK A02 SLP095 T02810239 PA103 DA2031=
0145008415999992015102021534+07300+134200FM-15+000099999V0203601N005719999999N999999999+02811+02381101021ADDMA1101021999999OC100621REMMET110MOBOB2 METAR XM21 //000 073342 202153Z AUTO 36011G12KT 28/24 A2983      RMK A02 SLP102 T02810238 PA084 DA2005=
0145008415999992015102022534+07300+134200FM-15+000099999V0203601N005119999999N999999999+02841+02401101091ADDMA1101081999999OC100621REMMET110MOBOB2 METAR XM21 //000 073342 202253Z AUTO 36010G12KT 28/24 A2985      RMK A02 SLP109 T02840240 PA066 DA2019=
0145008415999992015102023534+07300+134200FM-15+000099999V0203601N006219999999N999999999+02861+02301101091ADDMA1101081999999OC100721REMMET110MOBOB2 METAR XM21 //000 073342 202353Z AUTO 36012G14KT 29/23 A2985      RMK A02 SLP109 T02860230 PA066 DA2022=
0145008415999992015102100534+07300+134200FM-15+000099999V0200101N005119999999N999999999+02881+02391101121ADDMA1101121999999OC100621REMMET110MOBOB2 METAR XM21 //000 073342 210053Z AUTO 01010G12KT 29/24 A2986      RMK A02 SLP112 T02880239 PA057 DA2051=
0145008415999992015102101534+07300+134200FM-15+000099999V0200101N005719999999N999999999+02891+02391101091ADDMA1101081999999OC100721REMMET110MOBOB2 METAR XM21 //000 073342 210153Z AUTO 01011G14KT 29/24 A2985      RMK A02 SLP109 T02890239 PA066 DA2073=
0145008415999992015102102534+07300+134200FM-15+000099999V0200201N005119999999N999999999+02881+02301101021ADDMA1101021999999OC100621REMMET110MOBOB2 METAR XM21 //000 073342 210253Z AUTO 02010G12KT 29/23 A2983      RMK A02 SLP102 T02880230 PA084 DA2066=
0134008415999992015102103534+07300+134200FM-15+000099999V0200201N004119999999N999999999+02891+02431100951ADDMA1100951999999REMMET107MOBOB2 METAR XM21 //000 073342 210353Z AUTO 02008KT 29/24 A2981 RMK      A02 SLP095 T02890243 PA103 DA2129=
0134008415999992015102104534+07300+134200FM-15+000099999V0200201N004119999999N999999999+02891+02421100921ADDMA1100911999999REMMET107MOBOB2 METAR XM21 //000 073342 210453Z AUTO 02008KT 29/24 A2980 RMK      A02 SLP092 T02890242 PA112 DA2138=
0134008415999992015102105534+07300+134200FM-15+000099999V0200201N004619999999N999999999+02881+02351100891ADDMA1100881999999REMMET107MOBOB2 METAR XM21 //000 073342 210553Z AUTO 02009KT 29/24 A2979 RMK      A02 SLP089 T02880235 PA122 DA2123=
0134008415999992015102106534+07300+134200FM-15+000099999V0200301N004119999999N999999999+02881+02391100891ADDMA1100881999999REMMET107MOBOB2 METAR XM21 //000 073342 210653Z AUTO 03008KT 29/24 A2979 RMK      A02 SLP089 T02880239 PA122 DA2130=
0145008415999992015102107534+07300+134200FM-15+000099999V0200301N005119999999N999999999+02871+02351100951ADDMA1100951999999OC100671REMMET110MOBOB2 METAR XM21 //000 073342 210753Z AUTO 03010G13KT 29/23 A2981      RMK A02 SLP095 T02870235 PA103 DA2087=
0134008415999992015102108534+07300+134200FM-15+000099999V0200201N005119999999N999999999+02851+02391100991ADDMA1100981999999REMMET107MOBOB2 METAR XM21 //000 073342 210853Z AUTO 02010KT 29/24 A2982 RMK      A02 SLP099 T02850239 PA094 DA2064=
0134008415999992015102109534+07300+134200FM-15+000099999V0200101N004619999999N999999999+02841+02411101061ADDMA1101051999999REMMET107MOBOB2 METAR XM21 //000 073342 210953Z AUTO 01009KT 28/24 A2984 RMK      A02 SLP106 T02840241 PA075 DA2034=
0145008415999992015102110534+07300+134200FM-15+000099999V0203601N005119999999N999999999+02841+02361101121ADDMA1101121999999OC100621REMMET110MOBOB2 METAR XM21 //000 073342 211053Z AUTO 36010G12KT 28/24 A2986      RMK A02 SLP112 T02840236 PA057 DA1999=
0145008415999992015102111534+07300+134200FM-15+000099999V0203601N005119999999N999999999+02841+02411101161ADDMA1101151999999OC100671REMMET110MOBOB2 METAR XM21 //000 073342 211153Z AUTO 36010G13KT 28/24 A2987      RMK A02 SLP116 T02840241 PA047 DA1999=
0134008415999992015102112534+07300+134200FM-15+000099999V0203601N004619999999N999999999+02831+02351101161ADDMA1101151999999REMMET107MOBOB2 METAR XM21 //000 073342 211253Z AUTO 36009KT 28/24 A2987 RMK      A02 SLP116 T02830235 PA047 DA1976=
0134008415999992015102113534+07300+134200FM-15+000099999V0203601N004619999999N999999999+02821+02421101121ADDMA1101121999999REMMET107MOBOB2 METAR XM21 //000 073342 211353Z AUTO 36009KT 28/24 A2986 RMK      A02 SLP112 T02820242 PA057 DA1992=
0134008415999992015102114534+07300+134200FM-15+000099999V0200101N003619999999N999999999+02811+02411101121ADDMA1101121999999REMMET107MOBOB2 METAR XM21 //000 073342 211453Z AUTO 01007KT 28/24 A2986 RMK      A02 SLP112 T02810241 PA057 DA1978=
0134008415999992015102115534+07300+134200FM-15+000099999V0203401N004119999999N999999999+02801+02441101061ADDMA1101051999999REMMET107MOBOB2 METAR XM21 //000 073342 211553Z AUTO 34008KT 28/24 A2984 RMK      A02 SLP106 T02800244 PA075 DA1997=
0134008415999992015102116534+07300+134200FM-15+000099999V0203401N004119999999N999999999+02791+02371100991ADDMA1100981999999REMMET107MOBOB2 METAR XM21 //000 073342 211653Z AUTO 34008KT 28/24 A2982 RMK      A02 SLP099 T02790237 PA094 DA1992=
0145008415999992015102117534+07300+134200FM-15+000099999V0203501N004619999999N999999999+02781+02381100991ADDMA1100981999999OC100621REMMET110MOBOB2 METAR XM21 //000 073342 211753Z AUTO 35009G12KT 28/24 A2982      RMK A02 SLP099 T02780238 PA094 DA1983=
0134008415999992015102118534+07300+134200FM-15+000099999V0203501N004119999999N999999999+02791+02361100991ADDMA1100981999999REMMET107MOBOB2 METAR XM21 //000 073342 211853Z AUTO 35008KT 28/24 A2982 RMK      A02 SLP099 T02790236 PA094 DA1990=
0134008415999992015102119534+07300+134200FM-15+000099999V0203501N004119999999N999999999+02791+02361101021ADDMA1101021999999REMMET107MOBOB2 METAR XM21 //000 073342 211953Z AUTO 35008KT 28/24 A2983 RMK      A02 SLP102 T02790236 PA084 DA1977=
0134008415999992015102120534+07300+134200FM-15+000099999V0203501N004619999999N999999999+02781+02461101061ADDMA1101051999999REMMET107MOBOB2 METAR XM21 //000 073342 212053Z AUTO 35009KT 28/25 A2984 RMK      A02 SLP106 T02780246 PA075 DA1979=
0134008415999992015102121534+07300+134200FM-15+000099999V0203401N005119999999N999999999+02801+02371101121ADDMA1101121999999REMMET107MOBOB2 METAR XM21 //000 073342 212153Z AUTO 34010KT 28/24 A2986 RMK      A02 SLP112 T02800237 PA057 DA1958=
0145008415999992015102122534+07300+134200FM-15+000099999V0203401N005119999999N999999999+02841+02381101191ADDMA1101181999999OC100621REMMET110MOBOB2 METAR XM21 //000 073342 212253Z AUTO 34010G12KT 28/24 A2988      RMK A02 SLP119 T02840238 PA038 DA1983=
0134008415999992015102123534+07300+134200FM-15+000099999V0203301N004119999999N999999999+02861+02371101221ADDMA1101221999999REMMET107MOBOB2 METAR XM21 //000 073342 212353Z AUTO 33008KT 29/24 A2989 RMK      A02 SLP122 T02860237 PA029 DA1991=
0134008415999992015102200534+07300+134200FM-15+000099999V0203401N004619999999N999999999+02881+02391101221ADDMA1101221999999REMMET107MOBOB2 METAR XM21 //000 073342 220053Z AUTO 34009KT 29/24 A2989 RMK      A02 SLP122 T02880239 PA029 DA2017=
0134008415999992015102201534+07300+134200FM-15+000099999V0203401N005119999999N999999999+02891+02361101161ADDMA1101151999999REMMET107MOBOB2 METAR XM21 //000 073342 220153Z AUTO 34010KT 29/24 A2987 RMK      A02 SLP116 T02890236 PA047 DA2045=
0134008415999992015102202534+07300+134200FM-15+000099999V0203301N004619999999N999999999+02901+02371101091ADDMA1101081999999REMMET107MOBOB2 METAR XM21 //000 073342 220253Z AUTO 33009KT 29/24 A2985 RMK      A02 SLP109 T02900237 PA066 DA2081=
0134008415999992015102203534+07300+134200FM-15+000099999V0203301N005119999999N999999999+02901+02371101021ADDMA1101021999999REMMET107MOBOB2 METAR XM21 //000 073342 220353Z AUTO 33010KT 29/24 A2983 RMK      A02 SLP102 T02900237 PA084 DA2102=
0134008415999992015102204534+07300+134200FM-15+000099999V0203301N004619999999N999999999+02901+02381100951ADDMA1100951999999REMMET107MOBOB2 METAR XM21 //000 073342 220453Z AUTO 33009KT 29/24 A2981 RMK      A02 SLP095 T02900238 PA103 DA2128=
0134008415999992015102205534+07300+134200FM-15+000099999V0203301N005119999999N999999999+02901+02371100951ADDMA1100951999999REMMET107MOBOB2 METAR XM21 //000 073342 220553Z AUTO 33010KT 29/24 A2981 RMK      A02 SLP095 T02900237 PA103 DA2125=
0145008415999992015102206534+07300+134200FM-15+000099999V0203301N005719999999N999999999+02881+02411100951ADDMA1100951999999OC100671REMMET110MOBOB2 METAR XM21 //000 073342 220653Z AUTO 33011G13KT 29/24 A2981      RMK A02 SLP095 T02880241 PA103 DA2112=
0134008415999992015102207534+07300+134200FM-15+000099999V0203301N005119999999N999999999+02871+02401101021ADDMA1101021999999REMMET107MOBOB2 METAR XM21 //000 073342 220753Z AUTO 33010KT 29/24 A2983 RMK      A02 SLP102 T02870240 PA084 DA2076=
0134008415999992015102208534+07300+134200FM-15+000099999V0203201N004619999999N999999999+02861+02401101121ADDMA1101121999999REMMET107MOBOB2 METAR XM21 //000 073342 220853Z AUTO 32009KT 29/24 A2986 RMK      A02 SLP112 T02860240 PA057 DA2031=
0134008415999992015102209534+07300+134200FM-15+000099999V0203201N004619999999N999999999+02861+02441101161ADDMA1101151999999REMMET107MOBOB2 METAR XM21 //000 073342 220953Z AUTO 32009KT 29/24 A2987 RMK      A02 SLP116 T02860244 PA047 DA2029=
0134008415999992015102210534+07300+134200FM-15+000099999V0203201N004119999999N999999999+02851+02411101261ADDMA1101251999999REMMET107MOBOB2 METAR XM21 //000 073342 221053Z AUTO 32008KT 29/24 A2990 RMK      A02 SLP126 T02850241 PA020 DA1976=
0134008415999992015102211534+07300+134200FM-15+000099999V0203201N004119999999N999999999+02841+02401101291ADDMA1101291999999REMMET107MOBOB2 METAR XM21 //000 073342 221153Z AUTO 32008KT 28/24 A2991 RMK      A02 SLP129 T02840240 PA010 DA1951=
0134008415999992015102212534+07300+134200FM-15+000099999V0203101N003619999999N999999999+02831+02411101291ADDMA1101291999999REMMET107MOBOB2 METAR XM21 //000 073342 221253Z AUTO 31007KT 28/24 A2991 RMK      A02 SLP129 T02830241 PA010 DA1943=
0134008415999992015102213534+07300+134200FM-15+000099999V0203201N004119999999N999999999+02831+02391101291ADDMA1101291999999REMMET107MOBOB2 METAR XM21 //000 073342 221353Z AUTO 32008KT 28/24 A2991 RMK      A02 SLP129 T02830239 PA010 DA1939=
0134008415999992015102214534+07300+134200FM-15+000099999V0203101N003619999999N999999999+02811+02431101261ADDMA1101251999999REMMET107MOBOB2 METAR XM21 //000 073342 221453Z AUTO 31007KT 28/24 A2990 RMK      A02 SLP126 T02810243 PA020 DA1936=
0134008415999992015102215534+07300+134200FM-15+000099999V0203101N004119999999N999999999+02811+02411101191ADDMA1101181999999REMMET107MOBOB2 METAR XM21 //000 073342 221553Z AUTO 31008KT 28/24 A2988 RMK      A02 SLP119 T02810241 PA038 DA1954=
0134008415999992015102216534+07300+134200FM-15+000099999V0203101N004119999999N999999999+02801+02391101121ADDMA1101121999999REMMET107MOBOB2 METAR XM21 //000 073342 221653Z AUTO 31008KT 28/24 A2986 RMK      A02 SLP112 T02800239 PA057 DA1963=
0134008415999992015102217534+07300+134200FM-15+000099999V0203101N002619999999N999999999+02801+02371101091ADDMA1101081999999REMMET107MOBOB2 METAR XM21 //000 073342 221753Z AUTO 31005KT 28/24 A2985 RMK      A02 SLP109 T02800237 PA066 DA1969=
0134008415999992015102218534+07300+134200FM-15+000099999V0203101N003119999999N999999999+02791+02391101121ADDMA1101121999999REMMET107MOBOB2 METAR XM21 //000 073342 221853Z AUTO 31006KT 28/24 A2986 RMK      A02 SLP112 T02790239 PA057 DA1950=
0134008415999992015102219534+07300+134200FM-15+000099999V0203001N004119999999N999999999+02781+02431101121ADDMA1101121999999REMMET107MOBOB2 METAR XM21 //000 073342 221953Z AUTO 30008KT 28/24 A2986 RMK      A02 SLP112 T02780243 PA057 DA1949=
0134008415999992015102220534+07300+134200FM-15+000099999V0203001N004619999999N999999999+02801+02381101191ADDMA1101181999999REMMET107MOBOB2 METAR XM21 //000 073342 222053Z AUTO 30009KT 28/24 A2988 RMK      A02 SLP119 T02800238 PA038 DA1937=
0145008415999992015102221534+07300+134200FM-15+000099999V0202901N005119999999N999999999+02811+02361101261ADDMA1101251999999OC100621REMMET110MOBOB2 METAR XM21 //000 073342 222153Z AUTO 29010G12KT 28/24 A2990      RMK A02 SLP126 T02810236 PA020 DA1920=
0134008415999992015102222534+07300+134200FM-15+000099999V0202901N004619999999N999999999+02841+02381101331ADDMA1101321999999REMMET107MOBOB2 METAR XM21 //000 073342 222253Z AUTO 29009KT 28/24 A2992 RMK      A02 SLP133 T02840238 PA001 DA1936=
0134008415999992015102223534+07300+134200FM-15+000099999V0201101N004619999999N999999999+02861+02391101391ADDMA1101391999999REMMET107MOBOB2 METAR XM21 //000 073342 222353Z AUTO 11009KT 29/24 A2994 RMK      A02 SLP139 T02860239 PA-17 DA1938=
0134008415999992015102300534+07300+134200FM-15+000099999V0201201N004619999999N999999999+02861+02451101361ADDMA1101351999999REMMET107MOBOB2 METAR XM21 //000 073342 230053Z AUTO 12009KT 29/25 A2993 RMK      A02 SLP136 T02860245 PA-08 DA1963=
0145008415999992015102301534+07300+134200FM-15+000099999V0201201N005719999999N999999999+02881+02441101291ADDMA1101291999999OC100721REMMET110MOBOB2 METAR XM21 //000 073342 230153Z AUTO 12011G14KT 29/24 A2991      RMK A02 SLP129 T02880244 PA010 DA2006=
0145008415999992015102302534+07300+134200FM-15+000099999V0201201N006219999999N999999999+02881+02351101191ADDMA1101181999999OC100721REMMET110MOBOB2 METAR XM21 //000 073342 230253Z AUTO 12012G14KT 29/24 A2988      RMK A02 SLP119 T02880235 PA038 DA2020=
0145008415999992015102303534+07300+134200FM-15+000099999V0201201N005719999999N999999999+02881+02311101091ADDMA1101081999999OC100721REMMET110MOBOB2 METAR XM21 //000 073342 230353Z AUTO 12011G14KT 29/23 A2985      RMK A02 SLP109 T02880231 PA066 DA2045=
0145008415999992015102304534+07300+134200FM-15+000099999V0201101N005719999999N999999999+02901+02291101061ADDMA1101051999999OC100721REMMET110MOBOB2 METAR XM21 //000 073342 230453Z AUTO 11011G14KT 29/23 A2984      RMK A02 SLP106 T02900229 PA075 DA2074=
0145008415999992015102305534+07300+134200FM-15+000099999V0201001N005119999999N999999999+02901+02291101021ADDMA1101021999999OC100671REMMET110MOBOB2 METAR XM21 //000 073342 230553Z AUTO 10010G13KT 29/23 A2983      RMK A02 SLP102 T02900229 PA084 DA2087=
0145008415999992015102306534+07300+134200FM-15+000099999V0201101N005119999999N999999999+02891+02321101021ADDMA1101021999999OC100621REMMET110MOBOB2 METAR XM21 //000 073342 230653Z AUTO 11010G12KT 29/23 A2983      RMK A02 SLP102 T02890232 PA084 DA2082=
0145008415999992015102307534+07300+134200FM-15+000099999V0200901N005119999999N999999999+02891+02251101061ADDMA1101051999999OC100621REMMET110MOBOB2 METAR XM21 //000 073342 230753Z AUTO 09010G12KT 29/23 A2984      RMK A02 SLP106 T02890225 PA075 DA2055=
0134008415999992015102308534+07300+134200FM-15+000099999V0200901N004119999999N999999999+02861+02341101121ADDMA1101121999999REMMET107MOBOB2 METAR XM21 //000 073342 230853Z AUTO 09008KT 29/23 A2986 RMK      A02 SLP112 T02860234 PA057 DA2019=
0134008415999992015102309534+07300+134200FM-15+000099999V0200801N004119999999N999999999+02841+02341101191ADDMA1101181999999REMMET107MOBOB2 METAR XM21 //000 073342 230953Z AUTO 08008KT 28/23 A2988 RMK      A02 SLP119 T02840234 PA038 DA1972=
0134008415999992015102310534+07300+134200FM-15+000099999V0200801N005119999999N999999999+02851+02351101291ADDMA1101291999999REMMET107MOBOB2 METAR XM21 //000 073342 231053Z AUTO 08010KT 29/24 A2991 RMK      A02 SLP129 T02850235 PA010 DA1953=
0134008415999992015102311534+07300+134200FM-15+000099999V0200801N004619999999N999999999+02841+02351101331ADDMA1101321999999REMMET107MOBOB2 METAR XM21 //000 073342 231153Z AUTO 08009KT 28/23 A2992 RMK      A02 SLP133 T02840235 PA001 DA1929=
0134008415999992015102312534+07300+134200FM-15+000099999V0200901N003619999999N999999999+02831+02401101291ADDMA1101291999999REMMET107MOBOB2 METAR XM21 //000 073342 231253Z AUTO 09007KT 28/24 A2991 RMK      A02 SLP129 T02830240 PA010 DA1941=
0134008415999992015102313534+07300+134200FM-15+000099999V0200801N004119999999N999999999+02831+02401101291ADDMA1101291999999REMMET107MOBOB2 METAR XM21 //000 073342 231353Z AUTO 08008KT 28/24 A2991 RMK      A02 SLP129 T02830240 PA010 DA1940=
0134008415999992015102314534+07300+134200FM-15+000099999V0200901N004119999999N999999999+02831+02391101291ADDMA1101291999999REMMET107MOBOB2 METAR XM21 //000 073342 231453Z AUTO 09008KT 28/24 A2991 RMK      A02 SLP129 T02830239 PA010 DA1937=
0134008415999992015102315534+07300+134200FM-15+000099999V0200901N004119999999N999999999+02811+02421101221ADDMA1101221999999REMMET107MOBOB2 METAR XM21 //000 073342 231553Z AUTO 09008KT 28/24 A2989 RMK      A02 SLP122 T02810242 PA029 DA1946=
0145008415999992015102316534+07300+134200FM-15+000099999V0200701N005119999999N999999999+02811+02431101191ADDMA1101181999999OC100671REMMET110MOBOB2 METAR XM21 //000 073342 231653Z AUTO 07010G13KT 28/24 A2988      RMK A02 SLP119 T02810243 PA038 DA1960=
0145008415999992015102317534+07300+134200FM-15+000099999V0200901N005719999999N999999999+02821+02391101161ADDMA1101151999999OC100671REMMET110MOBOB2 METAR XM21 //000 073342 231753Z AUTO 09011G13KT 28/24 A2987      RMK A02 SLP116 T02820239 PA047 DA1973=
0134008415999992015102318534+07300+134200FM-15+000099999V0200801N004119999999N999999999+02811+02381101161ADDMA1101151999999REMMET107MOBOB2 METAR XM21 //000 073342 231853Z AUTO 08008KT 28/24 A2987 RMK      A02 SLP116 T02810238 PA047 DA1959=
0161008415999992015102319534+07300+134200FM-15+000099999V0200601N004119999999N999999999+02791+02451101221ADDAA101000021AW1611MA1101221999999REMMET117MOBOB2 METAR XM21 //000 073342 231953Z AUTO 06008KT -RA 28/25 A2989      RMK A02 SLP122 P0000 T02790245 PA029 DA1931=
0134008415999992015102320534+07300+134200FM-15+000099999V0200701N004119999999N999999999+02811+02421101291ADDMA1101291999999REMMET107MOBOB2 METAR XM21 //000 073342 232053Z AUTO 07008KT 28/24 A2991 RMK      A02 SLP129 T02810242 PA010 DA1923=
0134008415999992015102321534+07300+134200FM-15+000099999V0200501N004119999999N999999999+02811+02481101331ADDMA1101321999999REMMET107MOBOB2 METAR XM21 //000 073342 232153Z AUTO 05008KT 28/25 A2992 RMK      A02 SLP133 T02810248 PA001 DA1925=
0145008415999992015102322534+07300+134200FM-15+000099999V0200901N005119999999N999999999+02871+02431101391ADDMA1101391999999OC100621REMMET110MOBOB2 METAR XM21 //000 073342 232253Z AUTO 09010G12KT 29/24 A2994      RMK A02 SLP139 T02870243 PA-17 DA1957=
0161008415999992015102323534+07300+134200FM-15+000099999V0200901N004619999999N999999999+02851+02411101431ADDAA101000531AW1611MA1101421999999REMMET117MOBOB2 METAR XM21 //000 073342 232353Z AUTO 09009KT -RA 29/24 A2995      RMK A02 SLP143 P0002 T02850241 PA-27 DA1920=
0145008415999992015102400534+07300+134200FM-15+000099999V0200901N005119999999N999999999+02911+02411101431ADDMA1101421999999OC100671REMMET110MOBOB2 METAR XM21 //000 073342 240053Z AUTO 09010G13KT 29/24 A2995      RMK A02 SLP143 T02910241 PA-27 DA1987=
0134008415999992015102401534+07300+134200FM-15+000099999V0200901N004619999999N999999999+02941+02381101361ADDMA1101351999999REMMET107MOBOB2 METAR XM21 //000 073342 240153Z AUTO 09009KT 29/24 A2993 RMK      A02 SLP136 T02940238 PA-08 DA2037=
0161008415999992015102402534+07300+134200FM-15+000099999V0200901N004119999999N999999999+02891+02381101261ADDAA101000531AW1611MA1101251999999REMMET117MOBOB2 METAR XM21 //000 073342 240253Z AUTO 09008KT -RA 29/24 A2990      RMK A02 SLP126 P0002 T02890238 PA020 DA2014=
0134008415999992015102403534+07300+134200FM-15+000099999V0200901N004619999999N999999999+02941+02431101161ADDMA1101151999999REMMET107MOBOB2 METAR XM21 //000 073342 240353Z AUTO 09009KT 29/24 A2987 RMK      A02 SLP116 T02940243 PA047 DA2116=
0145008415999992015102404534+07300+134200FM-15+000099999V0200801N005719999999N999999999+02941+02361101121ADDMA1101121999999OC100721REMMET110MOBOB2 METAR XM21 //000 073342 240453Z AUTO 08011G14KT 29/24 A2986      RMK A02 SLP112 T02940236 PA057 DA2112=
0145008415999992015102405534+07300+134200FM-15+000099999V0200701N005719999999N999999999+02931+02281101061ADDMA1101051999999OC100721REMMET110MOBOB2 METAR XM21 //000 073342 240553Z AUTO 07011G14KT 29/23 A2984      RMK A02 SLP106 T02930228 PA075 DA2107=
0134008415999992015102406534+07300+134200FM-15+000099999V0200801N004619999999N999999999+02911+02411101061ADDMA1101051999999REMMET107MOBOB2 METAR XM21 //000 073342 240653Z AUTO 08009KT 29/24 A2984 RMK      A02 SLP106 T02910241 PA075 DA2113=
0145008415999992015102407534+07300+134200FM-15+000099999V0200901N005719999999N999999999+02901+02351101091ADDMA1101081999999OC100671REMMET110MOBOB2 METAR XM21 //000 073342 240753Z AUTO 09011G13KT 29/24 A2985      RMK A02 SLP109 T02900235 PA066 DA2077=
0145008415999992015102408534+07300+134200FM-15+000099999V0200801N005719999999N999999999+02891+02351101161ADDMA1101151999999OC100671REMMET110MOBOB2 METAR XM21 //000 073342 240853Z AUTO 08011G13KT 29/24 A2987      RMK A02 SLP116 T02890235 PA047 DA2043=
0145008415999992015102409534+07300+134200FM-15+000099999V0200601N005119999999N999999999+02851+02421101221ADDMA1101221999999OC100671REMMET110MOBOB2 METAR XM21 //000 073342 240953Z AUTO 06010G13KT 29/24 A2989      RMK A02 SLP122 T02850242 PA029 DA1991=
0145008415999992015102410534+07300+134200FM-15+000099999V0200701N004619999999N999999999+02851+02431101291ADDMA1101291999999OC100621REMMET110MOBOB2 METAR XM21 //000 073342 241053Z AUTO 07009G12KT 29/24 A2991      RMK A02 SLP129 T02850243 PA010 DA1970=
0145008415999992015102411534+07300+134200FM-15+000099999V0200601N005719999999N999999999+02841+02431101331ADDMA1101321999999OC100671REMMET110MOBOB2 METAR XM21 //000 073342 241153Z AUTO 06011G13KT 28/24 A2992      RMK A02 SLP133 T02840243 PA001 DA1947=
0145008415999992015102412534+07300+134200FM-15+000099999V0200701N004619999999N999999999+02831+02461101291ADDMA1101291999999OC100671REMMET110MOBOB2 METAR XM21 //000 073342 241253Z AUTO 07009G13KT 28/25 A2991      RMK A02 SLP129 T02830246 PA010 DA1955=
0145008415999992015102413534+07300+134200FM-15+000099999V0200601N005119999999N999999999+02821+02481101291ADDMA1101291999999OC100621REMMET110MOBOB2 METAR XM21 //000 073342 241353Z AUTO 06010G12KT 28/25 A2991      RMK A02 SLP129 T02820248 PA010 DA1949=
0145008415999992015102414534+07300+134200FM-15+000099999V0200501N005719999999N999999999+02821+02491101261ADDMA1101251999999OC100671REMMET110MOBOB2 METAR XM21 //000 073342 241453Z AUTO 05011G13KT 28/25 A2990      RMK A02 SLP126 T02820249 PA020 DA1963=
0145008415999992015102415534+07300+134200FM-15+000099999V0200601N006219999999N999999999+02811+02491101221ADDMA1101221999999OC100771REMMET110MOBOB2 METAR XM21 //000 073342 241553Z AUTO 06012G15KT 28/25 A2989      RMK A02 SLP122 T02810249 PA029 DA1963=
0145008415999992015102416534+07300+134200FM-15+000099999V0200501N006719999999N999999999+02791+02471101161ADDMA1101151999999OC100821REMMET110MOBOB2 METAR XM21 //000 073342 241653Z AUTO 05013G16KT 28/25 A2987      RMK A02 SLP116 T02790247 PA047 DA1957=
0145008415999992015102417534+07300+134200FM-15+000099999V0200501N005719999999N999999999+02781+02441101091ADDMA1101081999999OC100721REMMET110MOBOB2 METAR XM21 //000 073342 241753Z AUTO 05011G14KT 28/24 A2985      RMK A02 SLP109 T02780244 PA066 DA1961=
0145008415999992015102418534+07300+134200FM-15+000099999V0200501N006719999999N999999999+02791+02451101121ADDMA1101121999999OC100821REMMET110MOBOB2 METAR XM21 //000 073342 241853Z AUTO 05013G16KT 28/24 A2986      RMK A02 SLP112 T02790245 PA057 DA1964=
0134008415999992015102419534+07300+134200FM-15+000099999V0200601N004619999999N999999999+02771+02411101121ADDMA1101121999999REMMET107MOBOB2 METAR XM21 //000 073342 241953Z AUTO 06009KT 28/24 A2986 RMK      A02 SLP112 T02770241 PA057 DA1934=
0145008415999992015102420534+07300+134200FM-15+000099999V0200701N005119999999N999999999+02781+02401101221ADDMA1101221999999OC100671REMMET110MOBOB2 METAR XM21 //000 073342 242053Z AUTO 07010G13KT 28/24 A2989      RMK A02 SLP122 T02780240 PA029 DA1907=
0134008415999992015102421534+07300+134200FM-15+000099999V0200701N004619999999N999999999+02801+02411101261ADDMA1101251999999REMMET107MOBOB2 METAR XM21 //000 073342 242153Z AUTO 07009KT 28/24 A2990 RMK      A02 SLP126 T02800241 PA020 DA1920=
0134008415999992015102422534+07300+134200FM-15+000099999V0200701N003619999999N999999999+02831+02401101331ADDMA1101321999999REMMET107MOBOB2 METAR XM21 //000 073342 242253Z AUTO 07007KT 28/24 A2992 RMK      A02 SLP133 T02830240 PA001 DA1930=
0145008415999992015102423534+07300+134200FM-15+000099999V0200701N005119999999N999999999+02861+02411101331ADDMA1101321999999OC100671REMMET110MOBOB2 METAR XM21 //000 073342 242353Z AUTO 07010G13KT 29/24 A2992      RMK A02 SLP133 T02860241 PA001 DA1965=
0134008415999992015102500534+07300+134200FM-15+000099999V0200801N003619999999N999999999+02911+02341101291ADDMA1101291999999REMMET107MOBOB2 METAR XM21 //000 073342 250053Z AUTO 08007KT 29/23 A2991 RMK      A02 SLP129 T02910234 PA010 DA2017=
0145008415999992015102501534+07300+134200FM-15+000099999V0200901N004619999999N999999999+02941+02341101221ADDMA1101221999999OC100621REMMET110MOBOB2 METAR XM21 //000 073342 250153Z AUTO 09009G12KT 29/23 A2989      RMK A02 SLP122 T02940234 PA029 DA2072=
0134008415999992015102502534+07300+134200FM-15+000099999V0201001N004119999999N999999999+02961+02271101161ADDMA1101151999999REMMET107MOBOB2 METAR XM21 //000 073342 250253Z AUTO 10008KT 30/23 A2987 RMK      A02 SLP116 T02960227 PA047 DA2103=
0134008415999992015102503534+07300+134200FM-15+000099999V0201001N005119999999N999999999+02961+02221101061ADDMA1101051999999REMMET107MOBOB2 METAR XM21 //000 073342 250353Z AUTO 10010KT 30/22 A2984 RMK      A02 SLP106 T02960222 PA075 DA2126=
0145008415999992015102504534+07300+134200FM-15+000099999V0200901N005119999999N999999999+02961+02131101021ADDMA1101021999999OC100671REMMET110MOBOB2 METAR XM21 //000 073342 250453Z AUTO 09010G13KT 30/21 A2983      RMK A02 SLP102 T02960213 PA084 DA2120=
0145008415999992015102505534+07300+134200FM-15+000099999V0200901N006719999999N999999999+02931+02231100991ADDMA1100981999999OC100881REMMET110MOBOB2 METAR XM21 //000 073342 250553Z AUTO 09013G17KT 29/22 A2982      RMK A02 SLP099 T02930223 PA094 DA2117=
0145008415999992015102506534+07300+134200FM-15+000099999V0200901N005719999999N999999999+02901+02341100991ADDMA1100981999999OC100671REMMET110MOBOB2 METAR XM21 //000 073342 250653Z AUTO 09011G13KT 29/23 A2982      RMK A02 SLP099 T02900234 PA094 DA2107=
0145008415999992015102507534+07300+134200FM-15+000099999V0200901N005119999999N999999999+02901+02271101061ADDMA1101051999999OC100621REMMET110MOBOB2 METAR XM21 //000 073342 250753Z AUTO 09010G12KT 29/23 A2984      RMK A02 SLP106 T02900227 PA075 DA2069=
0134008415999992015102508534+07300+134200FM-15+000099999V0200801N004619999999N999999999+02871+02321101091ADDMA1101081999999REMMET107MOBOB2 METAR XM21 //000 073342 250853Z AUTO 08009KT 29/23 A2985 RMK      A02 SLP109 T02870232 PA066 DA2035=
0134008415999992015102509534+07300+134200FM-15+000099999V0200601N004619999999N999999999+02861+02301101161ADDMA1101151999999REMMET107MOBOB2 METAR XM21 //000 073342 250953Z AUTO 06009KT 29/23 A2987 RMK      A02 SLP116 T02860230 PA047 DA1997=
0134008415999992015102510534+07300+134200FM-15+000099999V0200701N004619999999N999999999+02841+02371101261ADDMA1101251999999REMMET107MOBOB2 METAR XM21 //000 073342 251053Z AUTO 07009KT 28/24 A2990 RMK      A02 SLP126 T02840237 PA020 DA1956=
0145008415999992015102511534+07300+134200FM-15+000099999V0200601N005119999999N999999999+02831+02421101291ADDMA1101291999999OC100721REMMET110MOBOB2 METAR XM21 //000 073342 251153Z AUTO 06010G14KT 28/24 A2991      RMK A02 SLP129 T02830242 PA010 DA1946=
0145008415999992015102512534+07300+134200FM-15+000099999V0200701N005119999999N999999999+02821+02401101291ADDMA1101291999999OC100721REMMET110MOBOB2 METAR XM21 //000 073342 251253Z AUTO 07010G14KT 28/24 A2991      RMK A02 SLP129 T02820240 PA010 DA1928=
0145008415999992015102513534+07300+134200FM-15+000099999V0200601N004619999999N999999999+02811+02371101261ADDMA1101251999999OC100621REMMET110MOBOB2 METAR XM21 //000 073342 251353Z AUTO 06009G12KT 28/24 A2990      RMK A02 SLP126 T02810237 PA020 DA1922=
0134008415999992015102514534+07300+134200FM-15+000099999V0200701N003619999999N999999999+02811+02351101221ADDMA1101221999999REMMET107MOBOB2 METAR XM21 //000 073342 251453Z AUTO 07007KT 28/24 A2989 RMK      A02 SLP122 T02810235 PA029 DA1930=
0134008415999992015102515534+07300+134200FM-15+000099999V0200501N004119999999N999999999+02791+02401101121ADDMA1101121999999REMMET107MOBOB2 METAR XM21 //000 073342 251553Z AUTO 05008KT 28/24 A2986 RMK      A02 SLP112 T02790240 PA057 DA1954=
0134008415999992015102516534+07300+134200FM-15+000099999V0200601N004619999999N999999999+02771+02441101061ADDMA1101051999999REMMET107MOBOB2 METAR XM21 //000 073342 251653Z AUTO 06009KT 28/24 A2984 RMK      A02 SLP106 T02770244 PA075 DA1963=
0134008415999992015102517534+07300+134200FM-15+000099999V0200701N004119999999N999999999+02771+02391101061ADDMA1101051999999REMMET107MOBOB2 METAR XM21 //000 073342 251753Z AUTO 07008KT 28/24 A2984 RMK      A02 SLP106 T02770239 PA075 DA1950=
0134008415999992015102518534+07300+134200FM-15+000099999V0200601N004119999999N999999999+02781+02431101061ADDMA1101051999999REMMET107MOBOB2 METAR XM21 //000 073342 251853Z AUTO 06008KT 28/24 A2984 RMK      A02 SLP106 T02780243 PA075 DA1972=
0134008415999992015102519534+07300+134200FM-15+000099999V0200501N004119999999N999999999+02761+02401101061ADDMA1101051999999REMMET107MOBOB2 METAR XM21 //000 073342 251953Z AUTO 05008KT 28/24 A2984 RMK      A02 SLP106 T02760240 PA075 DA1942=
0134008415999992015102520534+07300+134200FM-15+000099999V0200601N004119999999N999999999+02771+02381101061ADDMA1101051999999REMMET107MOBOB2 METAR XM21 //000 073342 252053Z AUTO 06008KT 28/24 A2984 RMK      A02 SLP106 T02770238 PA075 DA1949=
0134008415999992015102521534+07300+134200FM-15+000099999V0200501N004619999999N999999999+02801+02351101161ADDMA1101151999999REMMET107MOBOB2 METAR XM21 //000 073342 252153Z AUTO 05009KT 28/23 A2987 RMK      A02 SLP116 T02800235 PA047 DA1941=
0134008415999992015102522534+07300+134200FM-15+000099999V0200601N005119999999N999999999+02821+02351101191ADDMA1101181999999REMMET107MOBOB2 METAR XM21 //000 073342 252253Z AUTO 06010KT 28/23 A2988 RMK      A02 SLP119 T02820235 PA038 DA1952=
0134008415999992015102523534+07300+134200FM-15+000099999V0200601N003619999999N999999999+02841+02361101221ADDMA1101221999999REMMET107MOBOB2 METAR XM21 //000 073342 252353Z AUTO 06007KT 28/24 A2989 RMK      A02 SLP122 T02840236 PA029 DA1967=
0134008415999992015102600534+07300+134200FM-15+000099999V0200501N003619999999N999999999+02861+02301101221ADDMA1101221999999REMMET107MOBOB2 METAR XM21 //000 073342 260053Z AUTO 05007KT 29/23 A2989 RMK      A02 SLP122 T02860230 PA029 DA1976=
0134008415999992015102601534+07300+134200FM-15+000099999V0200101N003119999999N999999999+02891+02351101191ADDMA1101181999999REMMET107MOBOB2 METAR XM21 //000 073342 260153Z AUTO 01006KT 29/23 A2988 RMK      A02 SLP119 T02890235 PA038 DA2030=
0134008415999992015102602534+07300+134200FM-15+000099999V0200101N003619999999N999999999+02891+02371101121ADDMA1101121999999REMMET107MOBOB2 METAR XM21 //000 073342 260253Z AUTO 01007KT 29/24 A2986 RMK      A02 SLP112 T02890237 PA057 DA2057=
0161008415999992015102603534+07300+134200FM-15+000099999V0200501N002119999999N999999999+02791+02421101061ADDAA101000231AW1611MA1101051999999REMMET117MOBOB2 METAR XM21 //000 073342 260353Z AUTO 05004KT -RA 28/24 A2984      RMK A02 SLP106 P0001 T02790242 PA075 DA1982=
0161008415999992015102604534+07300+134200FM-15+000099999V0201001N001519999999N999999999+02721+02491100991ADDAA101005031AW1611MA1100981999999REMMET117MOBOB2 METAR XM21 //000 073342 260453Z AUTO 10003KT -RA 27/25 A2982      RMK A02 SLP099 P0020 T02720249 PA094 DA1941=
0172008415999992015102605534+07300+134200FM-15+000099999V0202201N004619999999N999999999+02761+02401100951ADDAA101000021AW1611MA1100951999999OC100621REMMET120MOBOB2 METAR XM21 //000 073342 260553Z AUTO 22009G12KT -RA 28/24 A2981      RMK A02 SLP095 P0000 T02760240 PA103 DA1976=
0134008415999992015102606534+07300+134200FM-15+000099999V0202601N003619999999N999999999+02781+02391100991ADDMA1100981999999REMMET107MOBOB2 METAR XM21 //000 073342 260653Z AUTO 26007KT 28/24 A2982 RMK      A02 SLP099 T02780239 PA094 DA1985=
0134008415999992015102607534+07300+134200FM-15+000099999V0202301N001519999999N999999999+02831+02401101061ADDMA1101051999999REMMET107MOBOB2 METAR XM21 //000 073342 260753Z AUTO 23003KT 28/24 A2984 RMK      A02 SLP106 T02830240 PA075 DA2020=
0134008415999992015102608534+07300+134200FM-15+000099999V0203301N001519999999N999999999+02801+02371101121ADDMA1101121999999REMMET107MOBOB2 METAR XM21 //000 073342 260853Z AUTO 33003KT 28/24 A2986 RMK      A02 SLP112 T02800237 PA057 DA1957=
0134008415999992015102609534+07300+134200FM-15+000099999V0202901N001019999999N999999999+02791+02391101161ADDMA1101151999999REMMET107MOBOB2 METAR XM21 //000 073342 260953Z AUTO 29002KT 28/24 A2987 RMK      A02 SLP116 T02790239 PA047 DA1939=
0134008415999992015102610534+07300+134200FM-15+000099999V0200601N004119999999N999999999+02851+02391101221ADDMA1101221999999REMMET107MOBOB2 METAR XM21 //000 073342 261053Z AUTO 06008KT 29/24 A2989 RMK      A02 SLP122 T02850239 PA029 DA1982=
0134008415999992015102611534+07300+134200FM-15+000099999V0200701N003619999999N999999999+02831+02441101291ADDMA1101291999999REMMET107MOBOB2 METAR XM21 //000 073342 261153Z AUTO 07007KT 28/24 A2991 RMK      A02 SLP129 T02830244 PA010 DA1950=
0134008415999992015102612534+07300+134200FM-15+000099999V0200501N003619999999N999999999+02831+02421101291ADDMA1101291999999REMMET107MOBOB2 METAR XM21 //000 073342 261253Z AUTO 05007KT 28/24 A2991 RMK      A02 SLP129 T02830242 PA010 DA1946=
0134008415999992015102613534+07300+134200FM-15+000099999V0200601N003619999999N999999999+02831+02411101291ADDMA1101291999999REMMET107MOBOB2 METAR XM21 //000 073342 261353Z AUTO 06007KT 28/24 A2991 RMK      A02 SLP129 T02830241 PA010 DA1942=
0134008415999992015102614534+07300+134200FM-15+000099999V0200601N003119999999N999999999+02821+02411101221ADDMA1101221999999REMMET107MOBOB2 METAR XM21 //000 073342 261453Z AUTO 06006KT 28/24 A2989 RMK      A02 SLP122 T02820241 PA029 DA1956=
0134008415999992015102615534+07300+134200FM-15+000099999V0200501N004619999999N999999999+02801+02411101161ADDMA1101151999999REMMET107MOBOB2 METAR XM21 //000 073342 261553Z AUTO 05009KT 28/24 A2987 RMK      A02 SLP116 T02800241 PA047 DA1956=
0134008415999992015102616534+07300+134200FM-15+000099999V0200601N003619999999N999999999+02801+02411101091ADDMA1101081999999REMMET107MOBOB2 METAR XM21 //000 073342 261653Z AUTO 06007KT 28/24 A2985 RMK      A02 SLP109 T02800241 PA066 DA1977=
0134008415999992015102617534+07300+134200FM-15+000099999V0200601N003119999999N999999999+02791+02431101061ADDMA1101051999999REMMET107MOBOB2 METAR XM21 //000 073342 261753Z AUTO 06006KT 28/24 A2984 RMK      A02 SLP106 T02790243 PA075 DA1983=
0134008415999992015102618534+07300+134200FM-15+000099999V0200401N003619999999N999999999+02791+02421101021ADDMA1101021999999REMMET107MOBOB2 METAR XM21 //000 073342 261853Z AUTO 04007KT 28/24 A2983 RMK      A02 SLP102 T02790242 PA084 DA1992=
0134008415999992015102619534+07300+134200FM-15+000099999V0200401N004619999999N999999999+02791+02401101061ADDMA1101051999999REMMET107MOBOB2 METAR XM21 //000 073342 261953Z AUTO 04009KT 28/24 A2984 RMK      A02 SLP106 T02790240 PA075 DA1975=
0134008415999992015102620534+07300+134200FM-15+000099999V0200601N004619999999N999999999+02791+02411101091ADDMA1101081999999REMMET107MOBOB2 METAR XM21 //000 073342 262053Z AUTO 06009KT 28/24 A2985 RMK      A02 SLP109 T02790241 PA066 DA1968=
0134008415999992015102621534+07300+134200FM-15+000099999V0200401N004119999999N999999999+02811+02371101161ADDMA1101151999999REMMET107MOBOB2 METAR XM21 //000 073342 262153Z AUTO 04008KT 28/24 A2987 RMK      A02 SLP116 T02810237 PA047 DA1957=
0134008415999992015102622534+07300+134200FM-15+000099999V0200401N004119999999N999999999+02821+02371101221ADDMA1101221999999REMMET107MOBOB2 METAR XM21 //000 073342 262253Z AUTO 04008KT 28/24 A2989 RMK      A02 SLP122 T02820237 PA029 DA1946=
0134008415999992015102623534+07300+134200FM-15+000099999V0200401N004119999999N999999999+02841+02381101191ADDMA1101181999999REMMET107MOBOB2 METAR XM21 //000 073342 262353Z AUTO 04008KT 28/24 A2988 RMK      A02 SLP119 T02840238 PA038 DA1983=
0134008415999992015102700534+07300+134200FM-15+000099999V0200401N004119999999N999999999+02861+02351101191ADDMA1101181999999REMMET107MOBOB2 METAR XM21 //000 073342 270053Z AUTO 04008KT 29/24 A2988 RMK      A02 SLP119 T02860235 PA038 DA1997=
0134008415999992015102701534+07300+134200FM-15+000099999V0200201N003119999999N999999999+02881+02381101161ADDMA1101151999999REMMET107MOBOB2 METAR XM21 //000 073342 270153Z AUTO 02006KT 29/24 A2987 RMK      A02 SLP116 T02880238 PA047 DA2038=
0134008415999992015102702534+07300+134200FM-15+000099999V0200201N004119999999N999999999+02891+02341101091ADDMA1101081999999REMMET107MOBOB2 METAR XM21 //000 073342 270253Z AUTO 02008KT 29/23 A2985 RMK      A02 SLP109 T02890234 PA066 DA2063=
0134008415999992015102703534+07300+134200FM-15+000099999V0200201N005119999999N999999999+02891+02451101021ADDMA1101021999999REMMET107MOBOB2 METAR XM21 //000 073342 270353Z AUTO 02010KT 29/24 A2983 RMK      A02 SLP102 T02890245 PA084 DA2110=
0134008415999992015102704534+07300+134200FM-15+000099999V0201501N003119999999N999999999+02951+02401100951ADDMA1100951999999REMMET107MOBOB2 METAR XM21 //000 073342 270453Z AUTO 15006KT 30/24 A2981 RMK      A02 SLP095 T02950240 PA103 DA2188=
0134008415999992015102705534+07300+134200FM-15+000099999V0201001N003119999999N999999999+02961+02341100921ADDMA1100911999999REMMET107MOBOB2 METAR XM21 //000 073342 270553Z AUTO 10006KT 30/23 A2980 RMK      A02 SLP092 T02960234 PA112 DA2197=
0134008415999992015102706534+07300+134200FM-15+000099999V0201001N004119999999N999999999+02931+02411100921ADDMA1100911999999REMMET107MOBOB2 METAR XM21 //000 073342 270653Z AUTO 10008KT 29/24 A2980 RMK      A02 SLP092 T02930241 PA112 DA2180=
0145008415999992015102707534+07300+134200FM-15+000099999V0200801N005119999999N999999999+02901+02321100951ADDMA1100951999999OC100621REMMET110MOBOB2 METAR XM21 //000 073342 270753Z AUTO 08010G12KT 29/23 A2981      RMK A02 SLP095 T02900232 PA103 DA2116=
0145008415999992015102708534+07300+134200FM-15+000099999V0200901N004619999999N999999999+02871+02401100991ADDMA1100981999999OC100621REMMET110MOBOB2 METAR XM21 //000 073342 270853Z AUTO 09009G12KT 29/24 A2982      RMK A02 SLP099 T02870240 PA094 DA2088=
0134008415999992015102709534+07300+134200FM-15+000099999V0200801N004619999999N999999999+02851+02401101061ADDMA1101051999999REMMET107MOBOB2 METAR XM21 //000 073342 270953Z AUTO 08009KT 29/24 A2984 RMK      A02 SLP106 T02850240 PA075 DA2043=
0134008415999992015102710534+07300+134200FM-15+000099999V0200601N004619999999N999999999+02851+02401101121ADDMA1101121999999REMMET107MOBOB2 METAR XM21 //000 073342 271053Z AUTO 06009KT 29/24 A2986 RMK      A02 SLP112 T02850240 PA057 DA2021=
0134008415999992015102711534+07300+134200FM-15+000099999V0200701N004119999999N999999999+02851+02401101191ADDMA1101181999999REMMET107MOBOB2 METAR XM21 //000 073342 271153Z AUTO 07008KT 29/24 A2988 RMK      A02 SLP119 T02850240 PA038 DA1998=
0134008415999992015102712534+07300+134200FM-15+000099999V0200701N004119999999N999999999+02851+02421101221ADDMA1101221999999REMMET107MOBOB2 METAR XM21 //000 073342 271253Z AUTO 07008KT 29/24 A2989 RMK      A02 SLP122 T02850242 PA029 DA1990=
0172008415999992015102713534+07300+134200FM-15+000099999V0200701N005119999999N999999999+02561+02291101191ADDAA101002531AW1631MA1101181999999OC100771REMMET120MOBOB2 METAR XM21 //000 073342 271353Z AUTO 07010G15KT +RA 26/23 A2988      RMK A02 SLP119 P0010 T02560229 PA038 DA1646=
0172008415999992015102714534+07300+134200FM-15+000099999V0200701N005719999999N999999999+02701+02421101191ADDAA101000531AW1631MA1101181999999OC101081REMMET120MOBOB2 METAR XM21 //000 073342 271453Z AUTO 07011G21KT +RA 27/24 A2988      RMK A02 SLP119 P0002 T02700242 PA038 DA1833=
0172008415999992015102715534+07300+134200FM-15+000099999V0200501N006219999999N999999999+02671+02401101161ADDAA101002531AW1611MA1101151999999OC100721REMMET120MOBOB2 METAR XM21 //000 073342 271553Z AUTO 05012G14KT -RA 27/24 A2987      RMK A02 SLP116 P0010 T02670240 PA047 DA1807=
0134008415999992015102716534+07300+134200FM-15+000099999V0200701N004119999999N999999999+02711+02421101091ADDMA1101081999999REMMET107MOBOB2 METAR XM21 //000 073342 271653Z AUTO 07008KT 27/24 A2985 RMK      A02 SLP109 T02710242 PA066 DA1878=
0145008415999992015102717534+07300+134200FM-15+000099999V0200501N004619999999N999999999+02741+02451101061ADDMA1101051999999OC100621REMMET110MOBOB2 METAR XM21 //000 073342 271753Z AUTO 05009G12KT 27/25 A2984      RMK A02 SLP106 T02740245 PA075 DA1932=
0134008415999992015102718534+07300+134200FM-15+000099999V0200401N004619999999N999999999+02761+02461101061ADDMA1101051999999REMMET107MOBOB2 METAR XM21 //000 073342 271853Z AUTO 04009KT 28/25 A2984 RMK      A02 SLP106 T02760246 PA075 DA1956=
0145008415999992015102719534+07300+134200FM-15+000099999V0200501N004119999999N999999999+02771+02481101061ADDMA1101051999999OC100621REMMET110MOBOB2 METAR XM21 //000 073342 271953Z AUTO 05008G12KT 28/25 A2984      RMK A02 SLP106 T02770248 PA075 DA1972=
0134008415999992015102720534+07300+134200FM-15+000099999V0200601N004119999999N999999999+02761+02441101121ADDMA1101121999999REMMET107MOBOB2 METAR XM21 //000 073342 272053Z AUTO 06008KT 28/24 A2986 RMK      A02 SLP112 T02760244 PA057 DA1929=
0134008415999992015102721534+07300+134200FM-15+000099999V0200601N004119999999N999999999+02791+02421101221ADDMA1101221999999REMMET107MOBOB2 METAR XM21 //000 073342 272153Z AUTO 06008KT 28/24 A2989 RMK      A02 SLP122 T02790242 PA029 DA1924=
0134008415999992015102722534+07300+134200FM-15+000099999V0200601N003619999999N999999999+02821+02461101261ADDMA1101251999999REMMET107MOBOB2 METAR XM21 //000 073342 272253Z AUTO 06007KT 28/25 A2990 RMK      A02 SLP126 T02820246 PA020 DA1954=
0134008415999992015102723534+07300+134200FM-15+000099999V0200601N004119999999N999999999+02851+02431101331ADDMA1101321999999REMMET107MOBOB2 METAR XM21 //000 073342 272353Z AUTO 06008KT 29/24 A2992 RMK      A02 SLP133 T02850243 PA001 DA1959=
0134008415999992015102800534+07300+134200FM-15+000099999V0200501N003119999999N999999999+02871+02441101291ADDMA1101291999999REMMET107MOBOB2 METAR XM21 //000 073342 280053Z AUTO 05006KT 29/24 A2991 RMK      A02 SLP129 T02870244 PA010 DA1995=
0134008415999992015102801534+07300+134200FM-15+000099999V0200301N002119999999N999999999+02901+02421101221ADDMA1101221999999REMMET107MOBOB2 METAR XM21 //000 073342 280153Z AUTO 03004KT 29/24 A2989 RMK      A02 SLP122 T02900242 PA029 DA2047=
0145008415999992015102802534+07300+134200FM-15+000099999V0201101N004619999999N999999999+02891+02441101161ADDMA1101151999999OC100721REMMET110MOBOB2 METAR XM21 //000 073342 280253Z AUTO 11009G14KT 29/24 A2987      RMK A02 SLP116 T02890244 PA047 DA2063=
0134008415999992015102803534+07300+134200FM-15+000099999V0200101N003619999999N999999999+02801+02361101121ADDMA1101121999999REMMET107MOBOB2 METAR XM21 //000 073342 280353Z AUTO 01007KT 28/24 A2986 RMK      A02 SLP112 T02800236 PA057 DA1954=
0134008415999992015102804534+07300+134200FM-15+000099999V0203201N001019999999N999999999+03001+02381101061ADDMA1101051999999REMMET107MOBOB2 METAR XM21 //000 073342 280453Z AUTO 32002KT 30/24 A2984 RMK      A02 SLP106 T03000238 PA075 DA2205=
0134008415999992015102805534+07300+134200FM-15+000099999V0203201N001019999999N999999999+03021+02371101021ADDMA1101021999999REMMET107MOBOB2 METAR XM21 //000 073342 280553Z AUTO 32002KT 30/24 A2983 RMK      A02 SLP102 T03020237 PA084 DA2236=
0134008415999992015102806534+07300+134200FM-15+000099999V0200101N003619999999N999999999+02781+02461101021ADDMA1101021999999REMMET107MOBOB2 METAR XM21 //000 073342 280653Z AUTO 01007KT 28/25 A2983 RMK      A02 SLP102 T02780246 PA084 DA1991=
0134008415999992015102807534+07300+134200FM-15+000099999V0200201N003619999999N999999999+02761+02351101061ADDMA1101051999999REMMET107MOBOB2 METAR XM21 //000 073342 280753Z AUTO 02007KT 28/24 A2984 RMK      A02 SLP106 T02760235 PA075 DA1931=
0134008415999992015102808534+07300+134200FM-15+000099999V0200301N002119999999N999999999+02801+02461101091ADDMA1101081999999REMMET107MOBOB2 METAR XM21 //000 073342 280853Z AUTO 03004KT 28/25 A2985 RMK      A02 SLP109 T02800246 PA066 DA1990=
0161008415999992015102809534+07300+134200FM-15+000099999V0200501N003119999999N999999999+02781+02441101161ADDAA101000021AW1611MA1101151999999REMMET117MOBOB2 METAR XM21 //000 073342 280953Z AUTO 05006KT -RA 28/24 A2987      RMK A02 SLP116 P0000 T02780244 PA047 DA1940=
0134008415999992015102810534+07300+134200FM-15+000099999V0200701N002619999999N999999999+02821+02411101221ADDMA1101221999999REMMET107MOBOB2 METAR XM21 //000 073342 281053Z AUTO 07005KT 28/24 A2989 RMK      A02 SLP122 T02820241 PA029 DA1954=
0134008415999992015102811534+07300+134200FM-15+000099999V0200601N002619999999N999999999+02821+02441101221ADDMA1101221999999REMMET107MOBOB2 METAR XM21 //000 073342 281153Z AUTO 06005KT 28/24 A2989 RMK      A02 SLP122 T02820244 PA029 DA1962=
0134008415999992015102812534+07300+134200FM-15+000099999V0200701N002619999999N999999999+02821+02421101261ADDMA1101251999999REMMET107MOBOB2 METAR XM21 //000 073342 281253Z AUTO 07005KT 28/24 A2990 RMK      A02 SLP126 T02820242 PA020 DA1945=
0134008415999992015102813534+07300+134200FM-15+000099999V0200701N003119999999N999999999+02811+02461101261ADDMA1101251999999REMMET107MOBOB2 METAR XM21 //000 073342 281353Z AUTO 07006KT 28/25 A2990 RMK      A02 SLP126 T02810246 PA020 DA1944=
0134008415999992015102814534+07300+134200FM-15+000099999V0200801N002619999999N999999999+02791+02441101221ADDMA1101221999999REMMET107MOBOB2 METAR XM21 //000 073342 281453Z AUTO 08005KT 28/24 A2989 RMK      A02 SLP122 T02790244 PA029 DA1929=
0134008415999992015102815534+07300+134200FM-15+000099999V0200801N002619999999N999999999+02791+02441101161ADDMA1101151999999REMMET107MOBOB2 METAR XM21 //000 073342 281553Z AUTO 08005KT 28/24 A2987 RMK      A02 SLP116 T02790244 PA047 DA1950=
0134008415999992015102816534+07300+134200FM-15+000099999V0200801N002619999999N999999999+02791+02431101121ADDMA1101121999999REMMET107MOBOB2 METAR XM21 //000 073342 281653Z AUTO 08005KT 28/24 A2986 RMK      A02 SLP112 T02790243 PA057 DA1961=
0134008415999992015102817534+07300+134200FM-15+000099999V0200701N002119999999N999999999+02781+02451101061ADDMA1101051999999REMMET107MOBOB2 METAR XM21 //000 073342 281753Z AUTO 07004KT 28/25 A2984 RMK      A02 SLP106 T02780245 PA075 DA1977=
0134008415999992015102818534+07300+134200FM-15+000099999V0200601N002619999999N999999999+02781+02431101061ADDMA1101051999999REMMET107MOBOB2 METAR XM21 //000 073342 281853Z AUTO 06005KT 28/24 A2984 RMK      A02 SLP106 T02780243 PA075 DA1971=
0134008415999992015102819534+07300+134200FM-15+000099999V0200601N003119999999N999999999+02791+02431101091ADDMA1101081999999REMMET107MOBOB2 METAR XM21 //000 073342 281953Z AUTO 06006KT 28/24 A2985 RMK      A02 SLP109 T02790243 PA066 DA1972=
0134008415999992015102820534+07300+134200FM-15+000099999V0200601N003119999999N999999999+02791+02421101121ADDMA1101121999999REMMET107MOBOB2 METAR XM21 //000 073342 282053Z AUTO 06006KT 28/24 A2986 RMK      A02 SLP112 T02790242 PA057 DA1957=
0134008415999992015102821534+07300+134200FM-15+000099999V0200501N003619999999N999999999+02821+02431101191ADDMA1101181999999REMMET107MOBOB2 METAR XM21 //000 073342 282153Z AUTO 05007KT 28/24 A2988 RMK      A02 SLP119 T02820243 PA038 DA1971=
0134008415999992015102822534+07300+134200FM-15+000099999V0200401N004119999999N999999999+02831+02421101221ADDMA1101221999999REMMET107MOBOB2 METAR XM21 //000 073342 282253Z AUTO 04008KT 28/24 A2989 RMK      A02 SLP122 T02830242 PA029 DA1968=
0134008415999992015102823534+07300+134200FM-15+000099999V0200301N004119999999N999999999+02841+02401101221ADDMA1101221999999REMMET107MOBOB2 METAR XM21 //000 073342 282353Z AUTO 03008KT 28/24 A2989 RMK      A02 SLP122 T02840240 PA029 DA1975=
0134008415999992015102900534+07300+134200FM-15+000099999V0200401N004119999999N999999999+02871+02421101261ADDMA1101251999999REMMET107MOBOB2 METAR XM21 //000 073342 290053Z AUTO 04008KT 29/24 A2990 RMK      A02 SLP126 T02870242 PA020 DA2002=
0134008415999992015102901534+07300+134200FM-15+000099999V0200301N003619999999N999999999+02891+02371101221ADDMA1101221999999REMMET107MOBOB2 METAR XM21 //000 073342 290153Z AUTO 03007KT 29/24 A2989 RMK      A02 SLP122 T02890237 PA029 DA2024=
0134008415999992015102902534+07300+134200FM-15+000099999V0200301N003619999999N999999999+02901+02401101121ADDMA1101121999999REMMET107MOBOB2 METAR XM21 //000 073342 290253Z AUTO 03007KT 29/24 A2986 RMK      A02 SLP112 T02900240 PA057 DA2076=
0134008415999992015102903534+07300+134200FM-15+000099999V0200201N004619999999N999999999+02911+02431101061ADDMA1101051999999REMMET107MOBOB2 METAR XM21 //000 073342 290353Z AUTO 02009KT 29/24 A2984 RMK      A02 SLP106 T02910243 PA075 DA2117=
0172008415999992015102904534+07300+134200FM-15+000099999V0200201N005119999999N999999999+02831+02441100991ADDAA101000021AW1611MA1100981999999OC100621REMMET120MOBOB2 METAR XM21 //000 073342 290453Z AUTO 02010G12KT -RA 28/24 A2982      RMK A02 SLP099 P0000 T02830244 PA094 DA2052=
0172008415999992015102905534+07300+134200FM-15+000099999V0200201N006719999999N999999999+02921+02411100921ADDAA101001531AW1611MA1100911999999OC100821REMMET120MOBOB2 METAR XM21 //000 073342 290553Z AUTO 02013G16KT -RA 29/24 A2980      RMK A02 SLP092 P0006 T02920241 PA112 DA2168=
0145008415999992015102906534+07300+134200FM-15+000099999V0200201N006219999999N999999999+02901+02501100951ADDMA1100951999999OC100771REMMET110MOBOB2 METAR XM21 //000 073342 290653Z AUTO 02012G15KT 29/25 A2981      RMK A02 SLP095 T02900250 PA103 DA2157=
0172008415999992015102907534+07300+134200FM-15+000099999V0200301N006219999999N999999999+02871+02471100991ADDAA101000021AW1611MA1100981999999OC100771REMMET120MOBOB2 METAR XM21 //000 073342 290753Z AUTO 03012G15KT -RA 29/25 A2982      RMK A02 SLP099 P0000 T02870247 PA094 DA2105=
0161008415999992015102908534+07300+134200FM-15+000099999V0200701N004119999999N999999999+02911+02311101021ADDAA101000021AW1611MA1101021999999REMMET117MOBOB2 METAR XM21 //000 073342 290853Z AUTO 07008KT -RA 29/23 A2983      RMK A02 SLP102 P0000 T02910231 PA084 DA2100=
0145008415999992015102909534+07300+134200FM-15+000099999V0200601N004619999999N999999999+02891+02421101061ADDMA1101051999999OC100621REMMET110MOBOB2 METAR XM21 //000 073342 290953Z AUTO 06009G12KT 29/24 A2984      RMK A02 SLP106 T02890242 PA075 DA2092=
0145008415999992015102910534+07300+134200FM-15+000099999V0200501N006719999999N999999999+02861+02451101091ADDMA1101081999999OC100821REMMET110MOBOB2 METAR XM21 //000 073342 291053Z AUTO 05013G16KT 29/25 A2985      RMK A02 SLP109 T02860245 PA066 DA2055=
0145008415999992015102911534+07300+134200FM-15+000099999V0200501N005719999999N999999999+02851+02481101161ADDMA1101151999999OC100721REMMET110MOBOB2 METAR XM21 //000 073342 291153Z AUTO 05011G14KT 29/25 A2987      RMK A02 SLP116 T02850248 PA047 DA2028=
0145008415999992015102912534+07300+134200FM-15+000099999V0200401N006219999999N999999999+02851+02411101161ADDMA1101151999999OC100721REMMET110MOBOB2 METAR XM21 //000 073342 291253Z AUTO 04012G14KT 29/24 A2987      RMK A02 SLP116 T02850241 PA047 DA2012=
0145008415999992015102913534+07300+134200FM-15+000099999V0200501N006219999999N999999999+02831+02361101191ADDMA1101181999999OC100721REMMET110MOBOB2 METAR XM21 //000 073342 291353Z AUTO 05012G14KT 28/24 A2988      RMK A02 SLP119 T02830236 PA038 DA1967=
0145008415999992015102914534+07300+134200FM-15+000099999V0200401N006719999999N999999999+02821+02461101121ADDMA1101121999999OC100721REMMET110MOBOB2 METAR XM21 //000 073342 291453Z AUTO 04013G14KT 28/25 A2986      RMK A02 SLP112 T02820246 PA057 DA2001=
0145008415999992015102915534+07300+134200FM-15+000099999V0200401N006219999999N999999999+02811+02441101091ADDMA1101081999999OC100721REMMET110MOBOB2 METAR XM21 //000 073342 291553Z AUTO 04012G14KT 28/24 A2985      RMK A02 SLP109 T02810244 PA066 DA1997=
0145008415999992015102916534+07300+134200FM-15+000099999V0200401N006719999999N999999999+02811+02431101021ADDMA1101021999999OC100821REMMET110MOBOB2 METAR XM21 //000 073342 291653Z AUTO 04013G16KT 28/24 A2983      RMK A02 SLP102 T02810243 PA084 DA2016=
0145008415999992015102917534+07300+134200FM-15+000099999V0200401N005719999999N999999999+02811+02451100951ADDMA1100951999999OC100771REMMET110MOBOB2 METAR XM21 //000 073342 291753Z AUTO 04011G15KT 28/25 A2981      RMK A02 SLP095 T02810245 PA103 DA2045=
0145008415999992015102918534+07300+134200FM-15+000099999V0200501N007219999999N999999999+02801+02471100951ADDMA1100951999999OC100821REMMET110MOBOB2 METAR XM21 //000 073342 291853Z AUTO 05014G16KT 28/25 A2981      RMK A02 SLP095 T02800247 PA103 DA2037=
0145008415999992015102919534+07300+134200FM-15+000099999V0200501N006219999999N999999999+02771+02501100991ADDMA1100981999999OC100771REMMET110MOBOB2 METAR XM21 //000 073342 291953Z AUTO 05012G15KT 28/25 A2982      RMK A02 SLP099 T02770250 PA094 DA1999=
0134008415999992015102920534+07300+134200FM-15+000099999V0200501N005119999999N999999999+02781+02481101021ADDMA1101021999999REMMET107MOBOB2 METAR XM21 //000 073342 292053Z AUTO 05010KT 28/25 A2983 RMK      A02 SLP102 T02780248 PA084 DA1995=
0134008415999992015102921534+07300+134200FM-15+000099999V0200701N003619999999N999999999+02821+02471101121ADDMA1101121999999REMMET107MOBOB2 METAR XM21 //000 073342 292153Z AUTO 07007KT 28/25 A2986 RMK      A02 SLP112 T02820247 PA057 DA2002=
0134008415999992015102922534+07300+134200FM-15+000099999V0200601N004119999999N999999999+02851+02471101161ADDMA1101151999999REMMET107MOBOB2 METAR XM21 //000 073342 292253Z AUTO 06008KT 29/25 A2987 RMK      A02 SLP116 T02850247 PA047 DA2025=
0172008415999992015102923534+07300+134200FM-15+000099999V0200501N004619999999N999999999+02811+02391101191ADDAA101000021AW1611MA1101181999999OC100621REMMET120MOBOB2 METAR XM21 //000 073342 292353Z AUTO 05009G12KT -RA 28/24 A2988      RMK A02 SLP119 P0000 T02810239 PA038 DA1951=
0145008415999992015103000534+07300+134200FM-15+000099999V0200601N005719999999N999999999+02861+02391101161ADDMA1101151999999OC100981REMMET110MOBOB2 METAR XM21 //000 073342 300053Z AUTO 06011G19KT 29/24 A2987      RMK A02 SLP116 T02860239 PA047 DA2018=
0145008415999992015103001534+07300+134200FM-15+000099999V0200901N005719999999N999999999+02931+02371101091ADDMA1101081999999OC100671REMMET110MOBOB2 METAR XM21 //000 073342 300153Z AUTO 09011G13KT 29/24 A2985      RMK A02 SLP109 T02930237 PA066 DA2113=
0145008415999992015103002534+07300+134200FM-15+000099999V0200901N006219999999N999999999+02951+02291100991ADDMA1100981999999OC100771REMMET110MOBOB2 METAR XM21 //000 073342 300253Z AUTO 09012G15KT 30/23 A2982      RMK A02 SLP099 T02950229 PA094 DA2154=
0134008415999992015103003534+07300+134200FM-15+000099999V0201001N004119999999N999999999+02961+02271100891ADDMA1100881999999REMMET107MOBOB2 METAR XM21 //000 073342 300353Z AUTO 10008KT 30/23 A2979 RMK      A02 SLP089 T02960227 PA122 DA2194=
0145008415999992015103004534+07300+134200FM-15+000099999V0200701N005119999999N999999999+02961+02351100821ADDMA1100811999999OC100621REMMET110MOBOB2 METAR XM21 //000 073342 300453Z AUTO 07010G12KT 30/24 A2977      RMK A02 SLP082 T02960235 PA140 DA2234=
0145008415999992015103005534+07300+134200FM-15+000099999V0201001N005119999999N999999999+02971+02231100781ADDMA1100781999999OC100671REMMET110MOBOB2 METAR XM21 //000 073342 300553Z AUTO 10010G13KT 30/22 A2976      RMK A02 SLP078 T02970223 PA149 DA2231=
0145008415999992015103006534+07300+134200FM-15+000099999V0200901N005719999999N999999999+02951+02271100781ADDMA1100781999999OC100721REMMET110MOBOB2 METAR XM21 //000 073342 300653Z AUTO 09011G14KT 30/23 A2976      RMK A02 SLP078 T02950227 PA149 DA2217=
0145008415999992015103007534+07300+134200FM-15+000099999V0200901N005719999999N999999999+02931+02181100821ADDMA1100811999999OC100671REMMET110MOBOB2 METAR XM21 //000 073342 300753Z AUTO 09011G13KT 29/22 A2977      RMK A02 SLP082 T02930218 PA140 DA2164=
0134008415999992015103008534+07300+134200FM-15+000099999V0200901N004619999999N999999999+02891+02401100891ADDMA1100881999999REMMET107MOBOB2 METAR XM21 //000 073342 300853Z AUTO 09009KT 29/24 A2979 RMK      A02 SLP089 T02890240 PA122 DA2145=
0145008415999992015103009534+07300+134200FM-15+000099999V0200801N005119999999N999999999+02881+02321100951ADDMA1100951999999OC100721REMMET110MOBOB2 METAR XM21 //000 073342 300953Z AUTO 08010G14KT 29/23 A2981      RMK A02 SLP095 T02880232 PA103 DA2094=
0145008415999992015103010534+07300+134200FM-15+000099999V0200701N005719999999N999999999+02871+02351101021ADDMA1101021999999OC100721REMMET110MOBOB2 METAR XM21 //000 073342 301053Z AUTO 07011G14KT 29/24 A2983      RMK A02 SLP102 T02870235 PA084 DA2066=
0145008415999992015103011534+07300+134200FM-15+000099999V0200601N005119999999N999999999+02861+02421101061ADDMA1101051999999OC100721REMMET110MOBOB2 METAR XM21 //000 073342 301153Z AUTO 06010G14KT 29/24 A2984      RMK A02 SLP106 T02860242 PA075 DA2058=
0145008415999992015103012534+07300+134200FM-15+000099999V0200701N005119999999N999999999+02851+02431101091ADDMA1101081999999OC100721REMMET110MOBOB2 METAR XM21 //000 073342 301253Z AUTO 07010G14KT 29/24 A2985      RMK A02 SLP109 T02850243 PA066 DA2039=
0172008415999992015103013534+07300+134200FM-15+000099999V0200601N005119999999N999999999+02821+02441101091ADDAA101000021AW1611MA1101081999999OC100671REMMET120MOBOB2 METAR XM21 //000 073342 301353Z AUTO 06010G13KT -RA 28/24 A2985      RMK A02 SLP109 P0000 T02820244 PA066 DA2007=
0145008415999992015103014534+07300+134200FM-15+000099999V0200501N005719999999N999999999+02841+02431101091ADDMA1101081999999OC100721REMMET110MOBOB2 METAR XM21 //000 073342 301453Z AUTO 05011G14KT 28/24 A2985      RMK A02 SLP109 T02840243 PA066 DA2028=
0145008415999992015103015534+07300+134200FM-15+000099999V0200601N006219999999N999999999+02821+02451100991ADDMA1100981999999OC100771REMMET110MOBOB2 METAR XM21 //000 073342 301553Z AUTO 06012G15KT 28/25 A2982      RMK A02 SLP099 T02820245 PA094 DA2044=
0134008415999992015103016534+07300+134200FM-15+000099999V0200601N003619999999N999999999+02801+02441100891ADDMA1100881999999REMMET107MOBOB2 METAR XM21 //000 073342 301653Z AUTO 06007KT 28/24 A2979 RMK      A02 SLP089 T02800244 PA122 DA2053=
0134008415999992015103017534+07300+134200FM-15+000099999V0200501N005119999999N999999999+02801+02481100851ADDMA1100851999999REMMET107MOBOB2 METAR XM21 //000 073342 301753Z AUTO 05010KT 28/25 A2978 RMK      A02 SLP085 T02800248 PA131 DA2075=
0172008415999992015103018534+07300+134200FM-15+000099999V0200501N005719999999N999999999+02811+02491100851ADDAA101000021AW1611MA1100851999999OC100721REMMET120MOBOB2 METAR XM21 //000 073342 301853Z AUTO 05011G14KT -RA 28/25 A2978      RMK A02 SLP085 P0000 T02810249 PA131 DA2089=
0161008415999992015103019534+07300+134200FM-15+000099999V0200701N004119999999N999999999+02681+02421100851ADDAA101000021AW1611MA1100851999999REMMET117MOBOB2 METAR XM21 //000 073342 301953Z AUTO 07008KT -RA 27/24 A2978      RMK A02 SLP085 P0000 T02680242 PA131 DA1926=
0134008415999992015103020534+07300+134200FM-15+000099999V0200601N004119999999N999999999+02781+02411100921ADDMA1100911999999REMMET107MOBOB2 METAR XM21 //000 073342 302053Z AUTO 06008KT 28/24 A2980 RMK      A02 SLP092 T02780241 PA112 DA2013=
0134008415999992015103021534+07300+134200FM-15+000099999V0200701N004619999999N999999999+02831+02401100991ADDMA1100981999999REMMET107MOBOB2 METAR XM21 //000 073342 302153Z AUTO 07009KT 28/24 A2982 RMK      A02 SLP099 T02830240 PA094 DA2044=
0134008415999992015103022534+07300+134200FM-15+000099999V0200701N004619999999N999999999+02841+02461101091ADDMA1101081999999REMMET107MOBOB2 METAR XM21 //000 073342 302253Z AUTO 07009KT 28/25 A2985 RMK      A02 SLP109 T02840246 PA066 DA2034=
0145008415999992015103023534+07300+134200FM-15+000099999V0200701N005119999999N999999999+02891+02381101121ADDMA1101121999999OC100671REMMET110MOBOB2 METAR XM21 //000 073342 302353Z AUTO 07010G13KT 29/24 A2986      RMK A02 SLP112 T02890238 PA057 DA2061=
0134008415999992015103100534+07300+134200FM-15+000099999V0200801N004619999999N999999999+02921+02321101091ADDMA1101081999999REMMET107MOBOB2 METAR XM21 //000 073342 310053Z AUTO 08009KT 29/23 A2985 RMK      A02 SLP109 T02920232 PA066 DA2091=
0134008415999992015103101534+07300+134200FM-15+000099999V0200901N005119999999N999999999+02931+02341101021ADDMA1101021999999REMMET107MOBOB2 METAR XM21 //000 073342 310153Z AUTO 09010KT 29/23 A2983 RMK      A02 SLP102 T02930234 PA084 DA2130=
0134008415999992015103102534+07300+134200FM-15+000099999V0200901N003119999999N999999999+02971+02371100991ADDMA1100981999999REMMET107MOBOB2 METAR XM21 //000 073342 310253Z AUTO 09006KT 30/24 A2982 RMK      A02 SLP099 T02970237 PA094 DA2192=
0171008415999992015103103534+07300+134200FM-15+000099999V0200801N005119999999N999999999+02771+02311100951ADDAA101000231AW1621MA1100951999999OC100671REMMET119MOBOB2 METAR XM21 //000 073342 310353Z AUTO 08010G13KT RA 28/23 A2981      RMK A02 SLP095 P0001 T02770231 PA103 DA1967=
0145008415999992015103104534+07300+134200FM-15+000099999V0201301N006219999999N999999999+02901+02471100851ADDMA1100851999999OC100771REMMET110MOBOB2 METAR XM21 //000 073342 310453Z AUTO 13012G15KT 29/25 A2978      RMK A02 SLP085 T02900247 PA131 DA2184=
0161008415999992015103105534+07300+134200FM-15+000099999V0200401N002119999999N999999999+02601+02241100851ADDAA101003331AW1611MA1100851999999REMMET117MOBOB2 METAR XM21 //000 073342 310553Z AUTO 04004KT -RA 26/22 A2978      RMK A02 SLP085 P0013 T02600224 PA131 DA1796=
0145008415999992015103106534+07300+134200FM-15+000099999V0200701N004619999999N999999999+02751+02431100781ADDMA1100781999999OC100621REMMET110MOBOB2 METAR XM21 //000 073342 310653Z AUTO 07009G12KT 28/24 A2976      RMK A02 SLP078 T02750243 PA149 DA2029=
0145008415999992015103107534+07300+134200FM-15+000099999V0200701N006219999999N999999999+02761+02461100851ADDMA1100851999999OC100771REMMET110MOBOB2 METAR XM21 //000 073342 310753Z AUTO 07012G15KT 28/25 A2978      RMK A02 SLP085 T02760246 PA131 DA2024=
0134008415999992015103108534+07300+134200FM-15+000099999V0200801N004619999999N999999999+02781+02331100921ADDMA1100911999999REMMET107MOBOB2 METAR XM21 //000 073342 310853Z AUTO 08009KT 28/23 A2980 RMK      A02 SLP092 T02780233 PA112 DA1995=
0145008415999992015103109534+07300+134200FM-15+000099999V0200701N005119999999N999999999+02811+02371100991ADDMA1100981999999OC100671REMMET110MOBOB2 METAR XM21 //000 073342 310953Z AUTO 07010G13KT 28/24 A2982      RMK A02 SLP099 T02810237 PA094 DA2014=
0172008415999992015103110534+07300+134200FM-15+000099999V0200801N005719999999N999999999+02721+02421101061ADDAA101001231AW1611MA1101051999999OC100721REMMET120MOBOB2 METAR XM21 //000 073342 311053Z AUTO 08011G14KT -RA 27/24 A2984      RMK A02 SLP106 P0005 T02720242 PA075 DA1901=
0161008415999992015103111534+07300+134200FM-15+000099999V0200901N005119999999N999999999+02751+02491101091ADDAA101000021AW1611MA1101081999999REMMET117MOBOB2 METAR XM21 //000 073342 311153Z AUTO 09010KT -RA 28/25 A2985      RMK A02 SLP109 P0000 T02750249 PA066 DA1941=
0145008415999992015103112534+07300+134200FM-15+000099999V0200801N006219999999N999999999+02831+02441101121ADDMA1101121999999OC100821REMMET110MOBOB2 METAR XM21 //000 073342 311253Z AUTO 08012G16KT 28/24 A2986      RMK A02 SLP112 T02830244 PA057 DA2008=
0145008415999992015103113534+07300+134200FM-15+000099999V0201001N006719999999N999999999+02841+02381101091ADDMA1101081999999OC100821REMMET110MOBOB2 METAR XM21 //000 073342 311353Z AUTO 10013G16KT 28/24 A2985      RMK A02 SLP109 T02840238 PA066 DA2017=
0172008415999992015103114534+07300+134200FM-15+000099999V0200801N004619999999N999999999+02601+02361101061ADDAA101007831AW1611MA1101051999999OC100621REMMET120MOBOB2 METAR XM21 //000 073342 311453Z AUTO 08009G12KT -RA 26/24 A2984      RMK A02 SLP106 P0031 T02600236 PA075 DA1754=
0161008415999992015103115534+07300+134200FM-15+000099999V0200801N004119999999N999999999+02651+02341100991ADDAA101000531AW1611MA1100981999999REMMET117MOBOB2 METAR XM21 //000 073342 311553Z AUTO 08008KT -RA 27/23 A2982      RMK A02 SLP099 P0002 T02650234 PA094 DA1829=
0134008415999992015103116534+07300+134200FM-15+000099999V0200601N004119999999N999999999+02661+02401100851ADDMA1100851999999REMMET107MOBOB2 METAR XM21 //000 073342 311653Z AUTO 06008KT 27/24 A2978 RMK      A02 SLP085 T02660240 PA131 DA1900=
0134008415999992015103117534+07300+134200FM-15+000099999V0200901N004619999999N999999999+02731+02441100821ADDMA1100811999999REMMET107MOBOB2 METAR XM21 //000 073342 311753Z AUTO 09009KT 27/24 A2977 RMK      A02 SLP082 T02730244 PA140 DA1997=
0134008415999992015103118534+07300+134200FM-15+000099999V0200901N004119999999N999999999+02751+02381100821ADDMA1100811999999REMMET107MOBOB2 METAR XM21 //000 073342 311853Z AUTO 09008KT 28/24 A2977 RMK      A02 SLP082 T02750238 PA140 DA2007=
0134008415999992015103119534+07300+134200FM-15+000099999V0200801N003619999999N999999999+02771+02381100851ADDMA1100851999999REMMET107MOBOB2 METAR XM21 //000 073342 311953Z AUTO 08007KT 28/24 A2978 RMK      A02 SLP085 T02770238 PA131 DA2017=
0161008415999992015103120534+07300+134200FM-15+000099999V0201301N003619999999N999999999+02631+02401100921ADDAA101001031AW1611MA1100911999999REMMET117MOBOB2 METAR XM21 //000 073342 312053Z AUTO 13007KT -RA 26/24 A2980      RMK A02 SLP092 P0004 T02630240 PA112 DA1843=
0161008415999992015103121534+07300+134200FM-15+000099999V0201401N003619999999N999999999+02701+02461100991ADDAA101000021AW1611MA1100981999999REMMET117MOBOB2 METAR XM21 //000 073342 312153Z AUTO 14007KT -RA 27/25 A2982      RMK A02 SLP099 P0000 T02700246 PA094 DA1911=
0134008415999992015103122534+07300+134200FM-15+000099999V0200801N005119999999N999999999+02821+02391101091ADDMA1101081999999REMMET107MOBOB2 METAR XM21 //000 073342 312253Z AUTO 08010KT 28/24 A2985 RMK      A02 SLP109 T02820239 PA066 DA1995=
0145008415999992015103123534+07300+134200FM-15+000099999V0200701N005119999999N999999999+02831+02421101121ADDMA1101121999999OC100881REMMET110MOBOB2 METAR XM21 //000 073342 312353Z AUTO 07010G17KT 28/24 A2986      RMK A02 SLP112 T02830242 PA057 DA2002=
0145008415999992015110100534+07300+134200FM-15+000099999V0200701N005119999999N999999999+02821+02341101091ADDMA1101081999999OC100671REMMET110MOBOB2 METAR XM21 //000 073342 010053Z AUTO 07010G13KT 28/23 A2985      RMK A02 SLP109 T02820234 PA066 DA1985=
0172008415999992015110101534+07300+134200FM-15+000099999V0201101N007719999999N999999999+02611+02371101091ADDAA101000021AW1611MA1101081999999OC101031REMMET120MOBOB2 METAR XM21 //000 073342 010153Z AUTO 11015G20KT -RA 26/24 A2985      RMK A02 SLP109 P0000 T02610237 PA066 DA1755=
0172008415999992015110102534+07300+134200FM-15+000099999V0200801N007219999999N999999999+02611+02271100951ADDAA101002031AW1611MA1100951999999OC100881REMMET120MOBOB2 METAR XM21 //000 073342 010253Z AUTO 08014G17KT -RA 26/23 A2981      RMK A02 SLP095 P0008 T02610227 PA103 DA1780=
0145008415999992015110103534+07300+134200FM-15+000099999V0200701N005719999999N999999999+02691+02291100891ADDMA1100881999999OC100771REMMET110MOBOB2 METAR XM21 //000 073342 010353Z AUTO 07011G15KT 27/23 A2979      RMK A02 SLP089 T02690229 PA122 DA1896=
0145008415999992015110104534+07300+134200FM-15+000099999V0200801N005719999999N999999999+02701+02231100851ADDMA1100851999999OC100721REMMET110MOBOB2 METAR XM21 //000 073342 010453Z AUTO 08011G14KT 27/22 A2978      RMK A02 SLP085 T02700223 PA131 DA1907=
0145008415999992015110105534+07300+134200FM-15+000099999V0200901N006719999999N999999999+02791+02261100851ADDMA1100851999999OC100881REMMET110MOBOB2 METAR XM21 //000 073342 010553Z AUTO 09013G17KT 28/23 A2978      RMK A02 SLP085 T02790226 PA131 DA2013=
0145008415999992015110106534+07300+134200FM-15+000099999V0200801N007219999999N999999999+02761+02351100851ADDMA1100851999999OC100881REMMET110MOBOB2 METAR XM21 //000 073342 010653Z AUTO 08014G17KT 28/23 A2978      RMK A02 SLP085 T02760235 PA131 DA1999=
0145008415999992015110107534+07300+134200FM-15+000099999V0200801N006719999999N999999999+02751+02331100891ADDMA1100881999999OC100931REMMET110MOBOB2 METAR XM21 //000 073342 010753Z AUTO 08013G18KT 28/23 A2979      RMK A02 SLP089 T02750233 PA122 DA1973=
0145008415999992015110108534+07300+134200FM-15+000099999V0200701N006219999999N999999999+02741+02391100921ADDMA1100911999999OC100721REMMET110MOBOB2 METAR XM21 //000 073342 010853Z AUTO 07012G14KT 27/24 A2980      RMK A02 SLP092 T02740239 PA112 DA1962=
0145008415999992015110109534+07300+134200FM-15+000099999V0200701N006719999999N999999999+02791+02361101021ADDMA1101021999999OC100931REMMET110MOBOB2 METAR XM21 //000 073342 010953Z AUTO 07013G18KT 28/24 A2983      RMK A02 SLP102 T02790236 PA084 DA1978=
0145008415999992015110110534+07300+134200FM-15+000099999V0200501N006219999999N999999999+02771+02371101061ADDMA1101051999999OC100771REMMET110MOBOB2 METAR XM21 //000 073342 011053Z AUTO 05012G15KT 28/24 A2984      RMK A02 SLP106 T02770237 PA075 DA1946=
0134008415999992015110111534+07300+134200FM-15+000099999V0200701N004119999999N999999999+02751+02411101091ADDMA1101081999999REMMET107MOBOB2 METAR XM21 //000 073342 011153Z AUTO 07008KT 28/24 A2985 RMK      A02 SLP109 T02750241 PA066 DA1921=
0134008415999992015110112534+07300+134200FM-15+000099999V0200601N004619999999N999999999+02771+02431101121ADDMA1101121999999REMMET107MOBOB2 METAR XM21 //000 073342 011253Z AUTO 06009KT 28/24 A2986 RMK      A02 SLP112 T02770243 PA057 DA1937=
0134008415999992015110113534+07300+134200FM-15+000099999V0200601N003619999999N999999999+02771+02491101091ADDMA1101081999999REMMET107MOBOB2 METAR XM21 //000 073342 011353Z AUTO 06007KT 28/25 A2985 RMK      A02 SLP109 T02770249 PA066 DA1964=
0145008415999992015110114534+07300+134200FM-15+000099999V0200801N004119999999N999999999+02821+02431101091ADDMA1101081999999OC100621REMMET110MOBOB2 METAR XM21 //000 073342 011453Z AUTO 08008G12KT 28/24 A2985      RMK A02 SLP109 T02820243 PA066 DA2005=
0145008415999992015110115534+07300+134200FM-15+000099999V0200801N005719999999N999999999+02831+02451101021ADDMA1101021999999OC100721REMMET110MOBOB2 METAR XM21 //000 073342 011553Z AUTO 08011G14KT 28/24 A2983      RMK A02 SLP102 T02830245 PA084 DA2043=
0172008415999992015110116534+07300+134200FM-15+000099999V0200901N005719999999N999999999+02761+02421100951ADDAA101000021AW1611MA1100951999999OC100771REMMET120MOBOB2 METAR XM21 //000 073342 011653Z AUTO 09011G15KT -RA 28/24 A2981      RMK A02 SLP095 P0000 T02760242 PA103 DA1980=
0145008415999992015110117534+07300+134200FM-15+000099999V0200801N006219999999N999999999+02821+02441100851ADDMA1100851999999OC100771REMMET110MOBOB2 METAR XM21 //000 073342 011753Z AUTO 08012G15KT 28/24 A2978      RMK A02 SLP085 T02820244 PA131 DA2086=
0172008415999992015110118534+07300+134200FM-15+000099999V0200501N012419999999N999999999+02581+02341100851ADDAA101002231AW1631MA1100851999999OC101541REMMET120MOBOB2 METAR XM21 //000 073342 011853Z AUTO 05024G30KT +RA 26/23 A2978      RMK A02 SLP085 P0009 T02580234 PA131 DA1796=
0172008415999992015110119534+07300+134200FM-15+000099999V0200701N007719999999N999999999+02731+02391100891ADDAA101000021AW1611MA1100881999999OC101031REMMET120MOBOB2 METAR XM21 //000 073342 011953Z AUTO 07015G20KT -RA 27/24 A2979      RMK A02 SLP089 P0000 T02730239 PA122 DA1964=
0145008415999992015110120534+07300+134200FM-15+000099999V0200801N006219999999N999999999+02781+02391100921ADDMA1100911999999OC100771REMMET110MOBOB2 METAR XM21 //000 073342 012053Z AUTO 08012G15KT 28/24 A2980      RMK A02 SLP092 T02780239 PA112 DA2009=
0145008415999992015110121534+07300+134200FM-15+000099999V0200801N006719999999N999999999+02811+02421101021ADDMA1101021999999OC100931REMMET110MOBOB2 METAR XM21 //000 073342 012153Z AUTO 08013G18KT 28/24 A2983      RMK A02 SLP102 T02810242 PA084 DA2015=
0145008415999992015110122534+07300+134200FM-15+000099999V0200801N006219999999N999999999+02871+02411101061ADDMA1101051999999OC100821REMMET110MOBOB2 METAR XM21 //000 073342 012253Z AUTO 08012G16KT 29/24 A2984      RMK A02 SLP106 T02870241 PA075 DA2067=
0145008415999992015110123534+07300+134200FM-15+000099999V0200901N007219999999N999999999+02901+02351101061ADDMA1101051999999OC100931REMMET110MOBOB2 METAR XM21 //000 073342 012353Z AUTO 09014G18KT 29/24 A2984      RMK A02 SLP106 T02900235 PA075 DA2088=
0145008415999992015110200534+07300+134200FM-15+000099999V0200801N006719999999N999999999+02911+02441101061ADDMA1101051999999OC100881REMMET110MOBOB2 METAR XM21 //000 073342 020053Z AUTO 08013G17KT 29/24 A2984      RMK A02 SLP106 T02910244 PA075 DA2118=
0145008415999992015110201534+07300+134200FM-15+000099999V0201001N006219999999N999999999+02921+02421101021ADDMA1101021999999OC100821REMMET110MOBOB2 METAR XM21 //000 073342 020153Z AUTO 10012G16KT 29/24 A2983      RMK A02 SLP102 T02920242 PA084 DA2138=
0172008415999992015110202534+07300+134200FM-15+000099999V0200901N007219999999N999999999+02701+02461100951ADDAA101001531AW1631MA1100951999999OC100931REMMET120MOBOB2 METAR XM21 //000 073342 020253Z AUTO 09014G18KT +RA 27/25 A2981      RMK A02 SLP095 P0006 T02700246 PA103 DA1923=
0145008415999992015110203534+07300+134200FM-15+000099999V0201001N004619999999N999999999+02911+02371100851ADDMA1100851999999OC100621REMMET110MOBOB2 METAR XM21 //000 073342 020353Z AUTO 10009G12KT 29/24 A2978      RMK A02 SLP085 T02910237 PA131 DA2172=
0145008415999992015110204534+07300+134200FM-15+000099999V0201001N005119999999N999999999+02921+02371100821ADDMA1100811999999OC100671REMMET110MOBOB2 METAR XM21 //000 073342 020453Z AUTO 10010G13KT 29/24 A2977      RMK A02 SLP082 T02920237 PA140 DA2194=
0161008415999992015110205534+07300+134200FM-15+000099999V0201001N004619999999N999999999+02881+02411100781ADDAA101000021AW1611MA1100781999999REMMET117MOBOB2 METAR XM21 //000 073342 020553Z AUTO 10009KT -RA 29/24 A2976      RMK A02 SLP078 P0000 T02880241 PA149 DA2170=
0134008415999992015110206534+07300+134200FM-15+000099999V0200801N004619999999N999999999+02901+02411100821ADDMA1100811999999REMMET107MOBOB2 METAR XM21 //000 073342 020653Z AUTO 08009KT 29/24 A2977 RMK      A02 SLP082 T02900241 PA140 DA2181=
0134008415999992015110207534+07300+134200FM-15+000099999V0200801N003619999999N999999999+02891+02351100851ADDMA1100851999999REMMET107MOBOB2 METAR XM21 //000 073342 020753Z AUTO 08007KT 29/23 A2978 RMK      A02 SLP085 T02890235 PA131 DA2145=
0134008415999992015110208534+07300+134200FM-15+000099999V0200901N004119999999N999999999+02861+02441100921ADDMA1100911999999REMMET107MOBOB2 METAR XM21 //000 073342 020853Z AUTO 09008KT 29/24 A2980 RMK      A02 SLP092 T02860244 PA112 DA2109=
0134008415999992015110209534+07300+134200FM-15+000099999V0200701N003619999999N999999999+02831+02411100991ADDMA1100981999999REMMET107MOBOB2 METAR XM21 //000 073342 020953Z AUTO 07007KT 28/24 A2982 RMK      A02 SLP099 T02830241 PA094 DA2045=
0134008415999992015110210534+07300+134200FM-15+000099999V0200901N003119999999N999999999+02831+02451101061ADDMA1101051999999REMMET107MOBOB2 METAR XM21 //000 073342 021053Z AUTO 09006KT 28/25 A2984 RMK      A02 SLP106 T02830245 PA075 DA2033=
0134008415999992015110211534+07300+134200FM-15+000099999V0200701N003619999999N999999999+02811+02451101121ADDMA1101121999999REMMET107MOBOB2 METAR XM21 //000 073342 021153Z AUTO 07007KT 28/25 A2986 RMK      A02 SLP112 T02810245 PA057 DA1988=
0134008415999992015110212534+07300+134200FM-15+000099999V0200701N003619999999N999999999+02821+02451101091ADDMA1101081999999REMMET107MOBOB2 METAR XM21 //000 073342 021253Z AUTO 07007KT 28/24 A2985 RMK      A02 SLP109 T02820245 PA066 DA2010=
0161008415999992015110213534+07300+134200FM-15+000099999V0200801N002619999999N999999999+02811+02491101061ADDAA101000021AW1611MA1101051999999REMMET117MOBOB2 METAR XM21 //000 073342 021353Z AUTO 08005KT -RA 28/25 A2984      RMK A02 SLP106 P0000 T02810249 PA075 DA2019=
0134008415999992015110214534+07300+134200FM-15+000099999V0200501N002619999999N999999999+02771+02431101021ADDMA1101021999999REMMET107MOBOB2 METAR XM21 //000 073342 021453Z AUTO 05005KT 28/24 A2983 RMK      A02 SLP102 T02770243 PA084 DA1971=
0134008415999992015110215534+07300+134200FM-15+000099999V0200601N002619999999N999999999+02791+02461100991ADDMA1100981999999REMMET107MOBOB2 METAR XM21 //000 073342 021553Z AUTO 06005KT 28/25 A2982 RMK      A02 SLP099 T02790246 PA094 DA2013=
0145008415999992015110216534+07300+134200FM-15+000099999V0200701N005119999999N999999999+02751+02451100921ADDMA1100911999999OC100621REMMET110MOBOB2 METAR XM21 //000 073342 021653Z AUTO 07010G12KT 28/25 A2980      RMK A02 SLP092 T02750245 PA112 DA1989=
0134008415999992015110217534+07300+134200FM-15+000099999V0200501N003119999999N999999999+02771+02411100891ADDMA1100881999999REMMET107MOBOB2 METAR XM21 //000 073342 021753Z AUTO 05006KT 28/24 A2979 RMK      A02 SLP089 T02770241 PA122 DA2013=
0134008415999992015110218534+07300+134200FM-15+000099999V0200501N003619999999N999999999+02771+02481100851ADDMA1100851999999REMMET107MOBOB2 METAR XM21 //000 073342 021853Z AUTO 05007KT 28/25 A2978 RMK      A02 SLP085 T02770248 PA131 DA2040=
0134008415999992015110219534+07300+134200FM-15+000099999V0200501N004619999999N999999999+02791+02451100921ADDMA1100911999999REMMET107MOBOB2 METAR XM21 //000 073342 021953Z AUTO 05009KT 28/25 A2980 RMK      A02 SLP092 T02790245 PA112 DA2034=
0161008415999992015110220534+07300+134200FM-15+000099999V0200501N004619999999N999999999+02761+02461100991ADDAA101001031AW1611MA1100981999999REMMET117MOBOB2 METAR XM21 //000 073342 022053Z AUTO 05009KT -RA 28/25 A2982      RMK A02 SLP099 P0004 T02760246 PA094 DA1980=
0145008415999992015110221534+07300+134200FM-15+000099999V0200501N005119999999N999999999+02781+02441101061ADDMA1101051999999OC100671REMMET110MOBOB2 METAR XM21 //000 073342 022153Z AUTO 05010G13KT 28/24 A2984      RMK A02 SLP106 T02780244 PA075 DA1973=
0134008415999992015110222534+07300+134200FM-15+000099999V0200501N004619999999N999999999+02811+02421101091ADDMA1101081999999REMMET107MOBOB2 METAR XM21 //000 073342 022253Z AUTO 05009KT 28/24 A2985 RMK      A02 SLP109 T02810242 PA066 DA1992=
0134008415999992015110223534+07300+134200FM-15+000099999V0200501N004619999999N999999999+02821+02401101121ADDMA1101121999999REMMET107MOBOB2 METAR XM21 //000 073342 022353Z AUTO 05009KT 28/24 A2986 RMK      A02 SLP112 T02820240 PA057 DA1985=
0134008415999992015110300534+07300+134200FM-15+000099999V0200501N003119999999N999999999+02851+02441101091ADDMA1101081999999REMMET107MOBOB2 METAR XM21 //000 073342 030053Z AUTO 05006KT 29/24 A2985 RMK      A02 SLP109 T02850244 PA066 DA2040=
0172008415999992015110301534+07300+134200FM-15+000099999V0200501N007719999999N999999999+02601+02411101061ADDAA101002731AW1631MA1101051999999OC101131REMMET120MOBOB2 METAR XM21 //000 073342 030153Z AUTO 05015G22KT +RA 26/24 A2984      RMK A02 SLP106 P0011 T02600241 PA075 DA1765=
0161008415999992015110302534+07300+134200FM-15+000099999V0201501N003619999999N999999999+02761+02421100951ADDAA101000021AW1611MA1100951999999REMMET117MOBOB2 METAR XM21 //000 073342 030253Z AUTO 15007KT -RA 28/24 A2981      RMK A02 SLP095 P0000 T02760242 PA103 DA1982=
0134008415999992015110303534+07300+134200FM-15+000099999V0201101N001019999999N999999999+02891+02381100891ADDMA1100881999999REMMET107MOBOB2 METAR XM21 //000 073342 030353Z AUTO 11002KT 29/24 A2979 RMK      A02 SLP089 T02890238 PA122 DA2140=
0134008415999992015110304534+07300+134200FM-15+000099999V0200801N002619999999N999999999+02921+02321100851ADDMA1100851999999REMMET107MOBOB2 METAR XM21 //000 073342 030453Z AUTO 08005KT 29/23 A2978 RMK      A02 SLP085 T02920232 PA131 DA2172=
0134008415999992015110305534+07300+134200FM-15+000099999V0201201N002619999999N999999999+02881+02491100851ADDMA1100851999999REMMET107MOBOB2 METAR XM21 //000 073342 030553Z AUTO 12005KT 29/25 A2978 RMK      A02 SLP085 T02880249 PA131 DA2167=
0134008415999992015110306534+07300+134200FM-15+000099999V0203001N003619999999N999999999+02761+02421100851ADDMA1100851999999REMMET107MOBOB2 METAR XM21 //000 073342 030653Z AUTO 30007KT 28/24 A2978 RMK      A02 SLP085 T02760242 PA131 DA2015=
0134008415999992015110307534+07300+134200FM-15+000099999V0201101N003619999999N999999999+02781+02341100851ADDMA1100851999999REMMET107MOBOB2 METAR XM21 //000 073342 030753Z AUTO 11007KT 28/23 A2978 RMK      A02 SLP085 T02780234 PA131 DA2020=
0134008415999992015110308534+07300+134200FM-15+000099999V0201001N004119999999N999999999+02811+02361100951ADDMA1100951999999REMMET107MOBOB2 METAR XM21 //000 073342 030853Z AUTO 10008KT 28/24 A2981 RMK      A02 SLP095 T02810236 PA103 DA2022=
0134008415999992015110309534+07300+134200FM-15+000099999V0200601N004119999999N999999999+02831+02401101061ADDMA1101051999999REMMET107MOBOB2 METAR XM21 //000 073342 030953Z AUTO 06008KT 28/24 A2984 RMK      A02 SLP106 T02830240 PA075 DA2021=
0134008415999992015110310534+07300+134200FM-15+000099999V0201101N003619999999N999999999+02751+02351101121ADDMA1101121999999REMMET107MOBOB2 METAR XM21 //000 073342 031053Z AUTO 11007KT 28/24 A2986 RMK      A02 SLP112 T02750235 PA057 DA1898=
0134008415999992015110311534+07300+134200FM-15+000099999V0200801N004119999999N999999999+02801+02451101121ADDMA1101121999999REMMET107MOBOB2 METAR XM21 //000 073342 031153Z AUTO 08008KT 28/25 A2986 RMK      A02 SLP112 T02800245 PA057 DA1976=
0161008415999992015110312534+07300+134200FM-15+000099999V0200801N003619999999N999999999+02751+02341101121ADDAA101000021AW1611MA1101121999999REMMET117MOBOB2 METAR XM21 //000 073342 031253Z AUTO 08007KT -RA 28/23 A2986      RMK A02 SLP112 P0000 T02750234 PA057 DA1894=
0134008415999992015110313534+07300+134200FM-15+000099999V0200801N003119999999N999999999+02741+02401101091ADDMA1101081999999REMMET107MOBOB2 METAR XM21 //000 073342 031353Z AUTO 08006KT 27/24 A2985 RMK      A02 SLP109 T02740240 PA066 DA1909=
0134008415999992015110314534+07300+134200FM-15+000099999V0200801N002619999999N999999999+02761+02431101061ADDMA1101051999999REMMET107MOBOB2 METAR XM21 //000 073342 031453Z AUTO 08005KT 28/24 A2984 RMK      A02 SLP106 T02760243 PA075 DA1950=
0134008415999992015110315534+07300+134200FM-15+000099999V0200801N003119999999N999999999+02781+02451100991ADDMA1100981999999REMMET107MOBOB2 METAR XM21 //000 073342 031553Z AUTO 08006KT 28/25 A2982 RMK      A02 SLP099 T02780245 PA094 DA2000=
0161008415999992015110316534+07300+134200FM-15+000099999V0201201N003619999999N999999999+02711+02441100951ADDAA101004531AW1611MA1100951999999REMMET117MOBOB2 METAR XM21 //000 073342 031653Z AUTO 12007KT -RA 27/24 A2981      RMK A02 SLP095 P0018 T02710244 PA103 DA1929=
0134008415999992015110317534+07300+134200FM-15+000099999V0200801N003619999999N999999999+02771+02431100891ADDMA1100881999999REMMET107MOBOB2 METAR XM21 //000 073342 031753Z AUTO 08007KT 28/24 A2979 RMK      A02 SLP089 T02770243 PA122 DA2017=
0134008415999992015110318534+07300+134200FM-15+000099999V0200701N003619999999N999999999+02791+02421100891ADDMA1100881999999REMMET107MOBOB2 METAR XM21 //000 073342 031853Z AUTO 07007KT 28/24 A2979 RMK      A02 SLP089 T02790242 PA122 DA2038=
0161008415999992015110319534+07300+134200FM-15+000099999V0200601N002619999999N999999999+02651+02391100921ADDAA101001531AW1611MA1100911999999REMMET117MOBOB2 METAR XM21 //000 073342 031953Z AUTO 06005KT -RA 27/24 A2980      RMK A02 SLP092 P0006 T02650239 PA112 DA1862=
0134008415999992015110320534+07300+134200FM-15+000099999V0200501N003619999999N999999999+02751+02471100951ADDMA1100951999999REMMET107MOBOB2 METAR XM21 //000 073342 032053Z AUTO 05007KT 28/25 A2981 RMK      A02 SLP095 T02750247 PA103 DA1981=
0145008415999992015110321534+07300+134200FM-15+000099999V0200501N006219999999N999999999+02771+02441101021ADDMA1101021999999OC100771REMMET110MOBOB2 METAR XM21 //000 073342 032153Z AUTO 05012G15KT 28/24 A2983      RMK A02 SLP102 T02770244 PA084 DA1975=
0145008415999992015110322534+07300+134200FM-15+000099999V0200601N005719999999N999999999+02751+02411101061ADDMA1101051999999OC100721REMMET110MOBOB2 METAR XM21 //000 073342 032253Z AUTO 06011G14KT 28/24 A2984      RMK A02 SLP106 T02750241 PA075 DA1933=
0145008415999992015110323534+07300+134200FM-15+000099999V0200601N005119999999N999999999+02801+02381101061ADDMA1101051999999OC100621REMMET110MOBOB2 METAR XM21 //000 073342 032353Z AUTO 06010G12KT 28/24 A2984      RMK A02 SLP106 T02800238 PA075 DA1982=
0145008415999992015110400534+07300+134200FM-15+000099999V0200601N006219999999N999999999+02871+02391101061ADDMA1101051999999OC100821REMMET110MOBOB2 METAR XM21 //000 073342 040053Z AUTO 06012G16KT 29/24 A2984      RMK A02 SLP106 T02870239 PA075 DA2064=
0134008415999992015110401534+07300+134200FM-15+000099999V0200701N003619999999N999999999+02851+02411100951ADDMA1100951999999REMMET107MOBOB2 METAR XM21 //000 073342 040153Z AUTO 07007KT 29/24 A2981 RMK      A02 SLP095 T02850241 PA103 DA2079=
0145008415999992015110402534+07300+134200FM-15+000099999V0200801N005719999999N999999999+02931+02331100851ADDMA1100851999999OC100721REMMET110MOBOB2 METAR XM21 //000 073342 040253Z AUTO 08011G14KT 29/23 A2978      RMK A02 SLP085 T02930233 PA131 DA2184=
0145008415999992015110403534+07300+134200FM-15+000099999V0200901N006219999999N999999999+02941+02341100821ADDMA1100811999999OC100771REMMET110MOBOB2 METAR XM21 //000 073342 040353Z AUTO 09012G15KT 29/23 A2977      RMK A02 SLP082 T02940234 PA140 DA2209=
0172008415999992015110404534+07300+134200FM-15+000099999V0200601N005119999999N999999999+02701+02331100781ADDAA101000021AW1611MA1100781999999OC100621REMMET120MOBOB2 METAR XM21 //000 073342 040453Z AUTO 06010G12KT -RA 27/23 A2976      RMK A02 SLP078 P0000 T02700233 PA149 DA1951=
0145008415999992015110405534+07300+134200FM-15+000099999V0200701N006719999999N999999999+02781+02311100781ADDMA1100781999999OC100821REMMET110MOBOB2 METAR XM21 //000 073342 040553Z AUTO 07013G16KT 28/23 A2976      RMK A02 SLP078 T02780231 PA149 DA2037=
0145008415999992015110406534+07300+134200FM-15+000099999V0200801N005119999999N999999999+02821+02381100781ADDMA1100781999999OC100671REMMET110MOBOB2 METAR XM21 //000 073342 040653Z AUTO 08010G13KT 28/24 A2976      RMK A02 SLP078 T02820238 PA149 DA2097=
0134008415999992015110407534+07300+134200FM-15+000099999V0200901N005119999999N999999999+02811+02431100851ADDMA1100851999999REMMET107MOBOB2 METAR XM21 //000 073342 040753Z AUTO 09010KT 28/24 A2978 RMK      A02 SLP085 T02810243 PA131 DA2075=
0134008415999992015110408534+07300+134200FM-15+000099999V0200701N003119999999N999999999+02821+02491100891ADDMA1100881999999REMMET107MOBOB2 METAR XM21 //000 073342 040853Z AUTO 07006KT 28/25 A2979 RMK      A02 SLP089 T02820249 PA122 DA2087=
0134008415999992015110409534+07300+134200FM-15+000099999V0200801N004619999999N999999999+02841+02451100921ADDMA1100911999999REMMET107MOBOB2 METAR XM21 //000 073342 040953Z AUTO 08009KT 28/25 A2980 RMK      A02 SLP092 T02840245 PA112 DA2090=
0145008415999992015110410534+07300+134200FM-15+000099999V0201501N006219999999N999999999+02731+02331100991ADDMA1100981999999OC100821REMMET110MOBOB2 METAR XM21 //000 073342 041053Z AUTO 15012G16KT 27/23 A2982      RMK A02 SLP099 T02730233 PA094 DA1916=
0161008415999992015110411534+07300+134200FM-15+000099999V0200901N004619999999N999999999+02791+02441101061ADDAA101000021AW1611MA1101051999999REMMET117MOBOB2 METAR XM21 //000 073342 041153Z AUTO 09009KT -RA 28/24 A2984      RMK A02 SLP106 P0000 T02790244 PA075 DA1985=
0145008415999992015110412534+07300+134200FM-15+000099999V0200801N005719999999N999999999+02841+02421101061ADDMA1101051999999OC100671REMMET110MOBOB2 METAR XM21 //000 073342 041253Z AUTO 08011G13KT 28/24 A2984      RMK A02 SLP106 T02840242 PA075 DA2037=
0134008415999992015110413534+07300+134200FM-15+000099999V0200901N004619999999N999999999+02831+02451101021ADDMA1101021999999REMMET107MOBOB2 METAR XM21 //000 073342 041353Z AUTO 09009KT 28/24 A2983 RMK      A02 SLP102 T02830245 PA084 DA2043=
0145008415999992015110414534+07300+134200FM-15+000099999V0201201N005119999999N999999999+02791+02441100991ADDMA1100981999999OC100671REMMET110MOBOB2 METAR XM21 //000 073342 041453Z AUTO 12010G13KT 28/24 A2982      RMK A02 SLP099 T02790244 PA094 DA2007=
0134008415999992015110415534+07300+134200FM-15+000099999V0201001N004619999999N999999999+02821+02381100921ADDMA1100911999999REMMET107MOBOB2 METAR XM21 //000 073342 041553Z AUTO 10009KT 28/24 A2980 RMK      A02 SLP092 T02820238 PA112 DA2052=
0134008415999992015110416534+07300+134200FM-15+000099999V0201001N004619999999N999999999+02811+02451100851ADDMA1100851999999REMMET107MOBOB2 METAR XM21 //000 073342 041653Z AUTO 10009KT 28/25 A2978 RMK      A02 SLP085 T02810245 PA131 DA2079=
0145008415999992015110417534+07300+134200FM-15+000099999V0201001N005719999999N999999999+02811+02391100821ADDMA1100811999999OC100721REMMET110MOBOB2 METAR XM21 //000 073342 041753Z AUTO 10011G14KT 28/24 A2977      RMK A02 SLP082 T02810239 PA140 DA2077=
0145008415999992015110418534+07300+134200FM-15+000099999V0201001N005719999999N999999999+02811+02331100821ADDMA1100811999999OC100721REMMET110MOBOB2 METAR XM21 //000 073342 041853Z AUTO 10011G14KT 28/23 A2977      RMK A02 SLP082 T02810233 PA140 DA2063=
0145008415999992015110419534+07300+134200FM-15+000099999V0201001N005119999999N999999999+02811+02381100851ADDMA1100851999999OC100671REMMET110MOBOB2 METAR XM21 //000 073342 041953Z AUTO 10010G13KT 28/24 A2978      RMK A02 SLP085 T02810238 PA131 DA2062=
0145008415999992015110420534+07300+134200FM-15+000099999V0200901N005719999999N999999999+02811+02381100921ADDMA1100911999999OC100721REMMET110MOBOB2 METAR XM21 //000 073342 042053Z AUTO 09011G14KT 28/24 A2980      RMK A02 SLP092 T02810238 PA112 DA2040=
0145008415999992015110421534+07300+134200FM-15+000099999V0201201N006719999999N999999999+02831+02381100991ADDMA1100981999999OC100881REMMET110MOBOB2 METAR XM21 //000 073342 042153Z AUTO 12013G17KT 28/24 A2982      RMK A02 SLP099 T02830238 PA094 DA2040=
0145008415999992015110422534+07300+134200FM-15+000099999V0201201N005719999999N999999999+02861+02391101061ADDMA1101051999999OC100721REMMET110MOBOB2 METAR XM21 //000 073342 042253Z AUTO 12011G14KT 29/24 A2984      RMK A02 SLP106 T02860239 PA075 DA2052=
0145008415999992015110423534+07300+134200FM-15+000099999V0201101N004619999999N999999999+02891+02411101091ADDMA1101081999999OC100721REMMET110MOBOB2 METAR XM21 //000 073342 042353Z AUTO 11009G14KT 29/24 A2985      RMK A02 SLP109 T02890241 PA066 DA2079=
0134008415999992015110500534+07300+134200FM-15+000099999V0201101N004619999999N999999999+02901+02361101061ADDMA1101051999999REMMET107MOBOB2 METAR XM21 //000 073342 050053Z AUTO 11009KT 29/24 A2984 RMK      A02 SLP106 T02900236 PA075 DA2090=
0145008415999992015110501534+07300+134200FM-15+000099999V0201101N005119999999N999999999+02921+02331100991ADDMA1100981999999OC100621REMMET110MOBOB2 METAR XM21 //000 073342 050153Z AUTO 11010G12KT 29/23 A2982      RMK A02 SLP099 T02920233 PA094 DA2127=
0134008415999992015110502534+07300+134200FM-15+000099999V0201101N004619999999N999999999+02941+02351100951ADDMA1100951999999REMMET107MOBOB2 METAR XM21 //000 073342 050253Z AUTO 11009KT 29/23 A2981 RMK      A02 SLP095 T02940235 PA103 DA2166=
0145008415999992015110503534+07300+134200FM-15+000099999V0201301N005119999999N999999999+02901+02361100891ADDMA1100881999999OC100621REMMET110MOBOB2 METAR XM21 //000 073342 050353Z AUTO 13010G12KT 29/24 A2979      RMK A02 SLP089 T02900236 PA122 DA2147=
0161008415999992015110504534+07300+134200FM-15+000099999V0201201N003619999999N999999999+02861+02401100781ADDAA101000021AW1611MA1100781999999REMMET117MOBOB2 METAR XM21 //000 073342 050453Z AUTO 12007KT -RA 29/24 A2976      RMK A02 SLP078 P0000 T02860240 PA149 DA2145=
0145008415999992015110505534+07300+134200FM-15+000099999V0201201N005719999999N999999999+02901+02411100781ADDMA1100781999999OC100671REMMET110MOBOB2 METAR XM21 //000 073342 050553Z AUTO 12011G13KT 29/24 A2976      RMK A02 SLP078 T02900241 PA149 DA2192=
0134008415999992015110506534+07300+134200FM-15+000099999V0201101N004619999999N999999999+02891+02381100781ADDMA1100781999999REMMET107MOBOB2 METAR XM21 //000 073342 050653Z AUTO 11009KT 29/24 A2976 RMK      A02 SLP078 T02890238 PA149 DA2174=
0145008415999992015110507534+07300+134200FM-15+000099999V0200801N005719999999N999999999+02901+02321100821ADDMA1100811999999OC100671REMMET110MOBOB2 METAR XM21 //000 073342 050753Z AUTO 08011G13KT 29/23 A2977      RMK A02 SLP082 T02900232 PA140 DA2161=
0145008415999992015110508534+07300+134200FM-15+000099999V0200901N005119999999N999999999+02881+02431100851ADDMA1100851999999OC100671REMMET110MOBOB2 METAR XM21 //000 073342 050853Z AUTO 09010G13KT 29/24 A2978      RMK A02 SLP085 T02880243 PA131 DA2153=
0134008415999992015110509534+07300+134200FM-15+000099999V0200901N004119999999N999999999+02861+02371100851ADDMA1100851999999REMMET107MOBOB2 METAR XM21 //000 073342 050953Z AUTO 09008KT 29/24 A2978 RMK      A02 SLP085 T02860237 PA131 DA2116=
0134008415999992015110510534+07300+134200FM-15+000099999V0200601N004119999999N999999999+02841+02431100951ADDMA1100951999999REMMET107MOBOB2 METAR XM21 //000 073342 051053Z AUTO 06008KT 28/24 A2981 RMK      A02 SLP095 T02840243 PA103 DA2074=
0145008415999992015110511534+07300+134200FM-15+000099999V0200601N005719999999N999999999+02831+02431100991ADDMA1100981999999OC100721REMMET110MOBOB2 METAR XM21 //000 073342 051153Z AUTO 06011G14KT 28/24 A2982      RMK A02 SLP099 T02830243 PA094 DA2051=
0145008415999992015110512534+07300+134200FM-15+000099999V0200601N004619999999N999999999+02821+02431101021ADDMA1101021999999OC100621REMMET110MOBOB2 METAR XM21 //000 073342 051253Z AUTO 06009G12KT 28/24 A2983      RMK A02 SLP102 T02820243 PA084 DA2027=
0134008415999992015110513534+07300+134200FM-15+000099999V0200601N005119999999N999999999+02801+02511101021ADDMA1101021999999REMMET107MOBOB2 METAR XM21 //000 073342 051353Z AUTO 06010KT 28/25 A2983 RMK      A02 SLP102 T02800251 PA084 DA2024=
0134008415999992015110514534+07300+134200FM-15+000099999V0200801N003619999999N999999999+02761+02461100991ADDMA1100981999999REMMET107MOBOB2 METAR XM21 //000 073342 051453Z AUTO 08007KT 28/25 A2982 RMK      A02 SLP099 T02760246 PA094 DA1979=
0134008415999992015110515534+07300+134200FM-15+000099999V0200801N003119999999N999999999+02761+02431100921ADDMA1100911999999REMMET107MOBOB2 METAR XM21 //000 073342 051553Z AUTO 08006KT 28/24 A2980 RMK      A02 SLP092 T02760243 PA112 DA1996=
0134008415999992015110516534+07300+134200FM-15+000099999V0200601N003619999999N999999999+02781+02451100851ADDMA1100851999999REMMET107MOBOB2 METAR XM21 //000 073342 051653Z AUTO 06007KT 28/24 A2978 RMK      A02 SLP085 T02780245 PA131 DA2044=
0134008415999992015110517544+07300+134200FM-15+000099999V0200701N004119999999N999999999+02781+02431100821ADDMA1100811999999REMMET107MOBOB2 METAR XM21 //000 073342 051754Z AUTO 07008KT 28/24 A2977 RMK      A02 SLP082 T02780243 PA140 DA2051=
0134008415999992015110518534+07300+134200FM-15+000099999V0200701N003119999999N999999999+02791+02431100821ADDMA1100811999999REMMET107MOBOB2 METAR XM21 //000 073342 051853Z AUTO 07006KT 28/24 A2977 RMK      A02 SLP082 T02790243 PA140 DA2062=
0134008415999992015110519534+07300+134200FM-15+000099999V0200701N003119999999N999999999+02771+02431100851ADDMA1100851999999REMMET107MOBOB2 METAR XM21 //000 073342 051953Z AUTO 07006KT 28/24 A2978 RMK      A02 SLP085 T02770243 PA131 DA2028=
0134008415999992015110520534+07300+134200FM-15+000099999V0200701N003119999999N999999999+02771+02431100921ADDMA1100911999999REMMET107MOBOB2 METAR XM21 //000 073342 052053Z AUTO 07006KT 28/24 A2980 RMK      A02 SLP092 T02770243 PA112 DA2005=
0134008415999992015110521534+07300+134200FM-15+000099999V0200701N002619999999N999999999+02811+02461101021ADDMA1101021999999REMMET107MOBOB2 METAR XM21 //000 073342 052153Z AUTO 07005KT 28/25 A2983 RMK      A02 SLP102 T02810246 PA084 DA2024=
0134008415999992015110522534+07300+134200FM-15+000099999V0200801N003119999999N999999999+02841+02441101091ADDMA1101081999999REMMET107MOBOB2 METAR XM21 //000 073342 052253Z AUTO 08006KT 28/24 A2985 RMK      A02 SLP109 T02840244 PA066 DA2029=
0161008415999992015110523534+07300+134200FM-15+000099999V0200601N003619999999N999999999+02681+02341101121ADDAA101000531AW1611MA1101121999999REMMET117MOBOB2 METAR XM21 //000 073342 052353Z AUTO 06007KT -RA 27/23 A2986      RMK A02 SLP112 P0002 T02680234 PA057 DA1817=
0134008415999992015110600534+07300+134200FM-15+000099999V0200401N001519999999N999999999+02841+02421101121ADDMA1101121999999REMMET107MOBOB2 METAR XM21 //000 073342 060053Z AUTO 04003KT 28/24 A2986 RMK      A02 SLP112 T02840242 PA057 DA2014=
0134008415999992015110601534+07300+134200FM-15+000099999V0201601N002619999999N999999999+02811+02341101061ADDMA1101051999999REMMET107MOBOB2 METAR XM21 //000 073342 060153Z AUTO 16005KT 28/23 A2984 RMK      A02 SLP106 T02810234 PA075 DA1985=
0134008415999992015110602534+07300+134200FM-15+000099999V0201501N003619999999N999999999+02771+02371100991ADDMA1100981999999REMMET107MOBOB2 METAR XM21 //000 073342 060253Z AUTO 15007KT 28/24 A2982 RMK      A02 SLP099 T02770237 PA094 DA1970=
0161008415999992015110603534+07300+134200FM-15+000099999V0203301N003119999999N999999999+02731+02331100951ADDAA101003331AW1611MA1100951999999REMMET117MOBOB2 METAR XM21 //000 073342 060353Z AUTO 33006KT -RA 27/23 A2981      RMK A02 SLP095 P0013 T02730233 PA103 DA1927=
0161008415999992015110604534+07300+134200FM-15+000099999V0202701N001519999999N999999999+02461+02351100891ADDAA101015431AW1611MA1100881999999REMMET117MOBOB2 METAR XM21 //000 073342 060453Z AUTO 27003KT -RA 25/23 A2979      RMK A02 SLP089 P0061 T02460235 PA122 DA1649=
0134008415999992015110605534+07300+134200FM-15+000099999V0200201N003619999999N999999999+02631+02391100851ADDMA1100851999999REMMET107MOBOB2 METAR XM21 //000 073342 060553Z AUTO 02007KT 26/24 A2978 RMK      A02 SLP085 T02630239 PA131 DA1862=
0134008415999992015110606534+07300+134200FM-15+000099999V0200401N003619999999N999999999+02711+02411100851ADDMA1100851999999REMMET107MOBOB2 METAR XM21 //000 073342 060653Z AUTO 04007KT 27/24 A2978 RMK      A02 SLP085 T02710241 PA131 DA1957=
0134008415999992015110607534+07300+134200FM-15+000099999V0200501N004619999999N999999999+02761+02421100851ADDMA1100851999999REMMET107MOBOB2 METAR XM21 //000 073342 060753Z AUTO 05009KT 28/24 A2978 RMK      A02 SLP085 T02760242 PA131 DA2015=
0145008415999992015110608544+07300+134200FM-15+000099999V0200401N005719999999N999999999+02731+02411100891ADDMA1100881999999OC100721REMMET110MOBOB2 METAR XM21 //000 073342 060854Z AUTO 04011G14KT 27/24 A2979      RMK A02 SLP089 T02730241 PA122 DA1968=
0145008415999992015110609534+07300+134200FM-15+000099999V0200601N005719999999N999999999+02741+02431100921ADDMA1100911999999OC100671REMMET110MOBOB2 METAR XM21 //000 073342 060953Z AUTO 06011G13KT 27/24 A2980      RMK A02 SLP092 T02740243 PA112 DA1972=
0134008415999992015110610534+07300+134200FM-15+000099999V0200901N004119999999N999999999+02751+02451100991ADDMA1100981999999REMMET107MOBOB2 METAR XM21 //000 073342 061053Z AUTO 09008KT 28/24 A2982 RMK      A02 SLP099 T02750245 PA094 DA1965=
0134008415999992015110611534+07300+134200FM-15+000099999V0201001N003619999999N999999999+02781+02401101091ADDMA1101081999999REMMET107MOBOB2 METAR XM21 //000 073342 061153Z AUTO 10007KT 28/24 A2985 RMK      A02 SLP109 T02780240 PA066 DA1953=
0134008415999992015110612534+07300+134200FM-15+000099999V0200701N003119999999N999999999+02791+02441101091ADDMA1101081999999REMMET107MOBOB2 METAR XM21 //000 073342 061253Z AUTO 07006KT 28/24 A2985 RMK      A02 SLP109 T02790244 PA066 DA1974=
0134008415999992015110613534+07300+134200FM-15+000099999V0200501N004619999999N999999999+02801+02461101061ADDMA1101051999999REMMET107MOBOB2 METAR XM21 //000 073342 061353Z AUTO 05009KT 28/25 A2984 RMK      A02 SLP106 T02800246 PA075 DA2001=
0134008415999992015110614534+07300+134200FM-15+000099999V0200501N004619999999N999999999+02791+02401101061ADDMA1101051999999REMMET107MOBOB2 METAR XM21 //000 073342 061453Z AUTO 05009KT 28/24 A2984 RMK      A02 SLP106 T02790240 PA075 DA1975=
0134008415999992015110615534+07300+134200FM-15+000099999V0200401N004619999999N999999999+02781+02421100951ADDMA1100951999999REMMET107MOBOB2 METAR XM21 //000 073342 061553Z AUTO 04009KT 28/24 A2981 RMK      A02 SLP095 T02780242 PA103 DA2002=
0145008415999992015110616534+07300+134200FM-15+000099999V0200501N005719999999N999999999+02771+02421100921ADDMA1100911999999OC100671REMMET110MOBOB2 METAR XM21 //000 073342 061653Z AUTO 05011G13KT 28/24 A2980      RMK A02 SLP092 T02770242 PA112 DA2005=
0172008415999992015110617534+07300+134200FM-15+000099999V0200901N005719999999N999999999+02651+02301100921ADDAA101000531AW1611MA1100911999999OC100771REMMET120MOBOB2 METAR XM21 //000 073342 061753Z AUTO 09011G15KT -RA 27/23 A2980      RMK A02 SLP092 P0002 T02650230 PA112 DA1842=
0160008415999992015110618534+07300+134200FM-15+000099999V0200801N004119999999N999999999+02601+02361100921ADDAA101002031AW1621MA1100911999999REMMET116MOBOB2 METAR XM21 //000 073342 061853Z AUTO 08008KT RA 26/24 A2980      RMK A02 SLP092 P0008 T02600236 PA112 DA1798=
0161008415999992015110619534+07300+134200FM-15+000099999V0200701N002619999999N999999999+02611+02371101021ADDAA101001231AW1611MA1101021999999REMMET117MOBOB2 METAR XM21 //000 073342 061953Z AUTO 07005KT -RA 26/24 A2983      RMK A02 SLP102 P0005 T02610237 PA084 DA1779=
0134008415999992015110620534+07300+134200FM-15+000099999V0201201N002119999999N999999999+02651+02371101021ADDMA1101021999999REMMET107MOBOB2 METAR XM21 //000 073342 062053Z AUTO 12004KT 27/24 A2983 RMK      A02 SLP102 T02650237 PA084 DA1823=
0134008415999992015110621534+07300+134200FM-15+000099999V0200801N003119999999N999999999+02691+02421101091ADDMA1101081999999REMMET107MOBOB2 METAR XM21 //000 073342 062153Z AUTO 08006KT 27/24 A2985 RMK      A02 SLP109 T02690242 PA066 DA1856=
0145008415999992015110622534+07300+134200FM-15+000099999V0200901N006719999999N999999999+02731+02451101191ADDMA1101181999999OC100881REMMET110MOBOB2 METAR XM21 //000 073342 062253Z AUTO 09013G17KT 27/25 A2988      RMK A02 SLP119 T02730245 PA038 DA1875=
0172008415999992015110623534+07300+134200FM-15+000099999V0200901N006719999999N999999999+02651+02331101161ADDAA101002231AW1611MA1101151999999OC100821REMMET120MOBOB2 METAR XM21 //000 073342 062353Z AUTO 09013G16KT -RA 27/23 A2987      RMK A02 SLP116 P0009 T02650233 PA047 DA1768=
0161008415999992015110700534+07300+134200FM-15+000099999V0200701N003619999999N999999999+02631+02301101091ADDAA101000731AW1611MA1101081999999REMMET117MOBOB2 METAR XM21 //000 073342 070053Z AUTO 07007KT -RA 26/23 A2985      RMK A02 SLP109 P0003 T02630230 PA066 DA1762=
0134008415999992015110701534+07300+134200FM-15+000099999V0200701N004119999999N999999999+02681+02361101091ADDMA1101081999999REMMET107MOBOB2 METAR XM21 //000 073342 070153Z AUTO 07008KT 27/24 A2985 RMK      A02 SLP109 T02680236 PA066 DA1833=
0134008415999992015110702534+07300+134200FM-15+000099999V0200901N003619999999N999999999+02731+02391101021ADDMA1101021999999REMMET107MOBOB2 METAR XM21 //000 073342 070253Z AUTO 09007KT 27/24 A2983 RMK      A02 SLP102 T02730239 PA084 DA1918=
0134008415999992015110703534+07300+134200FM-15+000099999V0200801N004619999999N999999999+02771+02431100991ADDMA1100981999999REMMET107MOBOB2 METAR XM21 //000 073342 070353Z AUTO 08009KT 28/24 A2982 RMK      A02 SLP099 T02770243 PA094 DA1983=
0145008415999992015110704534+07300+134200FM-15+000099999V0200901N005119999999N999999999+02771+02411100951ADDMA1100951999999OC100671REMMET110MOBOB2 METAR XM21 //000 073342 070453Z AUTO 09010G13KT 28/24 A2981      RMK A02 SLP095 T02770241 PA103 DA1989=
0161008415999992015110705534+07300+134200FM-15+000099999V0200901N004119999999N999999999+02771+02441100891ADDAA101000531AW1611MA1100881999999REMMET117MOBOB2 METAR XM21 //000 073342 070553Z AUTO 09008KT -RA 28/24 A2979      RMK A02 SLP089 P0002 T02770244 PA122 DA2020=
0134008415999992015110706534+07300+134200FM-15+000099999V0200801N004119999999N999999999+02821+02381100851ADDMA1100851999999REMMET107MOBOB2 METAR XM21 //000 073342 070653Z AUTO 08008KT 28/24 A2978 RMK      A02 SLP085 T02820238 PA131 DA2074=
0134008415999992015110707534+07300+134200FM-15+000099999V0200701N004619999999N999999999+02821+02391100921ADDMA1100911999999REMMET107MOBOB2 METAR XM21 //000 073342 070753Z AUTO 07009KT 28/24 A2980 RMK      A02 SLP092 T02820239 PA112 DA2052=
0145008415999992015110708534+07300+134200FM-15+000099999V0200601N005719999999N999999999+02811+02451100951ADDMA1100951999999OC100671REMMET110MOBOB2 METAR XM21 //000 073342 070853Z AUTO 06011G13KT 28/24 A2981      RMK A02 SLP095 T02810245 PA103 DA2043=
0145008415999992015110709534+07300+134200FM-15+000099999V0200701N005119999999N999999999+02801+02461100991ADDMA1100981999999OC100671REMMET110MOBOB2 METAR XM21 //000 073342 070953Z AUTO 07010G13KT 28/25 A2982      RMK A02 SLP099 T02800246 PA094 DA2025=
0145008415999992015110710534+07300+134200FM-15+000099999V0200901N006219999999N999999999+02741+02441101061ADDMA1101051999999OC100881REMMET110MOBOB2 METAR XM21 //000 073342 071053Z AUTO 09012G17KT 27/24 A2984      RMK A02 SLP106 T02740244 PA075 DA1928=
0145008415999992015110711534+07300+134200FM-15+000099999V0200801N005119999999N999999999+02811+02471101091ADDMA1101081999999OC100671REMMET110MOBOB2 METAR XM21 //000 073342 071153Z AUTO 08010G13KT 28/25 A2985      RMK A02 SLP109 T02810247 PA066 DA2002=
0134008415999992015110712534+07300+134200FM-15+000099999V0200601N004119999999N999999999+02811+02491101121ADDMA1101121999999REMMET107MOBOB2 METAR XM21 //000 073342 071253Z AUTO 06008KT 28/25 A2986 RMK      A02 SLP112 T02810249 PA057 DA1997=
0134008415999992015110713534+07300+134200FM-15+000099999V0200601N004119999999N999999999+02811+02461101121ADDMA1101121999999REMMET107MOBOB2 METAR XM21 //000 073342 071353Z AUTO 06008KT 28/25 A2986 RMK      A02 SLP112 T02810246 PA057 DA1989=
0134008415999992015110714534+07300+134200FM-15+000099999V0200701N003619999999N999999999+02821+02421101091ADDMA1101081999999REMMET107MOBOB2 METAR XM21 //000 073342 071453Z AUTO 07007KT 28/24 A2985 RMK      A02 SLP109 T02820242 PA066 DA2003=
0134008415999992015110715534+07300+134200FM-15+000099999V0200701N003619999999N999999999+02801+02411101021ADDMA1101021999999REMMET107MOBOB2 METAR XM21 //000 073342 071553Z AUTO 07007KT 28/24 A2983 RMK      A02 SLP102 T02800241 PA084 DA2002=
0134008415999992015110716534+07300+134200FM-15+000099999V0200801N003619999999N999999999+02781+02461100951ADDMA1100951999999REMMET107MOBOB2 METAR XM21 //000 073342 071653Z AUTO 08007KT 28/25 A2981 RMK      A02 SLP095 T02780246 PA103 DA2014=
0145008415999992015110717534+07300+134200FM-15+000099999V0200601N005119999999N999999999+02761+02451100891ADDMA1100881999999OC100981REMMET110MOBOB2 METAR XM21 //000 073342 071753Z AUTO 06010G19KT 28/25 A2979      RMK A02 SLP089 T02760245 PA122 DA2012=
0134008415999992015110718534+07300+134200FM-15+000099999V0201101N003619999999N999999999+02681+02381100921ADDMA1100911999999REMMET107MOBOB2 METAR XM21 //000 073342 071853Z AUTO 11007KT 27/24 A2980 RMK      A02 SLP092 T02680238 PA112 DA1893=
0134008415999992015110719534+07300+134200FM-15+000099999V0200801N004119999999N999999999+02721+02461100951ADDMA1100951999999REMMET107MOBOB2 METAR XM21 //000 073342 071953Z AUTO 08008KT 27/25 A2981 RMK      A02 SLP095 T02720246 PA103 DA1945=
0145008415999992015110720534+07300+134200FM-15+000099999V0200401N006719999999N999999999+02691+02431100991ADDMA1100981999999OC100881REMMET110MOBOB2 METAR XM21 //000 073342 072053Z AUTO 04013G17KT 27/24 A2982      RMK A02 SLP099 T02690243 PA094 DA1892=
0145008415999992015110721534+07300+134200FM-15+000099999V0200701N005119999999N999999999+02761+02451101091ADDMA1101081999999OC100671REMMET110MOBOB2 METAR XM21 //000 073342 072153Z AUTO 07010G13KT 28/24 A2985      RMK A02 SLP109 T02760245 PA066 DA1942=
0134008415999992015110722534+07300+134200FM-15+000099999V0200601N004119999999N999999999+02771+02451101161ADDMA1101151999999REMMET107MOBOB2 METAR XM21 //000 073342 072253Z AUTO 06008KT 28/24 A2987 RMK      A02 SLP116 T02770245 PA047 DA1930=
0161008415999992015110723534+07300+134200FM-15+000099999V0200701N002119999999N999999999+02561+02381101191ADDAA101004031AW1611MA1101181999999REMMET117MOBOB2 METAR XM21 //000 073342 072353Z AUTO 07004KT -RA 26/24 A2988      RMK A02 SLP119 P0016 T02560238 PA038 DA1667=
0134008415999992015110800534+07300+134200FM-15+000099999V0200801N003119999999N999999999+02801+02441101161ADDMA1101151999999REMMET107MOBOB2 METAR XM21 //000 073342 080053Z AUTO 08006KT 28/24 A2987 RMK      A02 SLP116 T02800244 PA047 DA1963=
0134008415999992015110801534+07300+134200FM-15+000099999V0200901N004619999999N999999999+02891+02441101091ADDMA1101081999999REMMET107MOBOB2 METAR XM21 //000 073342 080153Z AUTO 09009KT 29/24 A2985 RMK      A02 SLP109 T02890244 PA066 DA2085=
0145008415999992015110802534+07300+134200FM-15+000099999V0200901N005119999999N999999999+02911+02381100991ADDMA1100981999999OC100621REMMET110MOBOB2 METAR XM21 //000 073342 080253Z AUTO 09010G12KT 29/24 A2982      RMK A02 SLP099 T02910238 PA094 DA2129=
0145008415999992015110803534+07300+134200FM-15+000099999V0201101N005119999999N999999999+02911+02361100921ADDMA1100911999999OC100671REMMET110MOBOB2 METAR XM21 //000 073342 080353Z AUTO 11010G13KT 29/24 A2980      RMK A02 SLP092 T02910236 PA112 DA2147=
0145008415999992015110804534+07300+134200FM-15+000099999V0201101N004619999999N999999999+02911+02371100851ADDMA1100851999999OC100621REMMET110MOBOB2 METAR XM21 //000 073342 080453Z AUTO 11009G12KT 29/24 A2978      RMK A02 SLP085 T02910237 PA131 DA2172=
0145008415999992015110805534+07300+134200FM-15+000099999V0201101N005119999999N999999999+02891+02351100821ADDMA1100811999999OC100621REMMET110MOBOB2 METAR XM21 //000 073342 080553Z AUTO 11010G12KT 29/23 A2977      RMK A02 SLP082 T02890235 PA140 DA2156=
0145008415999992015110806534+07300+134200FM-15+000099999V0201001N005119999999N999999999+02891+02391100821ADDMA1100811999999OC100671REMMET110MOBOB2 METAR XM21 //000 073342 080653Z AUTO 10010G13KT 29/24 A2977      RMK A02 SLP082 T02890239 PA140 DA2164=
0145008415999992015110807534+07300+134200FM-15+000099999V0201001N005719999999N999999999+02871+02321100851ADDMA1100851999999OC100671REMMET110MOBOB2 METAR XM21 //000 073342 080753Z AUTO 10011G13KT 29/23 A2978      RMK A02 SLP085 T02870232 PA131 DA2117=
0134008415999992015110808534+07300+134200FM-15+000099999V0200901N004119999999N999999999+02861+02341100891ADDMA1100881999999REMMET107MOBOB2 METAR XM21 //000 073342 080853Z AUTO 09008KT 29/23 A2979 RMK      A02 SLP089 T02860234 PA122 DA2098=
0134008415999992015110809534+07300+134200FM-15+000099999V0200901N004619999999N999999999+02851+02371100951ADDMA1100951999999REMMET107MOBOB2 METAR XM21 //000 073342 080953Z AUTO 09009KT 29/24 A2981 RMK      A02 SLP095 T02850237 PA103 DA2071=
0134008415999992015110810534+07300+134200FM-15+000099999V0200801N004119999999N999999999+02851+02401101021ADDMA1101021999999REMMET107MOBOB2 METAR XM21 //000 073342 081053Z AUTO 08008KT 29/24 A2983 RMK      A02 SLP102 T02850240 PA084 DA2053=
0134008415999992015110811534+07300+134200FM-15+000099999V0200801N004119999999N999999999+02851+02431101061ADDMA1101051999999REMMET107MOBOB2 METAR XM21 //000 073342 081153Z AUTO 08008KT 29/24 A2984 RMK      A02 SLP106 T02850243 PA075 DA2050=
0134008415999992015110812534+07300+134200FM-15+000099999V0200801N004619999999N999999999+02851+02441101091ADDMA1101081999999REMMET107MOBOB2 METAR XM21 //000 073342 081253Z AUTO 08009KT 29/24 A2985 RMK      A02 SLP109 T02850244 PA066 DA2041=
0134008415999992015110813534+07300+134200FM-15+000099999V0200801N004119999999N999999999+02831+02461101091ADDMA1101081999999REMMET107MOBOB2 METAR XM21 //000 073342 081353Z AUTO 08008KT 28/25 A2985 RMK      A02 SLP109 T02830246 PA066 DA2023=
0134008415999992015110814534+07300+134200FM-15+000099999V0200801N003619999999N999999999+02831+02451101061ADDMA1101051999999REMMET107MOBOB2 METAR XM21 //000 073342 081453Z AUTO 08007KT 28/24 A2984 RMK      A02 SLP106 T02830245 PA075 DA2031=
0134008415999992015110815534+07300+134200FM-15+000099999V0200801N003619999999N999999999+02811+02451100991ADDMA1100981999999REMMET107MOBOB2 METAR XM21 //000 073342 081553Z AUTO 08007KT 28/24 A2982 RMK      A02 SLP099 T02810245 PA094 DA2032=
0134008415999992015110816534+07300+134200FM-15+000099999V0200801N003619999999N999999999+02791+02421100921ADDMA1100911999999REMMET107MOBOB2 METAR XM21 //000 073342 081653Z AUTO 08007KT 28/24 A2980 RMK      A02 SLP092 T02790242 PA112 DA2026=
0134008415999992015110817534+07300+134200FM-15+000099999V0200701N003619999999N999999999+02751+02461100891ADDMA1100881999999REMMET107MOBOB2 METAR XM21 //000 073342 081753Z AUTO 07007KT 28/25 A2979 RMK      A02 SLP089 T02750246 PA122 DA2002=
0134008415999992015110818534+07300+134200FM-15+000099999V0200701N003619999999N999999999+02761+02441100851ADDMA1100851999999REMMET107MOBOB2 METAR XM21 //000 073342 081853Z AUTO 07007KT 28/24 A2978 RMK      A02 SLP085 T02760244 PA131 DA2020=
0161008415999992015110819534+07300+134200FM-15+000099999V0201001N004619999999N999999999+02661+02391100891ADDAA101000021AW1611MA1100881999999REMMET117MOBOB2 METAR XM21 //000 073342 081953Z AUTO 10009KT -RA 27/24 A2979      RMK A02 SLP089 P0000 T02660239 PA122 DA1886=
0134008415999992015110820534+07300+134200FM-15+000099999V0200701N003119999999N999999999+02761+02441100921ADDMA1100911999999REMMET107MOBOB2 METAR XM21 //000 073342 082053Z AUTO 07006KT 28/24 A2980 RMK      A02 SLP092 T02760244 PA112 DA1998=
0134008415999992015110821534+07300+134200FM-15+000099999V0200801N003119999999N999999999+02761+02401100991ADDMA1100981999999REMMET107MOBOB2 METAR XM21 //000 073342 082153Z AUTO 08006KT 28/24 A2982 RMK      A02 SLP099 T02760240 PA094 DA1964=
0134008415999992015110822534+07300+134200FM-15+000099999V0201101N002619999999N999999999+02781+02411101061ADDMA1101051999999REMMET107MOBOB2 METAR XM21 //000 073342 082253Z AUTO 11005KT 28/24 A2984 RMK      A02 SLP106 T02780241 PA075 DA1967=
0134008415999992015110823534+07300+134200FM-15+000099999V0201101N003119999999N999999999+02811+02381101091ADDMA1101081999999REMMET107MOBOB2 METAR XM21 //000 073342 082353Z AUTO 11006KT 28/24 A2985 RMK      A02 SLP109 T02810238 PA066 DA1982=
0145008415999992015110900534+07300+134200FM-15+000099999V0200701N008219999999N999999999+02631+02351101121ADDMA1101121999999OC100981REMMET110MOBOB2 METAR XM21 //000 073342 090053Z AUTO 07016G19KT 26/24 A2986      RMK A02 SLP112 T02630235 PA057 DA1763=
0161008415999992015110901534+07300+134200FM-15+000099999V0200601N001519999999N999999999+02801+02241101061ADDAA101000021AW1611MA1101051999999REMMET117MOBOB2 METAR XM21 //000 073342 090153Z AUTO 06003KT -RA 28/22 A2984      RMK A02 SLP106 P0000 T02800224 PA075 DA1952=
0134008415999992015110902534+07300+134200FM-15+000099999V0200701N002119999999N999999999+02851+02331100951ADDMA1100951999999REMMET107MOBOB2 METAR XM21 //000 073342 090253Z AUTO 07004KT 29/23 A2981 RMK      A02 SLP095 T02850233 PA103 DA2061=
0172008415999992015110903534+07300+134200FM-15+000099999V0201201N007219999999N999999999+02611+02361100891ADDAA101000531AW1631MA1100881999999OC100981REMMET120MOBOB2 METAR XM21 //000 073342 090353Z AUTO 12014G19KT +RA 26/24 A2979      RMK A02 SLP089 P0002 T02610236 PA122 DA1823=
0161008415999992015110904534+07300+134200FM-15+000099999V0200601N002619999999N999999999+02641+02441100821ADDAA101007831AW1611MA1100811999999REMMET117MOBOB2 METAR XM21 //000 073342 090453Z AUTO 06005KT -RA 26/24 A2977      RMK A02 SLP082 P0031 T02640244 PA140 DA1896=
0134008415999992015110905534+07300+134200FM-15+000099999V0200701N002119999999N999999999+02761+02381100781ADDMA1100781999999REMMET107MOBOB2 METAR XM21 //000 073342 090553Z AUTO 07004KT 28/24 A2976 RMK      A02 SLP078 T02760238 PA149 DA2029=
0134008415999992015110906534+07300+134200FM-15+000099999V0200801N002619999999N999999999+02761+02341100821ADDMA1100811999999REMMET107MOBOB2 METAR XM21 //000 073342 090653Z AUTO 08005KT 28/23 A2977 RMK      A02 SLP082 T02760234 PA140 DA2009=
0134008415999992015110907534+07300+134200FM-15+000099999V0200901N002119999999N999999999+02791+02371100851ADDMA1100851999999REMMET107MOBOB2 METAR XM21 //000 073342 090753Z AUTO 09004KT 28/24 A2978 RMK      A02 SLP085 T02790237 PA131 DA2038=
0134008415999992015110908534+07300+134200FM-15+000099999V0200801N002619999999N999999999+02781+02451100851ADDMA1100851999999REMMET107MOBOB2 METAR XM21 //000 073342 090853Z AUTO 08005KT 28/25 A2978 RMK      A02 SLP085 T02780245 PA131 DA2045=
0134008415999992015110909534+07300+134200FM-15+000099999V0200701N002619999999N999999999+02781+02421100951ADDMA1100951999999REMMET107MOBOB2 METAR XM21 //000 073342 090953Z AUTO 07005KT 28/24 A2981 RMK      A02 SLP095 T02780242 PA103 DA2004=
0134008415999992015110910534+07300+134200FM-15+000099999V0200801N003119999999N999999999+02801+02411101021ADDMA1101021999999REMMET107MOBOB2 METAR XM21 //000 073342 091053Z AUTO 08006KT 28/24 A2983 RMK      A02 SLP102 T02800241 PA084 DA2001=
0134008415999992015110911534+07300+134200FM-15+000099999V0200701N003619999999N999999999+02801+02411101091ADDMA1101081999999REMMET107MOBOB2 METAR XM21 //000 073342 091153Z AUTO 07007KT 28/24 A2985 RMK      A02 SLP109 T02800241 PA066 DA1978=
0134008415999992015110912534+07300+134200FM-15+000099999V0200701N003619999999N999999999+02791+02451101061ADDMA1101051999999REMMET107MOBOB2 METAR XM21 //000 073342 091253Z AUTO 07007KT 28/25 A2984 RMK      A02 SLP106 T02790245 PA075 DA1988=
0134008415999992015110913534+07300+134200FM-15+000099999V0200801N004619999999N999999999+02761+02391101061ADDMA1101051999999REMMET107MOBOB2 METAR XM21 //000 073342 091353Z AUTO 08009KT 28/24 A2984 RMK      A02 SLP106 T02760239 PA075 DA1939=
0134008415999992015110914534+07300+134200FM-15+000099999V0200501N003119999999N999999999+02751+02391101021ADDMA1101021999999REMMET107MOBOB2 METAR XM21 //000 073342 091453Z AUTO 05006KT 28/24 A2983 RMK      A02 SLP102 T02750239 PA084 DA1939=
0134008415999992015110915534+07300+134200FM-15+000099999V0200701N003619999999N999999999+02741+02371100951ADDMA1100951999999REMMET107MOBOB2 METAR XM21 //000 073342 091553Z AUTO 07007KT 27/24 A2981 RMK      A02 SLP095 T02740237 PA103 DA1948=
0134008415999992015110916534+07300+134200FM-15+000099999V0200601N004119999999N999999999+02731+02391100921ADDMA1100911999999REMMET107MOBOB2 METAR XM21 //000 073342 091653Z AUTO 06008KT 27/24 A2980 RMK      A02 SLP092 T02730239 PA112 DA1952=
0134008415999992015110917534+07300+134200FM-15+000099999V0200801N002619999999N999999999+02751+02401100851ADDMA1100851999999REMMET107MOBOB2 METAR XM21 //000 073342 091753Z AUTO 08005KT 28/24 A2978 RMK      A02 SLP085 T02750240 PA131 DA1999=
0172008415999992015110918534+07300+134200FM-15+000099999V0200601N005119999999N999999999+02641+02331100891ADDAA101000731AW1611MA1100881999999OC100621REMMET120MOBOB2 METAR XM21 //000 073342 091853Z AUTO 06010G12KT -RA 26/23 A2979      RMK A02 SLP089 P0003 T02640233 PA122 DA1850=
0134008415999992015110919534+07300+134200FM-15+000099999V0200501N004119999999N999999999+02731+02361100891ADDMA1100881999999REMMET107MOBOB2 METAR XM21 //000 073342 091953Z AUTO 05008KT 27/24 A2979 RMK      A02 SLP089 T02730236 PA122 DA1957=
0134008415999992015110920534+07300+134200FM-15+000099999V0200401N004119999999N999999999+02711+02341100951ADDMA1100951999999REMMET107MOBOB2 METAR XM21 //000 073342 092053Z AUTO 04008KT 27/23 A2981 RMK      A02 SLP095 T02710234 PA103 DA1908=
0145008415999992015110921534+07300+134200FM-15+000099999V0200501N005719999999N999999999+02761+02341101021ADDMA1101021999999OC100721REMMET110MOBOB2 METAR XM21 //000 073342 092153Z AUTO 05011G14KT 28/23 A2983      RMK A02 SLP102 T02760234 PA084 DA1940=
0134008415999992015110922534+07300+134200FM-15+000099999V0200601N003119999999N999999999+02801+02381101091ADDMA1101081999999REMMET107MOBOB2 METAR XM21 //000 073342 092253Z AUTO 06006KT 28/24 A2985 RMK      A02 SLP109 T02800238 PA066 DA1970=
0134008415999992015110923534+07300+134200FM-15+000099999V0200501N003619999999N999999999+02801+02411101121ADDMA1101121999999REMMET107MOBOB2 METAR XM21 //000 073342 092353Z AUTO 05007KT 28/24 A2986 RMK      A02 SLP112 T02800241 PA057 DA1966=
0134008415999992015111000534+07300+134200FM-15+000099999V0200401N004119999999N999999999+02841+02361101091ADDMA1101081999999REMMET107MOBOB2 METAR XM21 //000 073342 100053Z AUTO 04008KT 28/24 A2985 RMK      A02 SLP109 T02840236 PA066 DA2011=
0134008415999992015111001534+07300+134200FM-15+000099999V0200401N003619999999N999999999+02871+02361101021ADDMA1101021999999REMMET107MOBOB2 METAR XM21 //000 073342 100153Z AUTO 04007KT 29/24 A2983 RMK      A02 SLP102 T02870236 PA084 DA2068=
0145008415999992015111002534+07300+134200FM-15+000099999V0200401N005719999999N999999999+02901+02361100921ADDMA1100911999999OC100671REMMET110MOBOB2 METAR XM21 //000 073342 100253Z AUTO 04011G13KT 29/24 A2980      RMK A02 SLP092 T02900236 PA112 DA2135=
0145008415999992015111003534+07300+134200FM-15+000099999V0200401N006719999999N999999999+02911+02401100821ADDMA1100811999999OC100821REMMET110MOBOB2 METAR XM21 //000 073342 100353Z AUTO 04013G16KT 29/24 A2977      RMK A02 SLP082 T02910240 PA140 DA2189=
0145008415999992015111004534+07300+134200FM-15+000099999V0200401N006219999999N999999999+02931+02381100721ADDMA1100711999999OC100771REMMET110MOBOB2 METAR XM21 //000 073342 100453Z AUTO 04012G15KT 29/24 A2974      RMK A02 SLP072 T02930238 PA168 DA2242=
0145008415999992015111005534+07300+134200FM-15+000099999V0200601N005119999999N999999999+02971+02261100681ADDMA1100681999999OC100721REMMET110MOBOB2 METAR XM21 //000 073342 100553Z AUTO 06010G14KT 30/23 A2973      RMK A02 SLP068 T02970226 PA177 DA2271=
0145008415999992015111006534+07300+134200FM-15+000099999V0200701N005119999999N999999999+02941+02271100681ADDMA1100681999999OC100721REMMET110MOBOB2 METAR XM21 //000 073342 100653Z AUTO 07010G14KT 29/23 A2973      RMK A02 SLP068 T02940227 PA177 DA2240=
0145008415999992015111007534+07300+134200FM-15+000099999V0200601N006219999999N999999999+02891+02391100721ADDMA1100711999999OC100881REMMET110MOBOB2 METAR XM21 //000 073342 100753Z AUTO 06012G17KT 29/24 A2974      RMK A02 SLP072 T02890239 PA168 DA2200=
0145008415999992015111008534+07300+134200FM-15+000099999V0200601N006219999999N999999999+02881+02351100781ADDMA1100781999999OC100721REMMET110MOBOB2 METAR XM21 //000 073342 100853Z AUTO 06012G14KT 29/23 A2976      RMK A02 SLP078 T02880235 PA149 DA2156=
0145008415999992015111009534+07300+134200FM-15+000099999V0200601N006719999999N999999999+02861+02371100851ADDMA1100851999999OC100821REMMET110MOBOB2 METAR XM21 //000 073342 100953Z AUTO 06013G16KT 29/24 A2978      RMK A02 SLP085 T02860237 PA131 DA2115=
0145008415999992015111010534+07300+134200FM-15+000099999V0200601N005719999999N999999999+02851+02401100921ADDMA1100911999999OC100721REMMET110MOBOB2 METAR XM21 //000 073342 101053Z AUTO 06011G14KT 29/24 A2980      RMK A02 SLP092 T02850240 PA112 DA2089=
0145008415999992015111011534+07300+134200FM-15+000099999V0200601N006719999999N999999999+02841+02471100991ADDMA1100981999999OC100821REMMET110MOBOB2 METAR XM21 //000 073342 101153Z AUTO 06013G16KT 28/25 A2982      RMK A02 SLP099 T02840247 PA094 DA2071=
0145008415999992015111012534+07300+134200FM-15+000099999V0200501N006219999999N999999999+02831+02491100991ADDMA1100981999999OC100721REMMET110MOBOB2 METAR XM21 //000 073342 101253Z AUTO 05012G14KT 28/25 A2982      RMK A02 SLP099 T02830249 PA094 DA2065=
0145008415999992015111013534+07300+134200FM-15+000099999V0200601N005119999999N999999999+02821+02431100991ADDMA1100981999999OC100621REMMET110MOBOB2 METAR XM21 //000 073342 101353Z AUTO 06010G12KT 28/24 A2982      RMK A02 SLP099 T02820243 PA094 DA2040=
0145008415999992015111014534+07300+134200FM-15+000099999V0200601N004619999999N999999999+02821+02431100951ADDMA1100951999999OC100671REMMET110MOBOB2 METAR XM21 //000 073342 101453Z AUTO 06009G13KT 28/24 A2981      RMK A02 SLP095 T02820243 PA103 DA2050=
0145008415999992015111015534+07300+134200FM-15+000099999V0200601N004619999999N999999999+02821+02451100921ADDMA1100911999999OC100671REMMET110MOBOB2 METAR XM21 //000 073342 101553Z AUTO 06009G13KT 28/24 A2980      RMK A02 SLP092 T02820245 PA112 DA2066=
0161008415999992015111016534+07300+134200FM-15+000099999V0200701N004119999999N999999999+02751+02401100851ADDAA101001731AW1611MA1100851999999REMMET117MOBOB2 METAR XM21 //000 073342 101653Z AUTO 07008KT -RA 28/24 A2978      RMK A02 SLP085 P0007 T02750240 PA131 DA2000=
0145008415999992015111017534+07300+134200FM-15+000099999V0200801N005119999999N999999999+02791+02431100821ADDMA1100811999999OC100671REMMET110MOBOB2 METAR XM21 //000 073342 101753Z AUTO 08010G13KT 28/24 A2977      RMK A02 SLP082 T02790243 PA140 DA2062=
0145008415999992015111018534+07300+134200FM-15+000099999V0200601N005119999999N999999999+02781+02461100821ADDMA1100811999999OC100671REMMET110MOBOB2 METAR XM21 //000 073342 101853Z AUTO 06010G13KT 28/25 A2977      RMK A02 SLP082 T02780246 PA140 DA2058=
0145008415999992015111019534+07300+134200FM-15+000099999V0200701N006219999999N999999999+02771+02361100851ADDMA1100851999999OC100821REMMET110MOBOB2 METAR XM21 //000 073342 101953Z AUTO 07012G16KT 28/24 A2978      RMK A02 SLP085 T02770236 PA131 DA2012=
0145008415999992015111020534+07300+134200FM-15+000099999V0200601N005119999999N999999999+02751+02381100891ADDMA1100881999999OC100721REMMET110MOBOB2 METAR XM21 //000 073342 102053Z AUTO 06010G14KT 28/24 A2979      RMK A02 SLP089 T02750238 PA122 DA1984=
0134008415999992015111021534+07300+134200FM-15+000099999V0200701N004119999999N999999999+02771+02451100951ADDMA1100951999999REMMET107MOBOB2 METAR XM21 //000 073342 102153Z AUTO 07008KT 28/25 A2981 RMK      A02 SLP095 T02770245 PA103 DA1999=
0145008415999992015111022534+07300+134200FM-15+000099999V0200601N006219999999N999999999+02831+02431101021ADDMA1101021999999OC100821REMMET110MOBOB2 METAR XM21 //000 073342 102253Z AUTO 06012G16KT 28/24 A2983      RMK A02 SLP102 T02830243 PA084 DA2038=
0145008415999992015111023534+07300+134200FM-15+000099999V0200501N005119999999N999999999+02861+02491101061ADDMA1101051999999OC100671REMMET110MOBOB2 METAR XM21 //000 073342 102353Z AUTO 05010G13KT 29/25 A2984      RMK A02 SLP106 T02860249 PA075 DA2074=
0145008415999992015111100534+07300+134200FM-15+000099999V0200801N005119999999N999999999+02941+02381101061ADDMA1101051999999OC100621REMMET110MOBOB2 METAR XM21 //000 073342 110053Z AUTO 08010G12KT 29/24 A2984      RMK A02 SLP106 T02940238 PA075 DA2139=
0145008415999992015111101534+07300+134200FM-15+000099999V0200501N007219999999N999999999+02851+02391100991ADDMA1100981999999OC101131REMMET110MOBOB2 METAR XM21 //000 073342 110153Z AUTO 05014G22KT 29/24 A2982      RMK A02 SLP099 T02850239 PA094 DA2062=
0145008415999992015111102534+07300+134200FM-15+000099999V0200901N006719999999N999999999+02971+02341100921ADDMA1100911999999OC100821REMMET110MOBOB2 METAR XM21 //000 073342 110253Z AUTO 09013G16KT 30/23 A2980      RMK A02 SLP092 T02970234 PA112 DA2210=
0145008415999992015111103534+07300+134200FM-15+000099999V0201101N007719999999N999999999+02871+02361100851ADDMA1100851999999OC101031REMMET110MOBOB2 METAR XM21 //000 073342 110353Z AUTO 11015G20KT 29/24 A2978      RMK A02 SLP085 T02870236 PA131 DA2124=
0145008415999992015111104534+07300+134200FM-15+000099999V0200901N006219999999N999999999+02971+02381100821ADDMA1100811999999OC100771REMMET110MOBOB2 METAR XM21 //000 073342 110453Z AUTO 09012G15KT 30/24 A2977      RMK A02 SLP082 T02970238 PA140 DA2253=
0145008415999992015111105534+07300+134200FM-15+000099999V0200901N005719999999N999999999+02961+02421100781ADDMA1100781999999OC100721REMMET110MOBOB2 METAR XM21 //000 073342 110553Z AUTO 09011G14KT 30/24 A2976      RMK A02 SLP078 T02960242 PA149 DA2261=
0134008415999992015111106534+07300+134200FM-15+000099999V0200901N004619999999N999999999+02951+02401100821ADDMA1100811999999REMMET107MOBOB2 METAR XM21 //000 073342 110653Z AUTO 09009KT 30/24 A2977 RMK      A02 SLP082 T02950240 PA140 DA2234=
0145008415999992015111107534+07300+134200FM-15+000099999V0200601N004619999999N999999999+02881+02491100851ADDMA1100851999999OC100671REMMET110MOBOB2 METAR XM21 //000 073342 110753Z AUTO 06009G13KT 29/25 A2978      RMK A02 SLP085 T02880249 PA131 DA2166=
0145008415999992015111108534+07300+134200FM-15+000099999V0200601N006219999999N999999999+02891+02491100921ADDMA1100911999999OC100771REMMET110MOBOB2 METAR XM21 //000 073342 110853Z AUTO 06012G15KT 29/25 A2980      RMK A02 SLP092 T02890249 PA112 DA2155=
0145008415999992015111109534+07300+134200FM-15+000099999V0200601N005719999999N999999999+02881+02461100951ADDMA1100951999999OC100671REMMET110MOBOB2 METAR XM21 //000 073342 110953Z AUTO 06011G13KT 29/25 A2981      RMK A02 SLP095 T02880246 PA103 DA2124=
0145008415999992015111110534+07300+134200FM-15+000099999V0200701N006219999999N999999999+02841+02491101061ADDMA1101051999999OC100821REMMET110MOBOB2 METAR XM21 //000 073342 111053Z AUTO 07012G16KT 28/25 A2984      RMK A02 SLP106 T02840249 PA075 DA2054=
0172008415999992015111111534+07300+134200FM-15+000099999V0200501N006219999999N999999999+02841+02521101121ADDAA101000021AW1611MA1101121999999OC100881REMMET120MOBOB2 METAR XM21 //000 073342 111153Z AUTO 05012G17KT -RA 28/25 A2986      RMK A02 SLP112 P0000 T02840252 PA057 DA2036=
0172008415999992015111112534+07300+134200FM-15+000099999V0200601N005719999999N999999999+02741+02451101091ADDAA101002031AW1611MA1101081999999OC100721REMMET120MOBOB2 METAR XM21 //000 073342 111253Z AUTO 06011G14KT -RA 27/24 A2985      RMK A02 SLP109 P0008 T02740245 PA066 DA1919=
0145008415999992015111113534+07300+134200FM-15+000099999V0200701N005719999999N999999999+02771+02451101121ADDMA1101121999999OC100721REMMET110MOBOB2 METAR XM21 //000 073342 111353Z AUTO 07011G14KT 28/25 A2986      RMK A02 SLP112 T02770245 PA057 DA1943=
0145008415999992015111114534+07300+134200FM-15+000099999V0200601N005119999999N999999999+02741+02451101121ADDMA1101121999999OC100621REMMET110MOBOB2 METAR XM21 //000 073342 111453Z AUTO 06010G12KT 27/25 A2986      RMK A02 SLP112 T02740245 PA057 DA1909=
0145008415999992015111115534+07300+134200FM-15+000099999V0200501N007719999999N999999999+02731+02411101091ADDMA1101081999999OC101081REMMET110MOBOB2 METAR XM21 //000 073342 111553Z AUTO 05015G21KT 27/24 A2985      RMK A02 SLP109 T02730241 PA066 DA1898=
0145008415999992015111116534+07300+134200FM-15+000099999V0200501N008819999999N999999999+02711+02401101021ADDMA1101021999999OC101081REMMET110MOBOB2 METAR XM21 //000 073342 111653Z AUTO 05017G21KT 27/24 A2983      RMK A02 SLP102 T02710240 PA084 DA1898=
0145008415999992015111117534+07300+134200FM-15+000099999V0200501N008819999999N999999999+02741+02471100991ADDMA1100981999999OC101181REMMET110MOBOB2 METAR XM21 //000 073342 111753Z AUTO 05017G23KT 27/25 A2982      RMK A02 SLP099 T02740247 PA094 DA1958=
0172008415999992015111118534+07300+134200FM-15+000099999V0200901N007219999999N999999999+02701+02321100921ADDAA101000021AW1611MA1100911999999OC100931REMMET120MOBOB2 METAR XM21 //000 073342 111853Z AUTO 09014G18KT -RA 27/23 A2980      RMK A02 SLP092 P0000 T02700232 PA112 DA1903=
0145008415999992015111119534+07300+134200FM-15+000099999V0200601N006719999999N999999999+02751+02411101021ADDMA1101021999999OC100931REMMET110MOBOB2 METAR XM21 //000 073342 111953Z AUTO 06013G18KT 28/24 A2983      RMK A02 SLP102 T02750241 PA084 DA1946=
0145008415999992015111120534+07300+134200FM-15+000099999V0200601N007219999999N999999999+02771+02421101061ADDMA1101051999999OC101031REMMET110MOBOB2 METAR XM21 //000 073342 112053Z AUTO 06014G20KT 28/24 A2984      RMK A02 SLP106 T02770242 PA075 DA1958=
0172008415999992015111121534+07300+134200FM-15+000099999V0200901N007719999999N999999999+02741+02381101121ADDAA101000021AW1611MA1101121999999OC100981REMMET120MOBOB2 METAR XM21 //000 073342 112153Z AUTO 09015G19KT -RA 27/24 A2986      RMK A02 SLP112 P0000 T02740238 PA057 DA1892=
0145008415999992015111122534+07300+134200FM-15+000099999V0200701N005719999999N999999999+02801+02301101161ADDMA1101151999999OC100721REMMET110MOBOB2 METAR XM21 //000 073342 112253Z AUTO 07011G14KT 28/23 A2987      RMK A02 SLP116 T02800230 PA047 DA1930=
0134008415999992015111123534+07300+134200FM-15+000099999V0200801N003619999999N999999999+02861+02341101221ADDMA1101221999999REMMET107MOBOB2 METAR XM21 //000 073342 112353Z AUTO 08007KT 29/23 A2989 RMK      A02 SLP122 T02860234 PA029 DA1983=
0145008415999992015111200534+07300+134200FM-15+000099999V0200901N007719999999N999999999+02901+02401101191ADDMA1101181999999OC100981REMMET110MOBOB2 METAR XM21 //000 073342 120053Z AUTO 09015G19KT 29/24 A2988      RMK A02 SLP119 T02900240 PA038 DA2053=
0145008415999992015111201534+07300+134200FM-15+000099999V0200801N006719999999N999999999+02921+02301101121ADDMA1101121999999OC100881REMMET110MOBOB2 METAR XM21 //000 073342 120153Z AUTO 08013G17KT 29/23 A2986      RMK A02 SLP112 T02920230 PA057 DA2076=
0145008415999992015111202534+07300+134200FM-15+000099999V0200901N006219999999N999999999+02941+02331101091ADDMA1101081999999OC100821REMMET110MOBOB2 METAR XM21 //000 073342 120253Z AUTO 09012G16KT 29/23 A2985      RMK A02 SLP109 T02940233 PA066 DA2115=
0145008415999992015111203534+07300+134200FM-15+000099999V0200901N005719999999N999999999+02951+02351101021ADDMA1101021999999OC100821REMMET110MOBOB2 METAR XM21 //000 073342 120353Z AUTO 09011G16KT 30/24 A2983      RMK A02 SLP102 T02950235 PA084 DA2155=
0145008415999992015111204534+07300+134200FM-15+000099999V0200901N006719999999N999999999+02951+02341100951ADDMA1100951999999OC100771REMMET110MOBOB2 METAR XM21 //000 073342 120453Z AUTO 09013G15KT 30/23 A2981      RMK A02 SLP095 T02950234 PA103 DA2174=
0145008415999992015111205534+07300+134200FM-15+000099999V0200801N005119999999N999999999+02931+02421100921ADDMA1100911999999OC100671REMMET110MOBOB2 METAR XM21 //000 073342 120553Z AUTO 08010G13KT 29/24 A2980      RMK A02 SLP092 T02930242 PA112 DA2182=
0172008415999992015111206534+07300+134200FM-15+000099999V0201001N005119999999N999999999+02791+02391100951ADDAA101000021AW1611MA1100951999999OC100771REMMET120MOBOB2 METAR XM21 //000 073342 120653Z AUTO 10010G15KT -RA 28/24 A2981      RMK A02 SLP095 P0000 T02790239 PA103 DA2007=
0134008415999992015111207534+07300+134200FM-15+000099999V0201001N004119999999N999999999+02841+02531100991ADDMA1100981999999REMMET107MOBOB2 METAR XM21 //000 073342 120753Z AUTO 10008KT 28/25 A2982 RMK      A02 SLP099 T02840253 PA094 DA2086=
0161008415999992015111208534+07300+134200FM-15+000099999V0200901N003619999999N999999999+02711+02431100991ADDAA101000231AW1611MA1100981999999REMMET117MOBOB2 METAR XM21 //000 073342 120853Z AUTO 09007KT -RA 27/24 A2982      RMK A02 SLP099 P0001 T02710243 PA094 DA1915=
0161008415999992015111209534+07300+134200FM-15+000099999V0200701N003119999999N999999999+02771+02441101021ADDAA101000021AW1611MA1101021999999REMMET117MOBOB2 METAR XM21 //000 073342 120953Z AUTO 07006KT -RA 28/24 A2983      RMK A02 SLP102 P0000 T02770244 PA084 DA1975=
0134008415999992015111210534+07300+134200FM-15+000099999V0200601N004119999999N999999999+02811+02521101061ADDMA1101051999999REMMET107MOBOB2 METAR XM21 //000 073342 121053Z AUTO 06008KT 28/25 A2984 RMK      A02 SLP106 T02810252 PA075 DA2027=
0145008415999992015111211534+07300+134200FM-15+000099999V0200701N004619999999N999999999+02841+02451101091ADDMA1101081999999OC100621REMMET110MOBOB2 METAR XM21 //000 073342 121153Z AUTO 07009G12KT 28/25 A2985      RMK A02 SLP109 T02840245 PA066 DA2032=
0145008415999992015111212534+07300+134200FM-15+000099999V0200501N005719999999N999999999+02831+02481101091ADDMA1101081999999OC100671REMMET110MOBOB2 METAR XM21 //000 073342 121253Z AUTO 05011G13KT 28/25 A2985      RMK A02 SLP109 T02830248 PA066 DA2027=
0134008415999992015111213534+07300+134200FM-15+000099999V0200901N004619999999N999999999+02791+02461101091ADDMA1101081999999REMMET107MOBOB2 METAR XM21 //000 073342 121353Z AUTO 09009KT 28/25 A2985 RMK      A02 SLP109 T02790246 PA066 DA1979=
0134008415999992015111214534+07300+134200FM-15+000099999V0200901N004619999999N999999999+02821+02451101061ADDMA1101051999999REMMET107MOBOB2 METAR XM21 //000 073342 121453Z AUTO 09009KT 28/25 A2984 RMK      A02 SLP106 T02820245 PA075 DA2022=
0145008415999992015111215534+07300+134200FM-15+000099999V0200801N006719999999N999999999+02831+02481101021ADDMA1101021999999OC100821REMMET110MOBOB2 METAR XM21 //000 073342 121553Z AUTO 08013G16KT 28/25 A2983      RMK A02 SLP102 T02830248 PA084 DA2052=
0145008415999992015111216534+07300+134200FM-15+000099999V0200701N005719999999N999999999+02781+02441100951ADDMA1100951999999OC100821REMMET110MOBOB2 METAR XM21 //000 073342 121653Z AUTO 07011G16KT 28/24 A2981      RMK A02 SLP095 T02780244 PA103 DA2009=
0145008415999992015111217544+07300+134200FM-15+000099999V0200701N005119999999N999999999+02721+02361100921ADDMA1100911999999OC100721REMMET110MOBOB2 METAR XM21 //000 073342 121754Z AUTO 07010G14KT 27/24 A2980      RMK A02 SLP092 T02720236 PA112 DA1933=
0145008415999992015111218534+07300+134200FM-15+000099999V0200701N005119999999N999999999+02751+02461100921ADDMA1100911999999OC100621REMMET110MOBOB2 METAR XM21 //000 073342 121853Z AUTO 07010G12KT 28/25 A2980      RMK A02 SLP092 T02750246 PA112 DA1990=
0172008415999992015111219534+07300+134200FM-15+000099999V0200801N006219999999N999999999+02651+02391100951ADDAA101000021AW1611MA1100951999999OC100821REMMET120MOBOB2 METAR XM21 //000 073342 121953Z AUTO 08012G16KT -RA 27/24 A2981      RMK A02 SLP095 P0000 T02650239 PA103 DA1851=
0134008415999992015111220534+07300+134200FM-15+000099999V0200801N003619999999N999999999+02741+02491101021ADDMA1101021999999REMMET107MOBOB2 METAR XM21 //000 073342 122053Z AUTO 08007KT 27/25 A2983 RMK      A02 SLP102 T02740249 PA084 DA1951=
0145008415999992015111221534+07300+134200FM-15+000099999V0200701N005719999999N999999999+02811+02461101061ADDMA1101051999999OC100721REMMET110MOBOB2 METAR XM21 //000 073342 122153Z AUTO 07011G14KT 28/25 A2984      RMK A02 SLP106 T02810246 PA075 DA2012=
0172008415999992015111222534+07300+134200FM-15+000099999V0200701N006219999999N999999999+02841+02421101121ADDAA101000021AW1611MA1101121999999OC100771REMMET120MOBOB2 METAR XM21 //000 073342 122253Z AUTO 07012G15KT -RA 28/24 A2986      RMK A02 SLP112 P0000 T02840242 PA057 DA2013=
0145008415999992015111223534+07300+134200FM-15+000099999V0200701N006219999999N999999999+02891+02371101121ADDMA1101121999999OC100771REMMET110MOBOB2 METAR XM21 //000 073342 122353Z AUTO 07012G15KT 29/24 A2986      RMK A02 SLP112 T02890237 PA057 DA2059=
0145008415999992015111300534+07300+134200FM-15+000099999V0200401N006219999999N999999999+02781+02401101091ADDMA1101081999999OC100721REMMET110MOBOB2 METAR XM21 //000 073342 130053Z AUTO 04012G14KT 28/24 A2985      RMK A02 SLP109 T02780240 PA066 DA1954=
0145008415999992015111301534+07300+134200FM-15+000099999V0200701N007219999999N999999999+02961+02371101021ADDMA1101021999999OC101031REMMET110MOBOB2 METAR XM21 //000 073342 130153Z AUTO 07014G20KT 30/24 A2983      RMK A02 SLP102 T02960237 PA084 DA2170=
0145008415999992015111302534+07300+134200FM-15+000099999V0200801N005119999999N999999999+02891+02271100951ADDMA1100951999999OC100671REMMET110MOBOB2 METAR XM21 //000 073342 130253Z AUTO 08010G13KT 29/23 A2981      RMK A02 SLP095 T02890227 PA103 DA2092=
0145008415999992015111303534+07300+134200FM-15+000099999V0200701N004619999999N999999999+02901+02361100851ADDMA1100851999999OC100671REMMET110MOBOB2 METAR XM21 //000 073342 130353Z AUTO 07009G13KT 29/24 A2978      RMK A02 SLP085 T02900236 PA131 DA2159=
0134008415999992015111304534+07300+134200FM-15+000099999V0200601N003119999999N999999999+02911+02391100781ADDMA1100781999999REMMET107MOBOB2 METAR XM21 //000 073342 130453Z AUTO 06006KT 29/24 A2976 RMK      A02 SLP078 T02910239 PA149 DA2199=
0134008415999992015111305534+07300+134200FM-15+000099999V0200701N002119999999N999999999+02951+02411100781ADDMA1100781999999REMMET107MOBOB2 METAR XM21 //000 073342 130553Z AUTO 07004KT 30/24 A2976 RMK      A02 SLP078 T02950241 PA149 DA2248=
0134008415999992015111306534+07300+134200FM-15+000099999V0200801N004619999999N999999999+02951+02371100751ADDMA1100741999999REMMET107MOBOB2 METAR XM21 //000 073342 130653Z AUTO 08009KT 30/24 A2975 RMK      A02 SLP075 T02950237 PA159 DA2251=
0161008415999992015111307534+07300+134200FM-15+000099999V0200601N003619999999N999999999+02801+02401100821ADDAA101000021AW1611MA1100811999999REMMET117MOBOB2 METAR XM21 //000 073342 130753Z AUTO 06007KT -RA 28/24 A2977      RMK A02 SLP082 P0000 T02800240 PA140 DA2066=
0172008415999992015111308534+07300+134200FM-15+000099999V0200701N005119999999N999999999+02741+02301100891ADDAA101000021AW1611MA1100881999999OC100721REMMET120MOBOB2 METAR XM21 //000 073342 130853Z AUTO 07010G14KT -RA 27/23 A2979      RMK A02 SLP089 P0000 T02740230 PA122 DA1956=
0134008415999992015111309534+07300+134200FM-15+000099999V0200601N002119999999N999999999+02731+02411100921ADDMA1100911999999REMMET107MOBOB2 METAR XM21 //000 073342 130953Z AUTO 06004KT 27/24 A2980 RMK      A02 SLP092 T02730241 PA112 DA1956=
0134008415999992015111310534+07300+134200FM-15+000099999V0201101N002619999999N999999999+02781+02471101021ADDMA1101021999999REMMET107MOBOB2 METAR XM21 //000 073342 131053Z AUTO 11005KT 28/25 A2983 RMK      A02 SLP102 T02780247 PA084 DA1991=
0134008415999992015111311534+07300+134200FM-15+000099999V0200901N002619999999N999999999+02791+02531101021ADDMA1101021999999REMMET107MOBOB2 METAR XM21 //000 073342 131153Z AUTO 09005KT 28/25 A2983 RMK      A02 SLP102 T02790253 PA084 DA2018=
0172008415999992015111312534+07300+134200FM-15+000099999V0200701N007219999999N999999999+02741+02501101061ADDAA101000021AW1611MA1101051999999OC101031REMMET120MOBOB2 METAR XM21 //000 073342 131253Z AUTO 07014G20KT -RA 27/25 A2984      RMK A02 SLP106 P0000 T02740250 PA075 DA1942=
0145008415999992015111313534+07300+134200FM-15+000099999V0200701N005719999999N999999999+02761+02421101061ADDMA1101051999999OC100671REMMET110MOBOB2 METAR XM21 //000 073342 131353Z AUTO 07011G13KT 28/24 A2984      RMK A02 SLP106 T02760242 PA075 DA1948=
0134008415999992015111314534+07300+134200FM-15+000099999V0200701N004119999999N999999999+02811+02471101021ADDMA1101021999999REMMET107MOBOB2 METAR XM21 //000 073342 131453Z AUTO 07008KT 28/25 A2983 RMK      A02 SLP102 T02810247 PA084 DA2025=
0172008415999992015111315534+07300+134200FM-15+000099999V0200601N006719999999N999999999+02781+02411100951ADDAA101000021AW1611MA1100951999999OC100881REMMET120MOBOB2 METAR XM21 //000 073342 131553Z AUTO 06013G17KT -RA 28/24 A2981      RMK A02 SLP095 P0000 T02780241 PA103 DA2001=
0145008415999992015111316534+07300+134200FM-15+000099999V0200601N005119999999N999999999+02801+02441100951ADDMA1100951999999OC100671REMMET110MOBOB2 METAR XM21 //000 073342 131653Z AUTO 06010G13KT 28/24 A2981      RMK A02 SLP095 T02800244 PA103 DA2030=
0172008415999992015111317534+07300+134200FM-15+000099999V0201101N005119999999N999999999+02631+02221100891ADDAA101000021AW1611MA1100881999999OC100671REMMET120MOBOB2 METAR XM21 //000 073342 131753Z AUTO 11010G13KT -RA 26/22 A2979      RMK A02 SLP089 P0000 T02630222 PA122 DA1814=
0172008415999992015111318534+07300+134200FM-15+000099999V0200801N005119999999N999999999+02701+02351100851ADDAA101000231AW1611MA1100851999999OC100621REMMET120MOBOB2 METAR XM21 //000 073342 131853Z AUTO 08010G12KT -RA 27/24 A2978      RMK A02 SLP085 P0001 T02700235 PA131 DA1933=
0134008415999992015111319534+07300+134200FM-15+000099999V0200901N004119999999N999999999+02751+02371100891ADDMA1100881999999REMMET107MOBOB2 METAR XM21 //000 073342 131953Z AUTO 09008KT 28/24 A2979 RMK      A02 SLP089 T02750237 PA122 DA1980=
0134008415999992015111320534+07300+134200FM-15+000099999V0200701N003619999999N999999999+02781+02441100951ADDMA1100951999999REMMET107MOBOB2 METAR XM21 //000 073342 132053Z AUTO 07007KT 28/24 A2981 RMK      A02 SLP095 T02780244 PA103 DA2007=
0134008415999992015111321534+07300+134200FM-15+000099999V0200801N003119999999N999999999+02801+02471101061ADDMA1101051999999REMMET107MOBOB2 METAR XM21 //000 073342 132153Z AUTO 08006KT 28/25 A2984 RMK      A02 SLP106 T02800247 PA075 DA2002=
0134008415999992015111322534+07300+134200FM-15+000099999V0200701N003619999999N999999999+02861+02381101091ADDMA1101081999999REMMET107MOBOB2 METAR XM21 //000 073342 132253Z AUTO 07007KT 29/24 A2985 RMK      A02 SLP109 T02860238 PA066 DA2038=
0134008415999992015111323534+07300+134200FM-15+000099999V0200501N004119999999N999999999+02851+02411101121ADDMA1101121999999REMMET107MOBOB2 METAR XM21 //000 073342 132353Z AUTO 05008KT 29/24 A2986 RMK      A02 SLP112 T02850241 PA057 DA2022=
0134008415999992015111400534+07300+134200FM-15+000099999V0200601N004119999999N999999999+02901+02431101061ADDMA1101051999999REMMET107MOBOB2 METAR XM21 //000 073342 140053Z AUTO 06008KT 29/24 A2984 RMK      A02 SLP106 T02900243 PA075 DA2105=
0134008415999992015111401534+07300+134200FM-15+000099999V0200601N004119999999N999999999+02871+02421100951ADDMA1100951999999REMMET107MOBOB2 METAR XM21 //000 073342 140153Z AUTO 06008KT 29/24 A2981 RMK      A02 SLP095 T02870242 PA103 DA2103=
0145008415999992015111402534+07300+134200FM-15+000099999V0200701N005719999999N999999999+02951+02331100891ADDMA1100881999999OC100721REMMET110MOBOB2 METAR XM21 //000 073342 140253Z AUTO 07011G14KT 30/23 A2979      RMK A02 SLP089 T02950233 PA122 DA2195=
0145008415999992015111403534+07300+134200FM-15+000099999V0200301N005719999999N999999999+02941+02371100781ADDMA1100781999999OC100671REMMET110MOBOB2 METAR XM21 //000 073342 140353Z AUTO 03011G13KT 29/24 A2976      RMK A02 SLP078 T02940237 PA149 DA2227=
0145008415999992015111404534+07300+134200FM-15+000099999V0200201N006219999999N999999999+02921+02431100681ADDMA1100681999999OC100721REMMET110MOBOB2 METAR XM21 //000 073342 140453Z AUTO 02012G14KT 29/24 A2973      RMK A02 SLP068 T02920243 PA177 DA2255=
0145008415999992015111405534+07300+134200FM-15+000099999V0200201N006719999999N999999999+02891+02441100681ADDMA1100681999999OC100821REMMET110MOBOB2 METAR XM21 //000 073342 140553Z AUTO 02013G16KT 29/24 A2973      RMK A02 SLP068 T02890244 PA177 DA2222=
0145008415999992015111406534+07300+134200FM-15+000099999V0200201N006719999999N999999999+02881+02471100721ADDMA1100711999999OC100771REMMET110MOBOB2 METAR XM21 //000 073342 140653Z AUTO 02013G15KT 29/25 A2974      RMK A02 SLP072 T02880247 PA168 DA2206=
0145008415999992015111407534+07300+134200FM-15+000099999V0200301N005719999999N999999999+02871+02481100781ADDMA1100781999999OC100671REMMET110MOBOB2 METAR XM21 //000 073342 140753Z AUTO 03011G13KT 29/25 A2976      RMK A02 SLP078 T02870248 PA149 DA2176=
0145008415999992015111408534+07300+134200FM-15+000099999V0200401N006219999999N999999999+02871+02481100821ADDMA1100811999999OC100771REMMET110MOBOB2 METAR XM21 //000 073342 140853Z AUTO 04012G15KT 29/25 A2977      RMK A02 SLP082 T02870248 PA140 DA2164=
0145008415999992015111409534+07300+134200FM-15+000099999V0200601N006219999999N999999999+02871+02381100851ADDMA1100851999999OC100721REMMET110MOBOB2 METAR XM21 //000 073342 140953Z AUTO 06012G14KT 29/24 A2978      RMK A02 SLP085 T02870238 PA131 DA2130=
0145008415999992015111410534+07300+134200FM-15+000099999V0200401N005719999999N999999999+02861+02391100921ADDMA1100911999999OC100721REMMET110MOBOB2 METAR XM21 //000 073342 141053Z AUTO 04011G14KT 29/24 A2980      RMK A02 SLP092 T02860239 PA112 DA2097=
0145008415999992015111411534+07300+134200FM-15+000099999V0200501N005719999999N999999999+02861+02411100991ADDMA1100981999999OC100621REMMET110MOBOB2 METAR XM21 //000 073342 141153Z AUTO 05011G12KT 29/24 A2982      RMK A02 SLP099 T02860241 PA094 DA2079=
0145008415999992015111412534+07300+134200FM-15+000099999V0200501N005719999999N999999999+02851+02411100991ADDMA1100981999999OC100671REMMET110MOBOB2 METAR XM21 //000 073342 141253Z AUTO 05011G13KT 29/24 A2982      RMK A02 SLP099 T02850241 PA094 DA2069=
0145008415999992015111413534+07300+134200FM-15+000099999V0200501N005119999999N999999999+02841+02441100991ADDMA1100981999999OC100621REMMET110MOBOB2 METAR XM21 //000 073342 141353Z AUTO 05010G12KT 28/24 A2982      RMK A02 SLP099 T02840244 PA094 DA2063=
0134008415999992015111414534+07300+134200FM-15+000099999V0200501N004619999999N999999999+02841+02451100951ADDMA1100951999999REMMET107MOBOB2 METAR XM21 //000 073342 141453Z AUTO 05009KT 28/24 A2981 RMK      A02 SLP095 T02840245 PA103 DA2077=
0134008415999992015111415534+07300+134200FM-15+000099999V0200501N005119999999N999999999+02831+02431100921ADDMA1100911999999REMMET107MOBOB2 METAR XM21 //000 073342 141553Z AUTO 05010KT 28/24 A2980 RMK      A02 SLP092 T02830243 PA112 DA2074=
0134008415999992015111416534+07300+134200FM-15+000099999V0200401N004619999999N999999999+02821+02421100851ADDMA1100851999999REMMET107MOBOB2 METAR XM21 //000 073342 141653Z AUTO 04009KT 28/24 A2978 RMK      A02 SLP085 T02820242 PA131 DA2082=
0145008415999992015111417534+07300+134200FM-15+000099999V0200401N005119999999N999999999+02821+02441100781ADDMA1100781999999OC100621REMMET110MOBOB2 METAR XM21 //000 073342 141753Z AUTO 04010G12KT 28/24 A2976      RMK A02 SLP078 T02820244 PA149 DA2109=
0134008415999992015111418534+07300+134200FM-15+000099999V0200501N004619999999N999999999+02821+02461100781ADDMA1100781999999REMMET107MOBOB2 METAR XM21 //000 073342 141853Z AUTO 05009KT 28/25 A2976 RMK      A02 SLP078 T02820246 PA149 DA2114=
0145008415999992015111419534+07300+134200FM-15+000099999V0200501N005719999999N999999999+02821+02471100821ADDMA1100811999999OC100671REMMET110MOBOB2 METAR XM21 //000 073342 141953Z AUTO 05011G13KT 28/25 A2977      RMK A02 SLP082 T02820247 PA140 DA2106=
0145008415999992015111420534+07300+134200FM-15+000099999V0200501N005119999999N999999999+02811+02431100851ADDMA1100851999999OC100671REMMET110MOBOB2 METAR XM21 //000 073342 142053Z AUTO 05010G13KT 28/24 A2978      RMK A02 SLP085 T02810243 PA131 DA2074=
0134008415999992015111421534+07300+134200FM-15+000099999V0200501N004119999999N999999999+02791+02421100921ADDMA1100911999999REMMET107MOBOB2 METAR XM21 //000 073342 142153Z AUTO 05008KT 28/24 A2980 RMK      A02 SLP092 T02790242 PA112 DA2027=
0145008415999992015111422534+07300+134200FM-15+000099999V0200601N005119999999N999999999+02851+02411101021ADDMA1101021999999OC100671REMMET110MOBOB2 METAR XM21 //000 073342 142253Z AUTO 06010G13KT 29/24 A2983      RMK A02 SLP102 T02850241 PA084 DA2056=
0161008415999992015111423534+07300+134200FM-15+000099999V0200701N003119999999N999999999+02821+02351101061ADDAA101000021AW1611MA1101051999999REMMET117MOBOB2 METAR XM21 //000 073342 142353Z AUTO 07006KT -RA 28/24 A2984      RMK A02 SLP106 P0000 T02820235 PA075 DA1999=
0134008415999992015111500534+07300+134200FM-15+000099999V0200501N003119999999N999999999+02871+02421101061ADDMA1101051999999REMMET107MOBOB2 METAR XM21 //000 073342 150053Z AUTO 05006KT 29/24 A2984 RMK      A02 SLP106 T02870242 PA075 DA2070=
0172008415999992015111501534+07300+134200FM-15+000099999V0200201N005119999999N999999999+02681+02371101021ADDAA101003031AW1611MA1101021999999OC101241REMMET120MOBOB2 METAR XM21 //000 073342 150153Z AUTO 02010G24KT -RA 27/24 A2983      RMK A02 SLP102 P0012 T02680237 PA084 DA1857=
0172008415999992015111502534+07300+134200FM-15+000099999V0200701N005719999999N999999999+02761+02361100991ADDAA101000021AW1611MA1100981999999OC100721REMMET120MOBOB2 METAR XM21 //000 073342 150253Z AUTO 07011G14KT -RA 28/24 A2982      RMK A02 SLP099 P0000 T02760236 PA094 DA1957=
0134008415999992015111503534+07300+134200FM-15+000099999V0203001N003619999999N999999999+02781+02381100891ADDMA1100881999999REMMET107MOBOB2 METAR XM21 //000 073342 150353Z AUTO 30007KT 28/24 A2979 RMK      A02 SLP089 T02780238 PA122 DA2017=
0134008415999992015111504534+07300+134200FM-15+000099999V0203401N003119999999N999999999+02771+02401100781ADDMA1100781999999REMMET107MOBOB2 METAR XM21 //000 073342 150453Z AUTO 34006KT 28/24 A2976 RMK      A02 SLP078 T02770240 PA149 DA2045=
0134008415999992015111505534+07300+134200FM-15+000099999V0203401N002619999999N999999999+02851+02421100781ADDMA1100781999999REMMET107MOBOB2 METAR XM21 //000 073342 150553Z AUTO 34005KT 29/24 A2976 RMK      A02 SLP078 T02850242 PA149 DA2140=
0134008415999992015111506534+07300+134200FM-15+000099999V0203501N004619999999N999999999+02781+02401100751ADDMA1100741999999REMMET107MOBOB2 METAR XM21 //000 073342 150653Z AUTO 35009KT 28/24 A2975 RMK      A02 SLP075 T02780240 PA159 DA2068=
0134008415999992015111507534+07300+134200FM-15+000099999V0200101N003619999999N999999999+02821+02401100781ADDMA1100781999999REMMET107MOBOB2 METAR XM21 //000 073342 150753Z AUTO 01007KT 28/24 A2976 RMK      A02 SLP078 T02820240 PA149 DA2102=
0145008415999992015111508534+07300+134200FM-15+000099999V0200601N005719999999N999999999+02891+02291100821ADDMA1100811999999OC100671REMMET110MOBOB2 METAR XM21 //000 073342 150853Z AUTO 06011G13KT 29/23 A2977      RMK A02 SLP082 T02890229 PA140 DA2142=
0145008415999992015111509534+07300+134200FM-15+000099999V0200501N005719999999N999999999+02871+02421100891ADDMA1100881999999OC100671REMMET110MOBOB2 METAR XM21 //000 073342 150953Z AUTO 05011G13KT 29/24 A2979      RMK A02 SLP089 T02870242 PA122 DA2126=
0145008415999992015111510534+07300+134200FM-15+000099999V0200401N007219999999N999999999+02851+02391100921ADDMA1100911999999OC100881REMMET110MOBOB2 METAR XM21 //000 073342 151053Z AUTO 04014G17KT 29/24 A2980      RMK A02 SLP092 T02850239 PA112 DA2087=
0145008415999992015111511534+07300+134200FM-15+000099999V0200401N007719999999N999999999+02841+02431100951ADDMA1100951999999OC100931REMMET110MOBOB2 METAR XM21 //000 073342 151153Z AUTO 04015G18KT 28/24 A2981      RMK A02 SLP095 T02840243 PA103 DA2073=
0145008415999992015111512534+07300+134200FM-15+000099999V0200501N006719999999N999999999+02831+02431100951ADDMA1100951999999OC100821REMMET110MOBOB2 METAR XM21 //000 073342 151253Z AUTO 05013G16KT 28/24 A2981      RMK A02 SLP095 T02830243 PA103 DA2061=
0145008415999992015111513534+07300+134200FM-15+000099999V0200501N006219999999N999999999+02811+02471100951ADDMA1100951999999OC100821REMMET110MOBOB2 METAR XM21 //000 073342 151353Z AUTO 05012G16KT 28/25 A2981      RMK A02 SLP095 T02810247 PA103 DA2049=
0145008415999992015111514534+07300+134200FM-15+000099999V0200601N005719999999N999999999+02811+02451100951ADDMA1100951999999OC100721REMMET110MOBOB2 METAR XM21 //000 073342 151453Z AUTO 06011G14KT 28/25 A2981      RMK A02 SLP095 T02810245 PA103 DA2045=
0145008415999992015111515534+07300+134200FM-15+000099999V0200701N005119999999N999999999+02811+02401100891ADDMA1100881999999OC100771REMMET110MOBOB2 METAR XM21 //000 073342 151553Z AUTO 07010G15KT 28/24 A2979      RMK A02 SLP089 T02810240 PA122 DA2055=
0145008415999992015111516534+07300+134200FM-15+000099999V0200601N006719999999N999999999+02821+02431100821ADDMA1100811999999OC100931REMMET110MOBOB2 METAR XM21 //000 073342 151653Z AUTO 06013G18KT 28/24 A2977      RMK A02 SLP082 T02820243 PA140 DA2097=
0145008415999992015111517534+07300+134200FM-15+000099999V0200601N007219999999N999999999+02821+02441100781ADDMA1100781999999OC100931REMMET110MOBOB2 METAR XM21 //000 073342 151753Z AUTO 06014G18KT 28/24 A2976      RMK A02 SLP078 T02820244 PA149 DA2109=
0145008415999992015111518534+07300+134200FM-15+000099999V0200601N006219999999N999999999+02801+02371100751ADDMA1100741999999OC100721REMMET110MOBOB2 METAR XM21 //000 073342 151853Z AUTO 06012G14KT 28/24 A2975      RMK A02 SLP075 T02800237 PA159 DA2083=
0145008415999992015111519534+07300+134200FM-15+000099999V0200501N005719999999N999999999+02791+02441100781ADDMA1100781999999OC100821REMMET110MOBOB2 METAR XM21 //000 073342 151953Z AUTO 05011G16KT 28/24 A2976      RMK A02 SLP078 T02790244 PA149 DA2077=
0172008415999992015111520534+07300+134200FM-15+000099999V0200801N005119999999N999999999+02711+02461100851ADDAA101002531AW1611MA1100851999999OC100671REMMET120MOBOB2 METAR XM21 //000 073342 152053Z AUTO 08010G13KT -RA 27/25 A2978      RMK A02 SLP085 P0010 T02710246 PA131 DA1969=
0145008415999992015111521534+07300+134200FM-15+000099999V0200801N006219999999N999999999+02831+02461100951ADDMA1100951999999OC100771REMMET110MOBOB2 METAR XM21 //000 073342 152153Z AUTO 08012G15KT 28/25 A2981      RMK A02 SLP095 T02830246 PA103 DA2068=
0145008415999992015111522534+07300+134200FM-15+000099999V0200601N006219999999N999999999+02851+02361100991ADDMA1100981999999OC100771REMMET110MOBOB2 METAR XM21 //000 073342 152253Z AUTO 06012G15KT 29/24 A2982      RMK A02 SLP099 T02850236 PA094 DA2056=
0172008415999992015111523534+07300+134200FM-15+000099999V0201001N005119999999N999999999+02711+02421101021ADDAA101001031AW1611MA1101021999999OC100671REMMET120MOBOB2 METAR XM21 //000 073342 152353Z AUTO 10010G13KT -RA 27/24 A2983      RMK A02 SLP102 P0004 T02710242 PA084 DA1903=
0172008415999992015111600534+07300+134200FM-15+000099999V0200701N007219999999N999999999+02761+02421101021ADDAA101000021AW1611MA1101021999999OC100881REMMET120MOBOB2 METAR XM21 //000 073342 160053Z AUTO 07014G17KT -RA 28/24 A2983      RMK A02 SLP102 P0000 T02760242 PA084 DA1958=
0172008415999992015111601534+07300+134200FM-15+000099999V0200801N006719999999N999999999+02791+02341100921ADDAA101000021AW1611MA1100911999999OC100881REMMET120MOBOB2 METAR XM21 //000 073342 160153Z AUTO 08013G17KT -RA 28/23 A2980      RMK A02 SLP092 P0000 T02790234 PA112 DA2009=
0172008415999992015111602534+07300+134200FM-15+000099999V0200901N008219999999N999999999+02751+02331100851ADDAA101000021AW1611MA1100851999999OC100981REMMET120MOBOB2 METAR XM21 //000 073342 160253Z AUTO 09016G19KT -RA 28/23 A2978      RMK A02 SLP085 P0000 T02750233 PA131 DA1985=
0145008415999992015111603534+07300+134200FM-15+000099999V0200701N005119999999N999999999+02761+02381100821ADDMA1100811999999OC100671REMMET110MOBOB2 METAR XM21 //000 073342 160353Z AUTO 07010G13KT 28/24 A2977      RMK A02 SLP082 T02760238 PA140 DA2018=
0145008415999992015111604534+07300+134200FM-15+000099999V0200901N005719999999N999999999+02751+02411100781ADDMA1100781999999OC100821REMMET110MOBOB2 METAR XM21 //000 073342 160453Z AUTO 09011G16KT 28/24 A2976      RMK A02 SLP078 T02750241 PA149 DA2026=
0161008415999992015111605534+07300+134200FM-15+000099999V0200901N004119999999N999999999+02731+02441100721ADDAA101000021AW1611MA1100711999999REMMET117MOBOB2 METAR XM21 //000 073342 160553Z AUTO 09008KT -RA 27/24 A2974      RMK A02 SLP072 P0000 T02730244 PA168 DA2031=
0134008415999992015111606534+07300+134200FM-15+000099999V0200601N003119999999N999999999+02781+02441100721ADDMA1100711999999REMMET107MOBOB2 METAR XM21 //000 073342 160653Z AUTO 06006KT 28/24 A2974 RMK      A02 SLP072 T02780244 PA168 DA2089=
0145008415999992015111607534+07300+134200FM-15+000099999V0200701N005719999999N999999999+02831+02461100751ADDMA1100741999999OC100771REMMET110MOBOB2 METAR XM21 //000 073342 160753Z AUTO 07011G15KT 28/25 A2975      RMK A02 SLP075 T02830246 PA159 DA2137=
0145008415999992015111608534+07300+134200FM-15+000099999V0200701N005719999999N999999999+02851+02441100781ADDMA1100781999999OC100771REMMET110MOBOB2 METAR XM21 //000 073342 160853Z AUTO 07011G15KT 29/24 A2976      RMK A02 SLP078 T02850244 PA149 DA2144=
0172008415999992015111609534+07300+134200FM-15+000099999V0200701N006719999999N999999999+02801+02451100821ADDAA101000231AW1611MA1100811999999OC100881REMMET120MOBOB2 METAR XM21 //000 073342 160953Z AUTO 07013G17KT -RA 28/25 A2977      RMK A02 SLP082 P0001 T02800245 PA140 DA2079=
0145008415999992015111610534+07300+134200FM-15+000099999V0200801N006719999999N999999999+02881+02461100851ADDMA1100851999999OC100821REMMET110MOBOB2 METAR XM21 //000 073342 161053Z AUTO 08013G16KT 29/25 A2978      RMK A02 SLP085 T02880246 PA131 DA2159=
0161008415999992015111611534+07300+134200FM-15+000099999V0200601N004619999999N999999999+02741+02451100921ADDAA101001031AW1611MA1100911999999REMMET117MOBOB2 METAR XM21 //000 073342 161153Z AUTO 06009KT -RA 27/24 A2980      RMK A02 SLP092 P0004 T02740245 PA112 DA1976=
0172008415999992015111612534+07300+134200FM-15+000099999V0200601N005119999999N999999999+02701+02411100951ADDAA101000021AW1611MA1100951999999OC100721REMMET120MOBOB2 METAR XM21 //000 073342 161253Z AUTO 06010G14KT -RA 27/24 A2981      RMK A02 SLP095 P0000 T02700241 PA103 DA1911=
0172008415999992015111613534+07300+134200FM-15+000099999V0200901N007219999999N999999999+02621+02421100951ADDAA101004331AW1631MA1100951999999OC101291REMMET120MOBOB2 METAR XM21 //000 073342 161353Z AUTO 09014G25KT +RA 26/24 A2981      RMK A02 SLP095 P0017 T02620242 PA103 DA1823=
0167008415999992015111614534+07300+134200FM-15+000099999V0200701N004619999999N999999999+02741+02411100891ADDAA101002031AW1611MA1100881999999OC100671REMMET115MOBOB2 METAR XM21 //000 073342 161453Z AUTO 07009G13KT -RA 27/24 A2979 RMK A02 SLP089 P0008 T02740241 PA122 DA1980=
0140008415999992015111615534+07300+134200FM-15+000099999V0200801N007719999999N999999999+02741+02381100891ADDMA1100881999999OC101131REMMET105MOBOB2 METAR XM21 //000 073342 161553Z AUTO 08015G22KT 27/24 A2979 RMK A02 SLP089 T02740238 PA122 DA1972=
0167008415999992015111616534+07300+134200FM-15+000099999V0200701N005719999999N999999999+02761+02461100781ADDAA101000021AW1611MA1100781999999OC100771REMMET115MOBOB2 METAR XM21 //000 073342 161653Z AUTO 07011G15KT -RA 28/25 A2976 RMK A02 SLP078 P0000 T02760246 PA149 DA2048=
0140008415999992015111617534+07300+134200FM-15+000099999V0200701N006719999999N999999999+02801+02401100721ADDMA1100711999999OC100881REMMET105MOBOB2 METAR XM21 //000 073342 161753Z AUTO 07013G17KT 28/24 A2974 RMK A02 SLP072 T02800240 PA168 DA2102=
0140008415999992015111618534+07300+134200FM-15+000099999V0200701N006219999999N999999999+02821+02451100751ADDMA1100741999999OC100881REMMET105MOBOB2 METAR XM21 //000 073342 161853Z AUTO 07012G17KT 28/24 A2975 RMK A02 SLP075 T02820245 PA159 DA2123=
0140008415999992015111619534+07300+134200FM-15+000099999V0200601N005719999999N999999999+02821+02421100781ADDMA1100781999999OC100881REMMET105MOBOB2 METAR XM21 //000 073342 161953Z AUTO 06011G17KT 28/24 A2976 RMK A02 SLP078 T02820242 PA149 DA2106=
0140008415999992015111620534+07300+134200FM-15+000099999V0200701N006219999999N999999999+02821+02401100781ADDMA1100781999999OC100931REMMET105MOBOB2 METAR XM21 //000 073342 162053Z AUTO 07012G18KT 28/24 A2976 RMK A02 SLP078 T02820240 PA149 DA2100=
0140008415999992015111621534+07300+134200FM-15+000099999V0200601N005119999999N999999999+02871+02391100921ADDMA1100911999999OC100771REMMET105MOBOB2 METAR XM21 //000 073342 162153Z AUTO 06010G15KT 29/24 A2980 RMK A02 SLP092 T02870239 PA112 DA2109=
0140008415999992015111622534+07300+134200FM-15+000099999V0200601N005719999999N999999999+02871+02431100991ADDMA1100981999999OC100721REMMET105MOBOB2 METAR XM21 //000 073342 162253Z AUTO 06011G14KT 29/24 A2982 RMK A02 SLP099 T02870243 PA094 DA2096=
0140008415999992015111623534+07300+134200FM-15+000099999V0200601N006719999999N999999999+02901+02431100951ADDMA1100951999999OC100821REMMET105MOBOB2 METAR XM21 //000 073342 162353Z AUTO 06013G16KT 29/24 A2981 RMK A02 SLP095 T02900243 PA103 DA2141=
0140008415999992015111700534+07300+134200FM-15+000099999V0200801N006219999999N999999999+02951+02371100991ADDMA1100981999999OC100821REMMET105MOBOB2 METAR XM21 //000 073342 170053Z AUTO 08012G16KT 30/24 A2982 RMK A02 SLP099 T02950237 PA094 DA2170=
0140008415999992015111701534+07300+134200FM-15+000099999V0200701N006219999999N999999999+02971+02351100991ADDMA1100981999999OC100771REMMET105MOBOB2 METAR XM21 //000 073342 170153Z AUTO 07012G15KT 30/24 A2982 RMK A02 SLP099 T02970235 PA094 DA2189=
0140008415999992015111702534+07300+134200FM-15+000099999V0200601N005119999999N999999999+02971+02401100921ADDMA1100911999999OC100721REMMET105MOBOB2 METAR XM21 //000 073342 170253Z AUTO 06010G14KT 30/24 A2980 RMK A02 SLP092 T02970240 PA112 DA2222=
0129008415999992015111703534+07300+134200FM-15+000099999V0200701N004119999999N999999999+02991+02321100851ADDMA1100851999999REMMET102MOBOB2 METAR XM21 //000 073342 170353Z AUTO 07008KT 30/23 A2978 RMK A02 SLP085 T02990232 PA131 DA2250=
0167008415999992015111704534+07300+134200FM-15+000099999V0200601N005719999999N999999999+02961+02421100751ADDAA101000021AW1611MA1100741999999OC100671REMMET115MOBOB2 METAR XM21 //000 073342 170453Z AUTO 06011G13KT -RA 30/24 A2975 RMK A02 SLP075 P0000 T02960242 PA159 DA2272=
0140008415999992015111705534+07300+134200FM-15+000099999V0200201N006219999999N999999999+02881+02511100721ADDMA1100711999999OC100671REMMET105MOBOB2 METAR XM21 //000 073342 170553Z AUTO 02012G13KT 29/25 A2974 RMK A02 SLP072 T02880251 PA168 DA2217=
0140008415999992015111706534+07300+134200FM-15+000099999V0200601N006719999999N999999999+02951+02431100751ADDMA1100741999999OC100881REMMET105MOBOB2 METAR XM21 //000 073342 170653Z AUTO 06013G17KT 30/24 A2975 RMK A02 SLP075 T02950243 PA159 DA2265=
0167008415999992015111707534+07300+134200FM-15+000099999V0200601N006719999999N999999999+02931+02421100781ADDAA101000021AW1611MA1100781999999OC100931REMMET115MOBOB2 METAR XM21 //000 073342 170753Z AUTO 06013G18KT -RA 29/24 A2976 RMK A02 SLP078 P0000 T02930242 PA149 DA2229=
0140008415999992015111708534+07300+134200FM-15+000099999V0200501N008219999999N999999999+02891+02481100821ADDMA1100811999999OC100931REMMET105MOBOB2 METAR XM21 //000 073342 170853Z AUTO 05016G18KT 29/25 A2977 RMK A02 SLP082 T02890248 PA140 DA2187=
0140008415999992015111709534+07300+134200FM-15+000099999V0200601N007219999999N999999999+02851+02471100921ADDMA1100911999999OC100881REMMET105MOBOB2 METAR XM21 //000 073342 170953Z AUTO 06014G17KT 29/25 A2980 RMK A02 SLP092 T02850247 PA112 DA2106=
0140008415999992015111710534+07300+134200FM-15+000099999V0200501N006219999999N999999999+02851+02511100951ADDMA1100951999999OC100771REMMET105MOBOB2 METAR XM21 //000 073342 171053Z AUTO 05012G15KT 29/25 A2981 RMK A02 SLP095 T02850251 PA103 DA2102=
0129008415999992015111711534+07300+134200FM-15+000099999V0200701N004619999999N999999999+02821+02441101021ADDMA1101021999999REMMET102MOBOB2 METAR XM21 //000 073342 171153Z AUTO 07009KT 28/24 A2983 RMK A02 SLP102 T02820244 PA084 DA2029=
0140008415999992015111712534+07300+134200FM-15+000099999V0200601N006219999999N999999999+02841+02481101021ADDMA1101021999999OC100821REMMET105MOBOB2 METAR XM21 //000 073342 171253Z AUTO 06012G16KT 28/25 A2983 RMK A02 SLP102 T02840248 PA084 DA2061=
0140008415999992015111713534+07300+134200FM-15+000099999V0200601N005719999999N999999999+02841+02441100991ADDMA1100981999999OC100721REMMET105MOBOB2 METAR XM21 //000 073342 171353Z AUTO 06011G14KT 28/24 A2982 RMK A02 SLP099 T02840244 PA094 DA2065=
0129008415999992015111714534+07300+134200FM-15+000099999V0200601N004619999999N999999999+02841+02481100991ADDMA1100981999999REMMET102MOBOB2 METAR XM21 //000 073342 171453Z AUTO 06009KT 28/25 A2982 RMK A02 SLP099 T02840248 PA094 DA2073=
0140008415999992015111715534+07300+134200FM-15+000099999V0200601N005719999999N999999999+02841+02451100951ADDMA1100951999999OC100771REMMET105MOBOB2 METAR XM21 //000 073342 171553Z AUTO 06011G15KT 28/25 A2981 RMK A02 SLP095 T02840245 PA103 DA2078=
0140008415999992015111716534+07300+134200FM-15+000099999V0200701N008819999999N999999999+02811+02401100921ADDMA1100911999999OC101181REMMET105MOBOB2 METAR XM21 //000 073342 171653Z AUTO 07017G23KT 28/24 A2980 RMK A02 SLP092 T02810240 PA112 DA2043=
0129008415999992015111717534+07300+134200FM-15+000099999V0200601N003619999999N999999999+02761+02421100821ADDMA1100811999999REMMET102MOBOB2 METAR XM21 //000 073342 171753Z AUTO 06007KT 28/24 A2977 RMK A02 SLP082 T02760242 PA140 DA2027=
0140008415999992015111718534+07300+134200FM-15+000099999V0200501N005719999999N999999999+02781+02441100781ADDMA1100781999999OC100671REMMET105MOBOB2 METAR XM21 //000 073342 171853Z AUTO 05011G13KT 28/24 A2976 RMK A02 SLP078 T02780244 PA149 DA2066=
0140008415999992015111719534+07300+134200FM-15+000099999V0200601N007719999999N999999999+02821+02461100821ADDMA1100811999999OC100931REMMET105MOBOB2 METAR XM21 //000 073342 171953Z AUTO 06015G18KT 28/25 A2977 RMK A02 SLP082 T02820246 PA140 DA2102=
0140008415999992015111720534+07300+134200FM-15+000099999V0200601N006219999999N999999999+02801+02471100851ADDMA1100851999999OC100881REMMET105MOBOB2 METAR XM21 //000 073342 172053Z AUTO 06012G17KT 28/25 A2978 RMK A02 SLP085 T02800247 PA131 DA2071=
0140008415999992015111721534+07300+134200FM-15+000099999V0200601N006719999999N999999999+02811+02471100921ADDMA1100911999999OC100931REMMET105MOBOB2 METAR XM21 //000 073342 172153Z AUTO 06013G18KT 28/25 A2980 RMK A02 SLP092 T02810247 PA112 DA2059=
0140008415999992015111722534+07300+134200FM-15+000099999V0200601N005719999999N999999999+02861+02421100991ADDMA1100981999999OC100721REMMET105MOBOB2 METAR XM21 //000 073342 172253Z AUTO 06011G14KT 29/24 A2982 RMK A02 SLP099 T02860242 PA094 DA2082=
0140008415999992015111723534+07300+134200FM-15+000099999V0200601N006219999999N999999999+02881+02481101061ADDMA1101051999999OC100771REMMET105MOBOB2 METAR XM21 //000 073342 172353Z AUTO 06012G15KT 29/25 A2984 RMK A02 SLP106 T02880248 PA075 DA2095=
0140008415999992015111800534+07300+134200FM-15+000099999V0200701N005119999999N999999999+02921+02391100991ADDMA1100981999999OC100721REMMET105MOBOB2 METAR XM21 //000 073342 180053Z AUTO 07010G14KT 29/24 A2982 RMK A02 SLP099 T02920239 PA094 DA2140=
0167008415999992015111801534+07300+134200FM-15+000099999V0200701N009319999999N999999999+02521+02371100991ADDAA101010431AW1631MA1100981999999OC101341REMMET115MOBOB2 METAR XM21 //000 073342 180153Z AUTO 07018G26KT +RA 25/24 A2982 RMK A02 SLP099 P0041 T02520237 PA094 DA1688=
0167008415999992015111802534+07300+134200FM-15+000099999V0201001N005719999999N999999999+02641+02481100951ADDAA101003331AW1631MA1100951999999OC100721REMMET115MOBOB2 METAR XM21 //000 073342 180253Z AUTO 10011G14KT +RA 26/25 A2981 RMK A02 SLP095 P0013 T02640248 PA103 DA1862=
0156008415999992015111803534+07300+134200FM-15+000099999V0200501N003119999999N999999999+02691+02431100891ADDAA101000021AW1611MA1100881999999REMMET112MOBOB2 METAR XM21 //000 073342 180353Z AUTO 05006KT -RA 27/24 A2979 RMK A02 SLP089 P0000 T02690243 PA122 DA1927=
0129008415999992015111804534+07300+134200FM-15+000099999V0200301N003619999999N999999999+02751+02441100781ADDMA1100781999999REMMET102MOBOB2 METAR XM21 //000 073342 180453Z AUTO 03007KT 28/24 A2976 RMK A02 SLP078 T02750244 PA149 DA2032=
0140008415999992015111805534+07300+134200FM-15+000099999V0200701N005719999999N999999999+02711+02411100751ADDMA1100741999999OC100721REMMET105MOBOB2 METAR XM21 //000 073342 180553Z AUTO 07011G14KT 27/24 A2975 RMK A02 SLP075 T02710241 PA159 DA1991=
0167008415999992015111806534+07300+134200FM-15+000099999V0200801N006719999999N999999999+02741+02471100751ADDAA101000021AW1611MA1100741999999OC100821REMMET115MOBOB2 METAR XM21 //000 073342 180653Z AUTO 08013G16KT -RA 27/25 A2975 RMK A02 SLP075 P0000 T02740247 PA159 DA2040=
0167008415999992015111807534+07300+134200FM-15+000099999V0200601N007719999999N999999999+02721+02471100821ADDAA101000021AW1611MA1100811999999OC100981REMMET115MOBOB2 METAR XM21 //000 073342 180753Z AUTO 06015G19KT -RA 27/25 A2977 RMK A02 SLP082 P0000 T02720247 PA140 DA1993=
0167008415999992015111808534+07300+134200FM-15+000099999V0200301N005119999999N999999999+02741+02451100781ADDAA101000531AW1611MA1100781999999OC100621REMMET115MOBOB2 METAR XM21 //000 073342 180853Z AUTO 03010G12KT -RA 27/25 A2976 RMK A02 SLP078 P0002 T02740245 PA149 DA2023=
0140008415999992015111809534+07300+134200FM-15+000099999V0200701N005119999999N999999999+02761+02471100851ADDMA1100851999999OC100821REMMET105MOBOB2 METAR XM21 //000 073342 180953Z AUTO 07010G16KT 28/25 A2978 RMK A02 SLP085 T02760247 PA131 DA2027=
0140008415999992015111810534+07300+134200FM-15+000099999V0200801N006219999999N999999999+02741+02341100921ADDMA1100911999999OC100771REMMET105MOBOB2 METAR XM21 //000 073342 181053Z AUTO 08012G15KT 27/23 A2980 RMK A02 SLP092 T02740234 PA112 DA1953=
0140008415999992015111811534+07300+134200FM-15+000099999V0200701N005119999999N999999999+02771+02421100991ADDMA1100981999999OC100771REMMET105MOBOB2 METAR XM21 //000 073342 181153Z AUTO 07010G15KT 28/24 A2982 RMK A02 SLP099 T02770242 PA094 DA1980=
0129008415999992015111812534+07300+134200FM-15+000099999V0200601N004119999999N999999999+02791+02411100991ADDMA1100981999999REMMET102MOBOB2 METAR XM21 //000 073342 181253Z AUTO 06008KT 28/24 A2982 RMK A02 SLP099 T02790241 PA094 DA2001=
0167008415999992015111813534+07300+134200FM-15+000099999V0200701N008219999999N999999999+02641+02491101021ADDAA101003331AW1631MA1101021999999OC101391REMMET115MOBOB2 METAR XM21 //000 073342 181353Z AUTO 07016G27KT +RA 26/25 A2983 RMK A02 SLP102 P0013 T02640249 PA084 DA1839=
0156008415999992015111814534+07300+134200FM-15+000099999V0200501N002619999999N999999999+02681+02451100951ADDAA101001731AW1611MA1100951999999REMMET112MOBOB2 METAR XM21 //000 073342 181453Z AUTO 05005KT -RA 27/24 A2981 RMK A02 SLP095 P0007 T02680245 PA103 DA1898=
0156008415999992015111815534+07300+134200FM-15+000099999V0200401N002119999999N999999999+02731+02481100891ADDAA101000021AW1611MA1100881999999REMMET112MOBOB2 METAR XM21 //000 073342 181553Z AUTO 04004KT -RA 27/25 A2979 RMK A02 SLP089 P0000 T02730248 PA122 DA1985=
0167008415999992015111816534+07300+134200FM-15+000099999V0200401N008219999999N999999999+02561+02371100851ADDAA101003331AW1611MA1100851999999OC100981REMMET115MOBOB2 METAR XM21 //000 073342 181653Z AUTO 04016G19KT -RA 26/24 A2978 RMK A02 SLP085 P0013 T02560237 PA131 DA1780=
0167008415999992015111817534+07300+134200FM-15+000099999V0200801N006719999999N999999999+02541+02221100821ADDAA101001031AW1611MA1100811999999OC100881REMMET115MOBOB2 METAR XM21 //000 073342 181753Z AUTO 08013G17KT -RA 25/22 A2977 RMK A02 SLP082 P0004 T02540222 PA140 DA1735=
0166008415999992015111818534+07300+134200FM-15+000099999V0200201N005119999999N999999999+02581+02381100821ADDAA101001531AW1621MA1100811999999OC100671REMMET114MOBOB2 METAR XM21 //000 073342 181853Z AUTO 02010G13KT RA 26/24 A2977 RMK A02 SLP082 P0006 T02580238 PA140 DA1816=
0156008415999992015111819534+07300+134200FM-15+000099999V0200101N002619999999N999999999+02651+02471100851ADDAA101002731AW1611MA1100851999999REMMET112MOBOB2 METAR XM21 //000 073342 181953Z AUTO 01005KT -RA 27/25 A2978 RMK A02 SLP085 P0011 T02650247 PA131 DA1904=
0156008415999992015111820534+07300+134200FM-15+000099999V0209999C000019999999N999999999+02701+02501100891ADDAA101000021AW1611MA1100881999999REMMET112MOBOB2 METAR XM21 //000 073342 182053Z AUTO 00000KT -RA 27/25 A2979 RMK A02 SLP089 P0000 T02700250 PA122 DA1955=
0129008415999992015111821534+07300+134200FM-15+000099999V0209999C000019999999N999999999+02741+02501100921ADDMA1100911999999REMMET102MOBOB2 METAR XM21 //000 073342 182153Z AUTO 00000KT 27/25 A2980 RMK A02 SLP092 T02740250 PA112 DA1989=
0140008415999992015111822534+07300+134200FM-15+000099999V0200501N004619999999N999999999+02811+02441100951ADDMA1100951999999OC100721REMMET105MOBOB2 METAR XM21 //000 073342 182253Z AUTO 05009G14KT 28/24 A2981 RMK A02 SLP095 T02810244 PA103 DA2041=
0129008415999992015111823534+07300+134200FM-15+000099999V0200301N003119999999N999999999+02781+02471100991ADDMA1100981999999REMMET102MOBOB2 METAR XM21 //000 073342 182353Z AUTO 03006KT 28/25 A2982 RMK A02 SLP099 T02780247 PA094 DA2003=
0140008415999992015111900534+07300+134200FM-15+000099999V0200601N004619999999N999999999+02771+02461100951ADDMA1100951999999OC100621REMMET105MOBOB2 METAR XM21 //000 073342 190053Z AUTO 06009G12KT 28/25 A2981 RMK A02 SLP095 T02770246 PA103 DA2001=
0129008415999992015111901534+07300+134200FM-15+000099999V0200401N003119999999N999999999+02801+02451100921ADDMA1100911999999REMMET102MOBOB2 METAR XM21 //000 073342 190153Z AUTO 04006KT 28/24 A2980 RMK A02 SLP092 T02800245 PA112 DA2044=
0129008415999992015111902534+07300+134200FM-15+000099999V0200601N001019999999N999999999+02851+02421100781ADDMA1100781999999REMMET102MOBOB2 METAR XM21 //000 073342 190253Z AUTO 06002KT 29/24 A2976 RMK A02 SLP078 T02850242 PA149 DA2139=
0156008415999992015111903534+07300+134200FM-15+000099999V0200101N003119999999N999999999+02631+02491100721ADDAA101001731AW1611MA1100711999999REMMET112MOBOB2 METAR XM21 //000 073342 190353Z AUTO 01006KT -RA 26/25 A2974 RMK A02 SLP072 P0007 T02630249 PA168 DA1931=
0167008415999992015111904534+07300+134200FM-15+000099999V0200301N005119999999N999999999+02681+02491100681ADDAA101001031AW1611MA1100681999999OC100621REMMET115MOBOB2 METAR XM21 //000 073342 190453Z AUTO 03010G12KT -RA 27/25 A2973 RMK A02 SLP068 P0004 T02680249 PA177 DA1999=
0129008415999992015111905534+07300+134200FM-15+000099999V0203301N002119999999N999999999+02751+02551100651ADDMA1100641999999REMMET102MOBOB2 METAR XM21 //000 073342 190553Z AUTO 33004KT 28/25 A2972 RMK A02 SLP065 T02750255 PA187 DA2104=
0156008415999992015111906534+07300+134200FM-15+000099999V0209999C000019999999N999999999+02811+02521100621ADDAA101000231AW1611MA1100611999999REMMET112MOBOB2 METAR XM21 //000 073342 190653Z AUTO 00000KT -RA 28/25 A2971 RMK A02 SLP062 P0001 T02810252 PA196 DA2174=
0140008415999992015111907534+07300+134200FM-15+000099999V0203501N005119999999N999999999+02841+02501100621ADDMA1100611999999OC100721REMMET105MOBOB2 METAR XM21 //000 073342 190753Z AUTO 35010G14KT 28/25 A2971 RMK A02 SLP062 T02840250 PA196 DA2203=
0167008415999992015111908534+07300+134200FM-15+000099999V0200501N006219999999N999999999+02661+02511100751ADDAA101002231AW1611MA1100741999999OC100771REMMET115MOBOB2 METAR XM21 //000 073342 190853Z AUTO 05012G15KT -RA 27/25 A2975 RMK A02 SLP075 P0009 T02660251 PA159 DA1958=
0167008415999992015111909534+07300+134200FM-15+000099999V0200201N008819999999N999999999+02731+02491100781ADDAA101001531AW1611MA1100781999999OC101031REMMET115MOBOB2 METAR XM21 //000 073342 190953Z AUTO 02017G20KT -RA 27/25 A2976 RMK A02 SLP078 P0006 T02730249 PA149 DA2021=
0140008415999992015111910534+07300+134200FM-15+000099999V0203601N006719999999N999999999+02751+02511100851ADDMA1100851999999OC100821REMMET105MOBOB2 METAR XM21 //000 073342 191053Z AUTO 36013G16KT 28/25 A2978 RMK A02 SLP085 T02750251 PA131 DA2025=
0140008415999992015111911534+07300+134200FM-15+000099999V0203601N007219999999N999999999+02781+02541100851ADDMA1100851999999OC100881REMMET105MOBOB2 METAR XM21 //000 073342 191153Z AUTO 36014G17KT 28/25 A2978 RMK A02 SLP085 T02780254 PA131 DA2065=
0156008415999992015111912534+07300+134200FM-15+000099999V0200201N003119999999N999999999+02571+02461100921ADDAA101005331AW1611MA1100911999999REMMET112MOBOB2 METAR XM21 //000 073342 191253Z AUTO 02006KT -RA 26/25 A2980 RMK A02 SLP092 P0021 T02570246 PA112 DA1789=
0156008415999992015111913534+07300+134200FM-15+000099999V0200701N002119999999N999999999+02681+02491100891ADDAA101000021AW1611MA1100881999999REMMET112MOBOB2 METAR XM21 //000 073342 191353Z AUTO 07004KT -RA 27/25 A2979 RMK A02 SLP089 P0000 T02680249 PA122 DA1930=
0156008415999992015111914534+07300+134200FM-15+000099999V0200701N001519999999N999999999+02691+02451100851ADDAA101000531AW1611MA1100851999999REMMET112MOBOB2 METAR XM21 //000 073342 191453Z AUTO 07003KT -RA 27/25 A2978 RMK A02 SLP085 P0002 T02690245 PA131 DA1945=
0156008415999992015111915534+07300+134200FM-15+000099999V0200501N002619999999N999999999+02691+02461100821ADDAA101000021AW1611MA1100811999999REMMET112MOBOB2 METAR XM21 //000 073342 191553Z AUTO 05005KT -RA 27/25 A2977 RMK A02 SLP082 P0000 T02690246 PA140 DA1957=
0156008415999992015111916534+07300+134200FM-15+000099999V0203301N002119999999N999999999+02681+02471100751ADDAA101000021AW1611MA1100741999999REMMET112MOBOB2 METAR XM21 //000 073342 191653Z AUTO 33004KT -RA 27/25 A2975 RMK A02 SLP075 P0000 T02680247 PA159 DA1973=
0156008415999992015111917534+07300+134200FM-15+000099999V0203401N002619999999N999999999+02681+02441100681ADDAA101000021AW1611MA1100681999999REMMET112MOBOB2 METAR XM21 //000 073342 191753Z AUTO 34005KT -RA 27/24 A2973 RMK A02 SLP068 P0000 T02680244 PA177 DA1987=
0129008415999992015111918534+07300+134200FM-15+000099999V0203401N002619999999N999999999+02691+02461100681ADDMA1100681999999REMMET102MOBOB2 METAR XM21 //000 073342 191853Z AUTO 34005KT 27/25 A2973 RMK A02 SLP068 T02690246 PA177 DA2003=
0129008415999992015111919534+07300+134200FM-15+000099999V0200101N004119999999N999999999+02691+02451100681ADDMA1100681999999REMMET102MOBOB2 METAR XM21 //000 073342 191953Z AUTO 01008KT 27/24 A2973 RMK A02 SLP068 T02690245 PA177 DA2001=
0140008415999992015111920534+07300+134200FM-15+000099999V0200201N006719999999N999999999+02711+02461100721ADDMA1100711999999OC100771REMMET105MOBOB2 METAR XM21 //000 073342 192053Z AUTO 02013G15KT 27/25 A2974 RMK A02 SLP072 T02710246 PA168 DA2016=
0140008415999992015111921534+07300+134200FM-15+000099999V0200401N007219999999N999999999+02721+02421100751ADDMA1100741999999OC100881REMMET105MOBOB2 METAR XM21 //000 073342 192153Z AUTO 04014G17KT 27/24 A2975 RMK A02 SLP075 T02720242 PA159 DA2004=
0140008415999992015111922534+07300+134200FM-15+000099999V0200501N007219999999N999999999+02701+02401100781ADDMA1100781999999OC100821REMMET105MOBOB2 METAR XM21 //000 073342 192253Z AUTO 05014G16KT 27/24 A2976 RMK A02 SLP078 T02700240 PA149 DA1967=
0140008415999992015111923534+07300+134200FM-15+000099999V0200601N007219999999N999999999+02701+02411100851ADDMA1100851999999OC100931REMMET105MOBOB2 METAR XM21 //000 073342 192353Z AUTO 06014G18KT 27/24 A2978 RMK A02 SLP085 T02700241 PA131 DA1947=
0140008415999992015112000534+07300+134200FM-15+000099999V0200701N006219999999N999999999+02731+02411100821ADDMA1100811999999OC100881REMMET105MOBOB2 METAR XM21 //000 073342 200053Z AUTO 07012G17KT 27/24 A2977 RMK A02 SLP082 T02730241 PA140 DA1992=
0140008415999992015112001534+07300+134200FM-15+000099999V0200901N005119999999N999999999+02771+02401100781ADDMA1100781999999OC100621REMMET105MOBOB2 METAR XM21 //000 073342 200153Z AUTO 09010G12KT 28/24 A2976 RMK A02 SLP078 T02770240 PA149 DA2045=
0140008415999992015112002534+07300+134200FM-15+000099999V0200901N005719999999N999999999+02831+02401100681ADDMA1100681999999OC100671REMMET105MOBOB2 METAR XM21 //000 073342 200253Z AUTO 09011G13KT 28/24 A2973 RMK A02 SLP068 T02830240 PA177 DA2146=
0140008415999992015112003534+07300+134200FM-15+000099999V0200801N005119999999N999999999+02831+02431100651ADDMA1100641999999OC100671REMMET105MOBOB2 METAR XM21 //000 073342 200353Z AUTO 08010G13KT 28/24 A2972 RMK A02 SLP065 T02830243 PA187 DA2164=
0140008415999992015112004534+07300+134200FM-15+000099999V0200801N005119999999N999999999+02811+02401100581ADDMA1100581999999OC100621REMMET105MOBOB2 METAR XM21 //000 073342 200453Z AUTO 08010G12KT 28/24 A2970 RMK A02 SLP058 T02810240 PA205 DA2159=
0140008415999992015112005534+07300+134200FM-15+000099999V0200801N005119999999N999999999+02811+02401100551ADDMA1100541999999OC100621REMMET105MOBOB2 METAR XM21 //000 073342 200553Z AUTO 08010G12KT 28/24 A2969 RMK A02 SLP055 T02810240 PA214 DA2171=
0129008415999992015112006534+07300+134200FM-15+000099999V0200901N004119999999N999999999+02811+02411100621ADDMA1100611999999REMMET102MOBOB2 METAR XM21 //000 073342 200653Z AUTO 09008KT 28/24 A2971 RMK A02 SLP062 T02810241 PA196 DA2150=
0129008415999992015112007534+07300+134200FM-15+000099999V0200901N003619999999N999999999+02811+02411100681ADDMA1100681999999REMMET102MOBOB2 METAR XM21 //000 073342 200753Z AUTO 09007KT 28/24 A2973 RMK A02 SLP068 T02810241 PA177 DA2126=
0129008415999992015112008534+07300+134200FM-15+000099999V0200901N003619999999N999999999+02811+02451100721ADDMA1100711999999REMMET102MOBOB2 METAR XM21 //000 073342 200853Z AUTO 09007KT 28/25 A2974 RMK A02 SLP072 T02810245 PA168 DA2124=
0129008415999992015112009534+07300+134200FM-15+000099999V0200801N003119999999N999999999+02801+02411100751ADDMA1100741999999REMMET102MOBOB2 METAR XM21 //000 073342 200953Z AUTO 08006KT 28/24 A2975 RMK A02 SLP075 T02800241 PA159 DA2092=
0129008415999992015112010534+07300+134200FM-15+000099999V0200801N002619999999N999999999+02801+02441100821ADDMA1100811999999REMMET102MOBOB2 METAR XM21 //000 073342 201053Z AUTO 08005KT 28/24 A2977 RMK A02 SLP082 T02800244 PA140 DA2075=
0129008415999992015112011534+07300+134200FM-15+000099999V0200601N004119999999N999999999+02801+02461100851ADDMA1100851999999REMMET102MOBOB2 METAR XM21 //000 073342 201153Z AUTO 06008KT 28/25 A2978 RMK A02 SLP085 T02800246 PA131 DA2070=
0129008415999992015112012534+07300+134200FM-15+000099999V0200301N004619999999N999999999+02791+02451100821ADDMA1100811999999REMMET102MOBOB2 METAR XM21 //000 073342 201253Z AUTO 03009KT 28/25 A2977 RMK A02 SLP082 T02790245 PA140 DA2068=
0129008415999992015112013534+07300+134200FM-15+000099999V0200201N003619999999N999999999+02781+02521100781ADDMA1100781999999REMMET102MOBOB2 METAR XM21 //000 073342 201353Z AUTO 02007KT 28/25 A2976 RMK A02 SLP078 T02780252 PA149 DA2083=
0140008415999992015112014534+07300+134200FM-15+000099999V0200301N005119999999N999999999+02741+02491100721ADDMA1100711999999OC100621REMMET105MOBOB2 METAR XM21 //000 073342 201453Z AUTO 03010G12KT 27/25 A2974 RMK A02 SLP072 T02740249 PA168 DA2056=
0129008415999992015112015534+07300+134200FM-15+000099999V0200601N003119999999N999999999+02751+02471100611ADDMA1100611999999REMMET102MOBOB2 METAR XM21 //000 073342 201553Z AUTO 06006KT 28/25 A2971 RMK A02 SLP061 T02750247 PA196 DA2097=
0129008415999992015112016534+07300+134200FM-15+000099999V0200801N004119999999N999999999+02751+02431100551ADDMA1100541999999REMMET102MOBOB2 METAR XM21 //000 073342 201653Z AUTO 08008KT 28/24 A2969 RMK A02 SLP055 T02750243 PA214 DA2109=
0140008415999992015112017534+07300+134200FM-15+000099999V0200601N004619999999N999999999+02741+02481100511ADDMA1100511999999OC100621REMMET105MOBOB2 METAR XM21 //000 073342 201753Z AUTO 06009G12KT 27/25 A2968 RMK A02 SLP051 T02740248 PA224 DA2122=
0129008415999992015112018534+07300+134200FM-15+000099999V0200501N004119999999N999999999+02761+02551100511ADDMA1100511999999REMMET102MOBOB2 METAR XM21 //000 073342 201853Z AUTO 05008KT 28/26 A2968 RMK A02 SLP051 T02760255 PA224 DA2161=
0129008415999992015112019534+07300+134200FM-15+000099999V0200501N004119999999N999999999+02771+02531100551ADDMA1100541999999REMMET102MOBOB2 METAR XM21 //000 073342 201953Z AUTO 05008KT 28/25 A2969 RMK A02 SLP055 T02770253 PA214 DA2155=
0129008415999992015112020534+07300+134200FM-15+000099999V0200601N003619999999N999999999+02801+02481100611ADDMA1100611999999REMMET102MOBOB2 METAR XM21 //000 073342 202053Z AUTO 06007KT 28/25 A2971 RMK A02 SLP061 T02800248 PA196 DA2154=
0129008415999992015112021534+07300+134200FM-15+000099999V0200601N004119999999N999999999+02831+02501100681ADDMA1100681999999REMMET102MOBOB2 METAR XM21 //000 073342 202153Z AUTO 06008KT 28/25 A2973 RMK A02 SLP068 T02830250 PA177 DA2169=
0140008415999992015112022534+07300+134200FM-15+000099999V0200601N005119999999N999999999+02831+02461100781ADDMA1100781999999OC100621REMMET105MOBOB2 METAR XM21 //000 073342 202253Z AUTO 06010G12KT 28/25 A2976 RMK A02 SLP078 T02830246 PA149 DA2126=
0129008415999992015112023534+07300+134200FM-15+000099999V0200701N003619999999N999999999+02871+02421100821ADDMA1100811999999REMMET102MOBOB2 METAR XM21 //000 073342 202353Z AUTO 07007KT 29/24 A2977 RMK A02 SLP082 T02870242 PA140 DA2150=
0129008415999992015112100534+07300+134200FM-15+000099999V0200401N003619999999N999999999+02881+02481100781ADDMA1100781999999REMMET102MOBOB2 METAR XM21 //000 073342 210053Z AUTO 04007KT 29/25 A2976 RMK A02 SLP078 T02880248 PA149 DA2187=
0140008415999992015112101534+07300+134200FM-15+000099999V0200701N004619999999N999999999+02911+02481100751ADDMA1100741999999OC100771REMMET105MOBOB2 METAR XM21 //000 073342 210153Z AUTO 07009G15KT 29/25 A2975 RMK A02 SLP075 T02910248 PA159 DA2230=
0140008415999992015112102534+07300+134200FM-15+000099999V0200801N005119999999N999999999+02861+02311100651ADDMA1100641999999OC100671REMMET105MOBOB2 METAR XM21 //000 073342 210253Z AUTO 08010G13KT 29/23 A2972 RMK A02 SLP065 T02860231 PA187 DA2172=
0140008415999992015112103534+07300+134200FM-15+000099999V0200201N005719999999N999999999+02781+02361100551ADDMA1100541999999OC100671REMMET105MOBOB2 METAR XM21 //000 073342 210353Z AUTO 02011G13KT 28/24 A2969 RMK A02 SLP055 T02780236 PA214 DA2127=
0129008415999992015112104534+07300+134200FM-15+000099999V0200401N003619999999N999999999+02781+02381100481ADDMA1100471999999REMMET102MOBOB2 METAR XM21 //000 073342 210453Z AUTO 04007KT 28/24 A2967 RMK A02 SLP048 T02780238 PA233 DA2154=
0129008415999992015112105534+07300+134200FM-15+000099999V0200701N004119999999N999999999+02901+02371100451ADDMA1100441999999REMMET102MOBOB2 METAR XM21 //000 073342 210553Z AUTO 07008KT 29/24 A2966 RMK A02 SLP045 T02900237 PA242 DA2298=
0140008415999992015112106534+07300+134200FM-15+000099999V0200301N006719999999N999999999+02781+02511100481ADDMA1100471999999OC100881REMMET105MOBOB2 METAR XM21 //000 073342 210653Z AUTO 03013G17KT 28/25 A2967 RMK A02 SLP048 T02780251 PA233 DA2185=
0140008415999992015112107534+07300+134200FM-15+000099999V0200401N005719999999N999999999+02761+02471100511ADDMA1100511999999OC100671REMMET105MOBOB2 METAR XM21 //000 073342 210753Z AUTO 04011G13KT 28/25 A2968 RMK A02 SLP051 T02760247 PA224 DA2141=
0129008415999992015112108534+07300+134200FM-15+000099999V0200701N002619999999N999999999+02781+02431100581ADDMA1100581999999REMMET102MOBOB2 METAR XM21 //000 073342 210853Z AUTO 07005KT 28/24 A2970 RMK A02 SLP058 T02780243 PA205 DA2131=
0129008415999992015112109534+07300+134200FM-15+000099999V0201201N005119999999N999999999+02691+02451100681ADDMA1100681999999REMMET102MOBOB2 METAR XM21 //000 073342 210953Z AUTO 12010KT 27/24 A2973 RMK A02 SLP068 T02690245 PA177 DA2000=
0140008415999992015112110534+07300+134200FM-15+000099999V0200601N004619999999N999999999+02691+02411100721ADDMA1100711999999OC100621REMMET105MOBOB2 METAR XM21 //000 073342 211053Z AUTO 06009G12KT 27/24 A2974 RMK A02 SLP072 T02690241 PA168 DA1980=
0140008415999992015112111534+07300+134200FM-15+000099999V0200501N007219999999N999999999+02711+02451100721ADDMA1100711999999OC100881REMMET105MOBOB2 METAR XM21 //000 073342 211153Z AUTO 05014G17KT 27/25 A2974 RMK A02 SLP072 T02710245 PA168 DA2012=
0140008415999992015112112534+07300+134200FM-15+000099999V0200501N005719999999N999999999+02711+02421100751ADDMA1100741999999OC100671REMMET105MOBOB2 METAR XM21 //000 073342 211253Z AUTO 05011G13KT 27/24 A2975 RMK A02 SLP075 T02710242 PA159 DA1993=
0129008415999992015112113534+07300+134200FM-15+000099999V0200601N004119999999N999999999+02621+02391100751ADDMA1100741999999REMMET102MOBOB2 METAR XM21 //000 073342 211353Z AUTO 06008KT 26/24 A2975 RMK A02 SLP075 T02620239 PA159 DA1886=
0156008415999992015112114534+07300+134200FM-15+000099999V0201201N003619999999N999999999+02621+02431100751ADDAA101000021AW1611MA1100741999999REMMET112MOBOB2 METAR XM21 //000 073342 211453Z AUTO 12007KT -RA 26/24 A2975 RMK A02 SLP075 P0000 T02620243 PA159 DA1896=
0156008415999992015112115534+07300+134200FM-15+000099999V0202501N001019999999N999999999+02581+02431100651ADDAA101000731AW1631MA1100641999999REMMET112MOBOB2 METAR XM21 //000 073342 211553Z AUTO 25002KT +RA 26/24 A2972 RMK A02 SLP065 P0003 T02580243 PA187 DA1883=
0156008415999992015112116534+07300+134200FM-15+000099999V0200401N003619999999N999999999+02651+02461100621ADDAA101000021AW1611MA1100611999999REMMET112MOBOB2 METAR XM21 //000 073342 211653Z AUTO 04007KT -RA 27/25 A2971 RMK A02 SLP062 P0000 T02650246 PA196 DA1980=
0129008415999992015112117534+07300+134200FM-15+000099999V0200101N003119999999N999999999+02681+02461100551ADDMA1100541999999REMMET102MOBOB2 METAR XM21 //000 073342 211753Z AUTO 01006KT 27/25 A2969 RMK A02 SLP055 T02680246 PA214 DA2038=
0129008415999992015112118534+07300+134200FM-15+000099999V0200501N002119999999N999999999+02711+02391100551ADDMA1100541999999REMMET102MOBOB2 METAR XM21 //000 073342 211853Z AUTO 05004KT 27/24 A2969 RMK A02 SLP055 T02710239 PA214 DA2056=
0129008415999992015112119534+07300+134200FM-15+000099999V0200101N005119999999N999999999+02691+02411100581ADDMA1100581999999REMMET102MOBOB2 METAR XM21 //000 073342 211953Z AUTO 01010KT 27/24 A2970 RMK A02 SLP058 T02690241 PA205 DA2027=
0129008415999992015112120534+07300+134200FM-15+000099999V0200201N002619999999N999999999+02711+02391100651ADDMA1100641999999REMMET102MOBOB2 METAR XM21 //000 073342 212053Z AUTO 02005KT 27/24 A2972 RMK A02 SLP065 T02710239 PA187 DA2020=
0129008415999992015112121534+07300+134200FM-15+000099999V0200701N002619999999N999999999+02721+02411100651ADDMA1100641999999REMMET102MOBOB2 METAR XM21 //000 073342 212153Z AUTO 07005KT 27/24 A2972 RMK A02 SLP065 T02720241 PA187 DA2038=
0129008415999992015112122534+07300+134200FM-15+000099999V0201001N003119999999N999999999+02741+02401100751ADDMA1100741999999REMMET102MOBOB2 METAR XM21 //000 073342 212253Z AUTO 10006KT 27/24 A2975 RMK A02 SLP075 T02740240 PA159 DA2023=
0129008415999992015112123534+07300+134200FM-15+000099999V0200401N001519999999N999999999+02771+02441100781ADDMA1100781999999REMMET102MOBOB2 METAR XM21 //000 073342 212353Z AUTO 04003KT 28/24 A2976 RMK A02 SLP078 T02770244 PA149 DA2055=
0129008415999992015112200534+07300+134200FM-15+000099999V0200801N002619999999N999999999+02781+02391100781ADDMA1100781999999REMMET102MOBOB2 METAR XM21 //000 073342 220053Z AUTO 08005KT 28/24 A2976 RMK A02 SLP078 T02780239 PA149 DA2055=
0129008415999992015112201534+07300+134200FM-15+000099999V0201101N001019999999N999999999+02851+02391100721ADDMA1100711999999REMMET102MOBOB2 METAR XM21 //000 073342 220153Z AUTO 11002KT 29/24 A2974 RMK A02 SLP072 T02850239 PA168 DA2154=
0129008415999992015112202534+07300+134200FM-15+000099999V0201801N000519999999N999999999+03091+02391100681ADDMA1100681999999REMMET102MOBOB2 METAR XM21 //000 073342 220253Z AUTO 18001KT 31/24 A2973 RMK A02 SLP068 T03090239 PA177 DA2433=
0129008415999992015112203534+07300+134200FM-15+000099999V0200901N001019999999N999999999+02891+02391100621ADDMA1100611999999REMMET102MOBOB2 METAR XM21 //000 073342 220353Z AUTO 09002KT 29/24 A2971 RMK A02 SLP062 T02890239 PA196 DA2234=
0129008415999992015112204534+07300+134200FM-15+000099999V0202101N000519999999N999999999+02961+02381100551ADDMA1100541999999REMMET102MOBOB2 METAR XM21 //000 073342 220453Z AUTO 21001KT 30/24 A2969 RMK A02 SLP055 T02960238 PA214 DA2332=
0156008415999992015112205534+07300+134200FM-15+000099999V0201101N001019999999N999999999+02671+02421100551ADDAA101004331AW1611MA1100541999999REMMET112MOBOB2 METAR XM21 //000 073342 220553Z AUTO 11002KT -RA 27/24 A2969 RMK A02 SLP055 P0017 T02670242 PA214 DA2018=
0129008415999992015112206534+07300+134200FM-15+000099999V0202501N003119999999N999999999+02801+02471100551ADDMA1100541999999REMMET102MOBOB2 METAR XM21 //000 073342 220653Z AUTO 25006KT 28/25 A2969 RMK A02 SLP055 T02800247 PA214 DA2176=
0129008415999992015112207534+07300+134200FM-15+000099999V0202301N003119999999N999999999+02801+02441100621ADDMA1100611999999REMMET102MOBOB2 METAR XM21 //000 073342 220753Z AUTO 23006KT 28/24 A2971 RMK A02 SLP062 T02800244 PA196 DA2146=
0129008415999992015112208534+07300+134200FM-15+000099999V0202301N003619999999N999999999+02781+02461100681ADDMA1100681999999REMMET102MOBOB2 METAR XM21 //000 073342 220853Z AUTO 23007KT 28/25 A2973 RMK A02 SLP068 T02780246 PA177 DA2105=
0129008415999992015112209534+07300+134200FM-15+000099999V0202201N003119999999N999999999+02781+02501100751ADDMA1100741999999REMMET102MOBOB2 METAR XM21 //000 073342 220953Z AUTO 22006KT 28/25 A2975 RMK A02 SLP075 T02780250 PA159 DA2091=
0129008415999992015112210534+07300+134200FM-15+000099999V0202401N002619999999N999999999+02811+02451100821ADDMA1100811999999REMMET102MOBOB2 METAR XM21 //000 073342 221053Z AUTO 24005KT 28/24 A2977 RMK A02 SLP082 T02810245 PA140 DA2089=
0129008415999992015112211534+07300+134200FM-15+000099999V0202601N002119999999N999999999+02811+02471100851ADDMA1100851999999REMMET102MOBOB2 METAR XM21 //000 073342 221153Z AUTO 26004KT 28/25 A2978 RMK A02 SLP085 T02810247 PA131 DA2083=
0129008415999992015112212534+07300+134200FM-15+000099999V0202401N003119999999N999999999+02821+02421100891ADDMA1100881999999REMMET102MOBOB2 METAR XM21 //000 073342 221253Z AUTO 24006KT 28/24 A2979 RMK A02 SLP089 T02820242 PA122 DA2070=
0129008415999992015112213534+07300+134200FM-15+000099999V0202501N001519999999N999999999+02811+02441100851ADDMA1100851999999REMMET102MOBOB2 METAR XM21 //000 073342 221353Z AUTO 25003KT 28/24 A2978 RMK A02 SLP085 T02810244 PA131 DA2076=
0129008415999992015112214534+07300+134200FM-15+000099999V0202301N002619999999N999999999+02811+02441100821ADDMA1100811999999REMMET102MOBOB2 METAR XM21 //000 073342 221453Z AUTO 23005KT 28/24 A2977 RMK A02 SLP082 T02810244 PA140 DA2088=
0129008415999992015112215534+07300+134200FM-15+000099999V0202501N003119999999N999999999+02801+02501100751ADDMA1100741999999REMMET102MOBOB2 METAR XM21 //000 073342 221553Z AUTO 25006KT 28/25 A2975 RMK A02 SLP075 T02800250 PA159 DA2113=
0129008415999992015112216534+07300+134200FM-15+000099999V0202401N002119999999N999999999+02771+02501100651ADDMA1100641999999REMMET102MOBOB2 METAR XM21 //000 073342 221653Z AUTO 24004KT 28/25 A2972 RMK A02 SLP065 T02770250 PA187 DA2114=
0129008415999992015112217534+07300+134200FM-15+000099999V0202301N002619999999N999999999+02781+02521100581ADDMA1100581999999REMMET102MOBOB2 METAR XM21 //000 073342 221753Z AUTO 23005KT 28/25 A2970 RMK A02 SLP058 T02780252 PA205 DA2153=
0129008415999992015112218534+07300+134200FM-15+000099999V0202401N003619999999N999999999+02791+02471100551ADDMA1100541999999REMMET102MOBOB2 METAR XM21 //000 073342 221853Z AUTO 24007KT 28/25 A2969 RMK A02 SLP055 T02790247 PA214 DA2164=
0129008415999992015112219534+07300+134200FM-15+000099999V0202301N003119999999N999999999+02781+02491100551ADDMA1100541999999REMMET102MOBOB2 METAR XM21 //000 073342 221953Z AUTO 23006KT 28/25 A2969 RMK A02 SLP055 T02780249 PA214 DA2158=
0129008415999992015112220534+07300+134200FM-15+000099999V0202201N002619999999N999999999+02791+02461100611ADDMA1100611999999REMMET102MOBOB2 METAR XM21 //000 073342 222053Z AUTO 22005KT 28/25 A2971 RMK A02 SLP061 T02790246 PA196 DA2139=
0129008415999992015112221534+07300+134200FM-15+000099999V0202401N001519999999N999999999+02801+02461100651ADDMA1100641999999REMMET102MOBOB2 METAR XM21 //000 073342 222153Z AUTO 24003KT 28/25 A2972 RMK A02 SLP065 T02800246 PA187 DA2139=
0129008415999992015112222534+07300+134200FM-15+000099999V0202201N001519999999N999999999+02861+02481100751ADDMA1100741999999REMMET102MOBOB2 METAR XM21 //000 073342 222253Z AUTO 22003KT 29/25 A2975 RMK A02 SLP075 T02860248 PA159 DA2177=
0129008415999992015112223534+07300+134200FM-15+000099999V0202201N003619999999N999999999+02881+02461100821ADDMA1100811999999REMMET102MOBOB2 METAR XM21 //000 073342 222353Z AUTO 22007KT 29/25 A2977 RMK A02 SLP082 T02880246 PA140 DA2171=
0129008415999992015112300534+07300+134200FM-15+000099999V0202301N004619999999N999999999+02911+02451100781ADDMA1100781999999REMMET102MOBOB2 METAR XM21 //000 073342 230053Z AUTO 23009KT 29/25 A2976 RMK A02 SLP078 T02910245 PA149 DA2214=
0129008415999992015112301534+07300+134200FM-15+000099999V0202201N004119999999N999999999+02911+02421100781ADDMA1100781999999REMMET102MOBOB2 METAR XM21 //000 073342 230153Z AUTO 22008KT 29/24 A2976 RMK A02 SLP078 T02910242 PA149 DA2206=
0129008415999992015112302534+07300+134200FM-15+000099999V0202501N004619999999N999999999+02921+02441100781ADDMA1100781999999REMMET102MOBOB2 METAR XM21 //000 073342 230253Z AUTO 25009KT 29/24 A2976 RMK A02 SLP078 T02920244 PA149 DA2222=
0140008415999992015112303534+07300+134200FM-15+000099999V0202301N008219999999N999999999+02741+02481100681ADDMA1100681999999OC100981REMMET105MOBOB2 METAR XM21 //000 073342 230353Z AUTO 23016G19KT 27/25 A2973 RMK A02 SLP068 T02740248 PA177 DA2065=
0156008415999992015112304534+07300+134200FM-15+000099999V0202801N002119999999N999999999+02731+02471100621ADDAA101000021AW1611MA1100611999999REMMET112MOBOB2 METAR XM21 //000 073342 230453Z AUTO 28004KT -RA 27/25 A2971 RMK A02 SLP062 P0000 T02730247 PA196 DA2073=
0129008415999992015112305534+07300+134200FM-15+000099999V0202201N001019999999N999999999+02861+02501100611ADDMA1100611999999REMMET102MOBOB2 METAR XM21 //000 073342 230553Z AUTO 22002KT 29/25 A2971 RMK A02 SLP061 T02860250 PA196 DA2225=
0129008415999992015112306534+07300+134200FM-15+000099999V0202501N003619999999N999999999+02891+02461100581ADDMA1100581999999REMMET102MOBOB2 METAR XM21 //000 073342 230653Z AUTO 25007KT 29/25 A2970 RMK A02 SLP058 T02890246 PA205 DA2262=
0129008415999992015112307534+07300+134200FM-15+000099999V0203301N002119999999N999999999+02811+02411100611ADDMA1100611999999REMMET102MOBOB2 METAR XM21 //000 073342 230753Z AUTO 33004KT 28/24 A2971 RMK A02 SLP061 T02810241 PA196 DA2148=
0129008415999992015112308534+07300+134200FM-15+000099999V0203401N000519999999N999999999+02781+02421100681ADDMA1100681999999REMMET102MOBOB2 METAR XM21 //000 073342 230853Z AUTO 34001KT 28/24 A2973 RMK A02 SLP068 T02780242 PA177 DA2094=
0129008415999992015112309534+07300+134200FM-15+000099999V0202201N003619999999N999999999+02851+02421100721ADDMA1100711999999REMMET102MOBOB2 METAR XM21 //000 073342 230953Z AUTO 22007KT 29/24 A2974 RMK A02 SLP072 T02850242 PA168 DA2162=
0129008415999992015112310534+07300+134200FM-15+000099999V0202101N003619999999N999999999+02861+02431100781ADDMA1100781999999REMMET102MOBOB2 METAR XM21 //000 073342 231053Z AUTO 21007KT 29/24 A2976 RMK A02 SLP078 T02860243 PA149 DA2152=
0129008415999992015112311534+07300+134200FM-15+000099999V0202001N003119999999N999999999+02861+02511100851ADDMA1100851999999REMMET102MOBOB2 METAR XM21 //000 073342 231153Z AUTO 20006KT 29/25 A2978 RMK A02 SLP085 T02860251 PA131 DA2147=
0129008415999992015112312534+07300+134200FM-15+000099999V0202001N003119999999N999999999+02851+02461100851ADDMA1100851999999REMMET102MOBOB2 METAR XM21 //000 073342 231253Z AUTO 20006KT 29/25 A2978 RMK A02 SLP085 T02850246 PA131 DA2125=
0156008415999992015112313534+07300+134200FM-15+000099999V0201901N003619999999N999999999+02851+02451100851ADDAA101000021AW1611MA1100851999999REMMET112MOBOB2 METAR XM21 //000 073342 231353Z AUTO 19007KT -RA 29/24 A2978 RMK A02 SLP085 P0000 T02850245 PA131 DA2122=
0129008415999992015112314534+07300+134200FM-15+000099999V0201901N003119999999N999999999+02841+02461100851ADDMA1100851999999REMMET102MOBOB2 METAR XM21 //000 073342 231453Z AUTO 19006KT 28/25 A2978 RMK A02 SLP085 T02840246 PA131 DA2114=
0129008415999992015112315534+07300+134200FM-15+000099999V0201901N002619999999N999999999+02821+02491100821ADDMA1100811999999REMMET102MOBOB2 METAR XM21 //000 073342 231553Z AUTO 19005KT 28/25 A2977 RMK A02 SLP082 T02820249 PA140 DA2110=
0156008415999992015112316534+07300+134200FM-15+000099999V0202301N004119999999N999999999+02761+02401100721ADDAA101000021AW1611MA1100711999999REMMET112MOBOB2 METAR XM21 //000 073342 231653Z AUTO 23008KT -RA 28/24 A2974 RMK A02 SLP072 P0000 T02760240 PA168 DA2057=
0129008415999992015112317534+07300+134200FM-15+000099999V0202001N003119999999N999999999+02811+02481100681ADDMA1100681999999REMMET102MOBOB2 METAR XM21 //000 073342 231753Z AUTO 20006KT 28/25 A2973 RMK A02 SLP068 T02810248 PA177 DA2143=
0129008415999992015112318534+07300+134200FM-15+000099999V0201801N003619999999N999999999+02821+02461100681ADDMA1100681999999REMMET102MOBOB2 METAR XM21 //000 073342 231853Z AUTO 18007KT 28/25 A2973 RMK A02 SLP068 T02820246 PA177 DA2150=
0129008415999992015112319534+07300+134200FM-15+000099999V0201701N003619999999N999999999+02821+02461100681ADDMA1100681999999REMMET102MOBOB2 METAR XM21 //000 073342 231953Z AUTO 17007KT 28/25 A2973 RMK A02 SLP068 T02820246 PA177 DA2150=
0129008415999992015112320534+07300+134200FM-15+000099999V0201901N004119999999N999999999+02821+02461100721ADDMA1100711999999REMMET102MOBOB2 METAR XM21 //000 073342 232053Z AUTO 19008KT 28/25 A2974 RMK A02 SLP072 T02820246 PA168 DA2137=
0129008415999992015112321534+07300+134200FM-15+000099999V0201901N005119999999N999999999+02851+02451100781ADDMA1100781999999REMMET102MOBOB2 METAR XM21 //000 073342 232153Z AUTO 19010KT 29/24 A2976 RMK A02 SLP078 T02850245 PA149 DA2146=
0129008415999992015112322534+07300+134200FM-15+000099999V0201901N004619999999N999999999+02851+02491100821ADDMA1100811999999REMMET102MOBOB2 METAR XM21 //000 073342 232253Z AUTO 19009KT 29/25 A2977 RMK A02 SLP082 T02850249 PA140 DA2144=
0140008415999992015112323534+07300+134200FM-15+000099999V0202001N006219999999N999999999+02881+02461100781ADDMA1100781999999OC100721REMMET105MOBOB2 METAR XM21 //000 073342 232353Z AUTO 20012G14KT 29/25 A2976 RMK A02 SLP078 T02880246 PA149 DA2182=
0140008415999992015112400534+07300+134200FM-15+000099999V0202001N005719999999N999999999+02891+02471100781ADDMA1100781999999OC100721REMMET105MOBOB2 METAR XM21 //000 073342 240053Z AUTO 20011G14KT 29/25 A2976 RMK A02 SLP078 T02890247 PA149 DA2196=
0140008415999992015112401534+07300+134200FM-15+000099999V0202201N006219999999N999999999+02911+02511100751ADDMA1100741999999OC100771REMMET105MOBOB2 METAR XM21 //000 073342 240153Z AUTO 22012G15KT 29/25 A2975 RMK A02 SLP075 T02910251 PA159 DA2237=
0140008415999992015112402534+07300+134200FM-15+000099999V0202201N006719999999N999999999+02921+02461100651ADDMA1100641999999OC100821REMMET105MOBOB2 METAR XM21 //000 073342 240253Z AUTO 22013G16KT 29/25 A2972 RMK A02 SLP065 T02920246 PA187 DA2272=
0140008415999992015112403534+07300+134200FM-15+000099999V0202301N006219999999N999999999+02921+02491100611ADDMA1100611999999OC100721REMMET105MOBOB2 METAR XM21 //000 073342 240353Z AUTO 23012G14KT 29/25 A2971 RMK A02 SLP061 T02920249 PA196 DA2291=
0140008415999992015112404534+07300+134200FM-15+000099999V0202301N006219999999N999999999+02921+02461100581ADDMA1100581999999OC100721REMMET105MOBOB2 METAR XM21 //000 073342 240453Z AUTO 23012G14KT 29/25 A2970 RMK A02 SLP058 T02920246 PA205 DA2296=
0140008415999992015112405534+07300+134200FM-15+000099999V0202301N005719999999N999999999+02911+02441100551ADDMA1100541999999OC100721REMMET105MOBOB2 METAR XM21 //000 073342 240553Z AUTO 23011G14KT 29/24 A2969 RMK A02 SLP055 T02910244 PA214 DA2291=
0140008415999992015112406534+07300+134200FM-15+000099999V0202301N007219999999N999999999+02851+02471100581ADDMA1100581999999OC100931REMMET105MOBOB2 METAR XM21 //000 073342 240653Z AUTO 23014G18KT 29/25 A2970 RMK A02 SLP058 T02850247 PA205 DA2219=
0140008415999992015112407534+07300+134200FM-15+000099999V0202301N005719999999N999999999+02871+02491100611ADDMA1100611999999OC100671REMMET105MOBOB2 METAR XM21 //000 073342 240753Z AUTO 23011G13KT 29/25 A2971 RMK A02 SLP061 T02870249 PA196 DA2234=
0140008415999992015112408534+07300+134200FM-15+000099999V0202301N005719999999N999999999+02871+02521100681ADDMA1100681999999OC100671REMMET105MOBOB2 METAR XM21 //000 073342 240853Z AUTO 23011G13KT 29/25 A2973 RMK A02 SLP068 T02870252 PA177 DA2220=
0129008415999992015112409534+07300+134200FM-15+000099999V0202201N005119999999N999999999+02861+02481100751ADDMA1100741999999REMMET102MOBOB2 METAR XM21 //000 073342 240953Z AUTO 22010KT 29/25 A2975 RMK A02 SLP075 T02860248 PA159 DA2175=
0129008415999992015112410534+07300+134200FM-15+000099999V0202301N004619999999N999999999+02861+02501100781ADDMA1100781999999REMMET102MOBOB2 METAR XM21 //000 073342 241053Z AUTO 23009KT 29/25 A2976 RMK A02 SLP078 T02860250 PA149 DA2169=
0129008415999992015112411534+07300+134200FM-15+000099999V0202201N004119999999N999999999+02861+02471100851ADDMA1100851999999REMMET102MOBOB2 METAR XM21 //000 073342 241153Z AUTO 22008KT 29/25 A2978 RMK A02 SLP085 T02860247 PA131 DA2138=
0129008415999992015112412534+07300+134200FM-15+000099999V0202301N004119999999N999999999+02851+02481100851ADDMA1100851999999REMMET102MOBOB2 METAR XM21 //000 073342 241253Z AUTO 23008KT 29/25 A2978 RMK A02 SLP085 T02850248 PA131 DA2130=
0129008415999992015112413534+07300+134200FM-15+000099999V0202301N003119999999N999999999+02841+02501100821ADDMA1100811999999REMMET102MOBOB2 METAR XM21 //000 073342 241353Z AUTO 23006KT 28/25 A2977 RMK A02 SLP082 T02840250 PA140 DA2136=
0129008415999992015112414534+07300+134200FM-15+000099999V0202301N003619999999N999999999+02841+02491100781ADDMA1100781999999REMMET102MOBOB2 METAR XM21 //000 073342 241453Z AUTO 23007KT 28/25 A2976 RMK A02 SLP078 T02840249 PA149 DA2143=
0129008415999992015112415534+07300+134200FM-15+000099999V0202501N004119999999N999999999+02821+02481100721ADDMA1100711999999REMMET102MOBOB2 METAR XM21 //000 073342 241553Z AUTO 25008KT 28/25 A2974 RMK A02 SLP072 T02820248 PA168 DA2144=
0140008415999992015112416534+07300+134200FM-15+000099999V0202501N004119999999N999999999+02811+02511100651ADDMA1100641999999OC100621REMMET105MOBOB2 METAR XM21 //000 073342 241653Z AUTO 25008G12KT 28/25 A2972 RMK A02 SLP065 T02810251 PA187 DA2161=
0129008415999992015112417534+07300+134200FM-15+000099999V0202501N004119999999N999999999+02811+02481100611ADDMA1100611999999REMMET102MOBOB2 METAR XM21 //000 073342 241753Z AUTO 25008KT 28/25 A2971 RMK A02 SLP061 T02810248 PA196 DA2166=
0129008415999992015112418534+07300+134200FM-15+000099999V0202601N003619999999N999999999+02811+02491100651ADDMA1100641999999REMMET102MOBOB2 METAR XM21 //000 073342 241853Z AUTO 26007KT 28/25 A2972 RMK A02 SLP065 T02810249 PA187 DA2156=
0129008415999992015112419534+07300+134200FM-15+000099999V0202501N003119999999N999999999+02801+02481100681ADDMA1100681999999REMMET102MOBOB2 METAR XM21 //000 073342 241953Z AUTO 25006KT 28/25 A2973 RMK A02 SLP068 T02800248 PA177 DA2131=
0129008415999992015112420534+07300+134200FM-15+000099999V0202301N003119999999N999999999+02801+02461100751ADDMA1100741999999REMMET102MOBOB2 METAR XM21 //000 073342 242053Z AUTO 23006KT 28/25 A2975 RMK A02 SLP075 T02800246 PA159 DA2103=
0129008415999992015112421534+07300+134200FM-15+000099999V0202701N004119999999N999999999+02811+02341100821ADDMA1100811999999REMMET102MOBOB2 METAR XM21 //000 073342 242153Z AUTO 27008KT 28/23 A2977 RMK A02 SLP082 T02810234 PA140 DA2066=
0129008415999992015112422534+07300+134200FM-15+000099999V0202401N003119999999N999999999+02831+02471100891ADDMA1100881999999REMMET102MOBOB2 METAR XM21 //000 073342 242253Z AUTO 24006KT 28/25 A2979 RMK A02 SLP089 T02830247 PA122 DA2094=
0129008415999992015112423534+07300+134200FM-15+000099999V0202601N003619999999N999999999+02871+02461100921ADDMA1100911999999REMMET102MOBOB2 METAR XM21 //000 073342 242353Z AUTO 26007KT 29/25 A2980 RMK A02 SLP092 T02870246 PA112 DA2124=
0129008415999992015112500534+07300+134200FM-15+000099999V0202601N004119999999N999999999+02881+02461100891ADDMA1100881999999REMMET102MOBOB2 METAR XM21 //000 073342 250053Z AUTO 26008KT 29/25 A2979 RMK A02 SLP089 T02880246 PA122 DA2146=
0140008415999992015112501534+07300+134200FM-15+000099999V0202501N005119999999N999999999+02891+02471100821ADDMA1100811999999OC100671REMMET105MOBOB2 METAR XM21 //000 073342 250153Z AUTO 25010G13KT 29/25 A2977 RMK A02 SLP082 T02890247 PA140 DA2183=
0129008415999992015112502534+07300+134200FM-15+000099999V0202601N004619999999N999999999+02891+02421100751ADDMA1100741999999REMMET102MOBOB2 METAR XM21 //000 073342 250253Z AUTO 26009KT 29/24 A2975 RMK A02 SLP075 T02890242 PA159 DA2195=
0129008415999992015112503534+07300+134200FM-15+000099999V0202601N004619999999N999999999+02901+02401100681ADDMA1100681999999REMMET102MOBOB2 METAR XM21 //000 073342 250353Z AUTO 26009KT 29/24 A2973 RMK A02 SLP068 T02900240 PA177 DA2224=
0129008415999992015112504534+07300+134200FM-15+000099999V0202801N004619999999N999999999+02901+02481100611ADDMA1100611999999REMMET102MOBOB2 METAR XM21 //000 073342 250453Z AUTO 28009KT 29/25 A2971 RMK A02 SLP061 T02900248 PA196 DA2267=
0129008415999992015112505534+07300+134200FM-15+000099999V0202801N004119999999N999999999+02891+02431100611ADDMA1100611999999REMMET102MOBOB2 METAR XM21 //000 073342 250553Z AUTO 28008KT 29/24 A2971 RMK A02 SLP061 T02890243 PA196 DA2243=
0129008415999992015112506534+07300+134200FM-15+000099999V0202801N004119999999N999999999+02891+02441100611ADDMA1100611999999REMMET102MOBOB2 METAR XM21 //000 073342 250653Z AUTO 28008KT 29/24 A2971 RMK A02 SLP061 T02890244 PA196 DA2246=
0129008415999992015112507534+07300+134200FM-15+000099999V0202801N004119999999N999999999+02881+02401100681ADDMA1100681999999REMMET102MOBOB2 METAR XM21 //000 073342 250753Z AUTO 28008KT 29/24 A2973 RMK A02 SLP068 T02880240 PA177 DA2201=
0129008415999992015112508534+07300+134200FM-15+000099999V0203001N004119999999N999999999+02861+02421100681ADDMA1100681999999REMMET102MOBOB2 METAR XM21 //000 073342 250853Z AUTO 30008KT 29/24 A2973 RMK A02 SLP068 T02860242 PA177 DA2184=
0129008415999992015112509534+07300+134200FM-15+000099999V0203001N003619999999N999999999+02851+02401100751ADDMA1100741999999REMMET102MOBOB2 METAR XM21 //000 073342 250953Z AUTO 30007KT 29/24 A2975 RMK A02 SLP075 T02850240 PA159 DA2145=
0129008415999992015112510534+07300+134200FM-15+000099999V0203001N003119999999N999999999+02851+02381100821ADDMA1100811999999REMMET102MOBOB2 METAR XM21 //000 073342 251053Z AUTO 30006KT 29/24 A2977 RMK A02 SLP082 T02850238 PA140 DA2118=
0129008415999992015112511534+07300+134200FM-15+000099999V0203101N002619999999N999999999+02851+02411100851ADDMA1100851999999REMMET102MOBOB2 METAR XM21 //000 073342 251153Z AUTO 31005KT 29/24 A2978 RMK A02 SLP085 T02850241 PA131 DA2114=
0129008415999992015112512534+07300+134200FM-15+000099999V0203001N002619999999N999999999+02851+02401100851ADDMA1100851999999REMMET102MOBOB2 METAR XM21 //000 073342 251253Z AUTO 30005KT 29/24 A2978 RMK A02 SLP085 T02850240 PA131 DA2111=
0129008415999992015112513534+07300+134200FM-15+000099999V0203001N002119999999N999999999+02841+02441100851ADDMA1100851999999REMMET102MOBOB2 METAR XM21 //000 073342 251353Z AUTO 30004KT 28/24 A2978 RMK A02 SLP085 T02840244 PA131 DA2109=
0129008415999992015112514534+07300+134200FM-15+000099999V0203001N003119999999N999999999+02831+02411100851ADDMA1100851999999REMMET102MOBOB2 METAR XM21 //000 073342 251453Z AUTO 30006KT 28/24 A2978 RMK A02 SLP085 T02830241 PA131 DA2092=
0129008415999992015112515534+07300+134200FM-15+000099999V0203001N002619999999N999999999+02821+02401100821ADDMA1100811999999REMMET102MOBOB2 METAR XM21 //000 073342 251553Z AUTO 30005KT 28/24 A2977 RMK A02 SLP082 T02820240 PA140 DA2090=
0129008415999992015112516534+07300+134200FM-15+000099999V0203101N003119999999N999999999+02821+02411100751ADDMA1100741999999REMMET102MOBOB2 METAR XM21 //000 073342 251653Z AUTO 31006KT 28/24 A2975 RMK A02 SLP075 T02820241 PA159 DA2115=
0129008415999992015112517534+07300+134200FM-15+000099999V0203201N003119999999N999999999+02811+02411100721ADDMA1100711999999REMMET102MOBOB2 METAR XM21 //000 073342 251753Z AUTO 32006KT 28/24 A2974 RMK A02 SLP072 T02810241 PA168 DA2115=
0129008415999992015112518534+07300+134200FM-15+000099999V0203201N003119999999N999999999+02811+02441100721ADDMA1100711999999REMMET102MOBOB2 METAR XM21 //000 073342 251853Z AUTO 32006KT 28/24 A2974 RMK A02 SLP072 T02810244 PA168 DA2122=
0129008415999992015112519534+07300+134200FM-15+000099999V0203301N002619999999N999999999+02811+02431100751ADDMA1100741999999REMMET102MOBOB2 METAR XM21 //000 073342 251953Z AUTO 33005KT 28/24 A2975 RMK A02 SLP075 T02810243 PA159 DA2108=
0129008415999992015112520534+07300+134200FM-15+000099999V0203301N001519999999N999999999+02801+02431100781ADDMA1100781999999REMMET102MOBOB2 METAR XM21 //000 073342 252053Z AUTO 33003KT 28/24 A2976 RMK A02 SLP078 T02800243 PA149 DA2085=
0129008415999992015112521534+07300+134200FM-15+000099999V0203401N001519999999N999999999+02851+02411100851ADDMA1100851999999REMMET102MOBOB2 METAR XM21 //000 073342 252153Z AUTO 34003KT 29/24 A2978 RMK A02 SLP085 T02850241 PA131 DA2114=
0129008415999992015112522534+07300+134200FM-15+000099999V0203501N002119999999N999999999+02871+02381100921ADDMA1100911999999REMMET102MOBOB2 METAR XM21 //000 073342 252253Z AUTO 35004KT 29/24 A2980 RMK A02 SLP092 T02870238 PA112 DA2107=
0129008415999992015112523534+07300+134200FM-15+000099999V0203501N002119999999N999999999+02891+02391100991ADDMA1100981999999REMMET102MOBOB2 METAR XM21 //000 073342 252353Z AUTO 35004KT 29/24 A2982 RMK A02 SLP099 T02890239 PA094 DA2107=
0129008415999992015112600534+07300+134200FM-15+000099999V0203501N001019999999N999999999+02961+02401101021ADDMA1101021999999REMMET102MOBOB2 METAR XM21 //000 073342 260053Z AUTO 35002KT 30/24 A2983 RMK A02 SLP102 T02960240 PA084 DA2177=
0129008415999992015112601534+07300+134200FM-15+000099999V0203201N001519999999N999999999+02991+02391100951ADDMA1100951999999REMMET102MOBOB2 METAR XM21 //000 073342 260153Z AUTO 32003KT 30/24 A2981 RMK A02 SLP095 T02990239 PA103 DA2231=
0129008415999992015112602534+07300+134200FM-15+000099999V0203001N001019999999N999999999+03061+02401100891ADDMA1100881999999REMMET102MOBOB2 METAR XM21 //000 073342 260253Z AUTO 30002KT 31/24 A2979 RMK A02 SLP089 T03060240 PA122 DA2334=
0129008415999992015112603534+07300+134200FM-15+000099999V0203201N001519999999N999999999+02981+02381100821ADDMA1100811999999REMMET102MOBOB2 METAR XM21 //000 073342 260353Z AUTO 32003KT 30/24 A2977 RMK A02 SLP082 T02980238 PA140 DA2264=
0129008415999992015112604534+07300+134200FM-15+000099999V0203001N001519999999N999999999+03001+02391100751ADDMA1100741999999REMMET102MOBOB2 METAR XM21 //000 073342 260453Z AUTO 30003KT 30/24 A2975 RMK A02 SLP075 T03000239 PA159 DA2310=
0129008415999992015112605534+07300+134200FM-15+000099999V0203101N002119999999N999999999+02991+02361100721ADDMA1100711999999REMMET102MOBOB2 METAR XM21 //000 073342 260553Z AUTO 31004KT 30/24 A2974 RMK A02 SLP072 T02990236 PA168 DA2304=
0129008415999992015112606534+07300+134200FM-15+000099999V0203101N002619999999N999999999+02951+02421100721ADDMA1100711999999REMMET102MOBOB2 METAR XM21 //000 073342 260653Z AUTO 31005KT 30/24 A2974 RMK A02 SLP072 T02950242 PA168 DA2273=
0129008415999992015112607534+07300+134200FM-15+000099999V0203201N001519999999N999999999+02941+02401100781ADDMA1100781999999REMMET102MOBOB2 METAR XM21 //000 073342 260753Z AUTO 32003KT 29/24 A2976 RMK A02 SLP078 T02940240 PA149 DA2236=
0129008415999992015112608534+07300+134200FM-15+000099999V0203501N002119999999N999999999+02891+02421100781ADDMA1100781999999REMMET102MOBOB2 METAR XM21 //000 073342 260853Z AUTO 35004KT 29/24 A2976 RMK A02 SLP078 T02890242 PA149 DA2184=
0129008415999992015112609534+07300+134200FM-15+000099999V0203501N002119999999N999999999+02881+02421100851ADDMA1100851999999REMMET102MOBOB2 METAR XM21 //000 073342 260953Z AUTO 35004KT 29/24 A2978 RMK A02 SLP085 T02880242 PA131 DA2151=
0129008415999992015112610534+07300+134200FM-15+000099999V0200401N002619999999N999999999+02881+02441100921ADDMA1100911999999REMMET102MOBOB2 METAR XM21 //000 073342 261053Z AUTO 04005KT 29/24 A2980 RMK A02 SLP092 T02880244 PA112 DA2132=
0129008415999992015112611534+07300+134200FM-15+000099999V0200601N002619999999N999999999+02871+02461100951ADDMA1100951999999REMMET102MOBOB2 METAR XM21 //000 073342 261153Z AUTO 06005KT 29/25 A2981 RMK A02 SLP095 T02870246 PA103 DA2114=
0129008415999992015112612534+07300+134200FM-15+000099999V0200601N002119999999N999999999+02871+02461100991ADDMA1100981999999REMMET102MOBOB2 METAR XM21 //000 073342 261253Z AUTO 06004KT 29/25 A2982 RMK A02 SLP099 T02870246 PA094 DA2103=
0129008415999992015112613534+07300+134200FM-15+000099999V0200501N003119999999N999999999+02861+02481101021ADDMA1101021999999REMMET102MOBOB2 METAR XM21 //000 073342 261353Z AUTO 05006KT 29/25 A2983 RMK A02 SLP102 T02860248 PA084 DA2085=
0129008415999992015112614534+07300+134200FM-15+000099999V0200801N003119999999N999999999+02841+02501100991ADDMA1100981999999REMMET102MOBOB2 METAR XM21 //000 073342 261453Z AUTO 08006KT 28/25 A2982 RMK A02 SLP099 T02840250 PA094 DA2078=
0129008415999992015112615534+07300+134200FM-15+000099999V0200701N003119999999N999999999+02831+02491100951ADDMA1100951999999REMMET102MOBOB2 METAR XM21 //000 073342 261553Z AUTO 07006KT 28/25 A2981 RMK A02 SLP095 T02830249 PA103 DA2076=
0129008415999992015112616534+07300+134200FM-15+000099999V0200601N003619999999N999999999+02821+02481100951ADDMA1100951999999REMMET102MOBOB2 METAR XM21 //000 073342 261653Z AUTO 06007KT 28/25 A2981 RMK A02 SLP095 T02820248 PA103 DA2063=
0129008415999992015112617534+07300+134200FM-15+000099999V0200501N003119999999N999999999+02811+02481100921ADDMA1100911999999REMMET102MOBOB2 METAR XM21 //000 073342 261753Z AUTO 05006KT 28/25 A2980 RMK A02 SLP092 T02810248 PA112 DA2062=
0129008415999992015112618534+07300+134200FM-15+000099999V0200201N002619999999N999999999+02811+02431100891ADDMA1100881999999REMMET102MOBOB2 METAR XM21 //000 073342 261853Z AUTO 02005KT 28/24 A2979 RMK A02 SLP089 T02810243 PA122 DA2061=
0129008415999992015112619534+07300+134200FM-15+000099999V0200301N002119999999N999999999+02811+02361100891ADDMA1100881999999REMMET102MOBOB2 METAR XM21 //000 073342 261953Z AUTO 03004KT 28/24 A2979 RMK A02 SLP089 T02810236 PA122 DA2046=
0129008415999992015112620534+07300+134200FM-15+000099999V0200301N002619999999N999999999+02821+02361100951ADDMA1100951999999REMMET102MOBOB2 METAR XM21 //000 073342 262053Z AUTO 03005KT 28/24 A2981 RMK A02 SLP095 T02820236 PA103 DA2036=
0129008415999992015112621534+07300+134200FM-15+000099999V0200101N002619999999N999999999+02851+02321100951ADDMA1100951999999REMMET102MOBOB2 METAR XM21 //000 073342 262153Z AUTO 01005KT 29/23 A2981 RMK A02 SLP095 T02850232 PA103 DA2059=
0129008415999992015112622534+07300+134200FM-15+000099999V0200401N002619999999N999999999+02861+02391101021ADDMA1101021999999REMMET102MOBOB2 METAR XM21 //000 073342 262253Z AUTO 04005KT 29/24 A2983 RMK A02 SLP102 T02860239 PA084 DA2063=
0129008415999992015112623534+07300+134200FM-15+000099999V0200301N002619999999N999999999+02871+02341101061ADDMA1101051999999REMMET102MOBOB2 METAR XM21 //000 073342 262353Z AUTO 03005KT 29/23 A2984 RMK A02 SLP106 T02870234 PA075 DA2052=
0129008415999992015112700534+07300+134200FM-15+000099999V0200201N002619999999N999999999+02871+02391101061ADDMA1101051999999REMMET102MOBOB2 METAR XM21 //000 073342 270053Z AUTO 02005KT 29/24 A2984 RMK A02 SLP106 T02870239 PA075 DA2063=
0129008415999992015112701534+07300+134200FM-15+000099999V0200401N003119999999N999999999+02881+02411101021ADDMA1101021999999REMMET102MOBOB2 METAR XM21 //000 073342 270153Z AUTO 04006KT 29/24 A2983 RMK A02 SLP102 T02880241 PA084 DA2091=
0129008415999992015112702534+07300+134200FM-15+000099999V0200101N003119999999N999999999+02911+02361101021ADDMA1101021999999REMMET102MOBOB2 METAR XM21 //000 073342 270253Z AUTO 01006KT 29/24 A2983 RMK A02 SLP102 T02910236 PA084 DA2112=
0129008415999992015112703534+07300+134200FM-15+000099999V0200101N003119999999N999999999+02901+02321100951ADDMA1100951999999REMMET102MOBOB2 METAR XM21 //000 073342 270353Z AUTO 01006KT 29/23 A2981 RMK A02 SLP095 T02900232 PA103 DA2115=
0129008415999992015112704534+07300+134200FM-15+000099999V0200301N003119999999N999999999+02891+02401100851ADDMA1100851999999REMMET102MOBOB2 METAR XM21 //000 073342 270453Z AUTO 03006KT 29/24 A2978 RMK A02 SLP085 T02890240 PA131 DA2155=
0129008415999992015112705534+07300+134200FM-15+000099999V0200201N004619999999N999999999+02901+02411100821ADDMA1100811999999REMMET102MOBOB2 METAR XM21 //000 073342 270553Z AUTO 02009KT 29/24 A2977 RMK A02 SLP082 T02900241 PA140 DA2180=
0129008415999992015112706534+07300+134200FM-15+000099999V0200301N003619999999N999999999+02881+02471100821ADDMA1100811999999REMMET102MOBOB2 METAR XM21 //000 073342 270653Z AUTO 03007KT 29/25 A2977 RMK A02 SLP082 T02880247 PA140 DA2172=
0140008415999992015112707534+07300+134200FM-15+000099999V0203601N005119999999N999999999+02901+02471100851ADDMA1100851999999OC100621REMMET105MOBOB2 METAR XM21 //000 073342 270753Z AUTO 36010G12KT 29/25 A2978 RMK A02 SLP085 T02900247 PA131 DA2185=
0140008415999992015112708534+07300+134200FM-15+000099999V0200101N006219999999N999999999+02881+02511100921ADDMA1100911999999OC100771REMMET105MOBOB2 METAR XM21 //000 073342 270853Z AUTO 01012G15KT 29/25 A2980 RMK A02 SLP092 T02880251 PA112 DA2148=
0167008415999992015112709534+07300+134200FM-15+000099999V0200401N006219999999N999999999+02761+02441100991ADDAA101001231AW1611MA1100981999999OC100721REMMET115MOBOB2 METAR XM21 //000 073342 270953Z AUTO 04012G14KT -RA 28/24 A2982 RMK A02 SLP099 P0005 T02760244 PA094 DA1975=
0129008415999992015112710534+07300+134200FM-15+000099999V0200701N004119999999N999999999+02821+02511101061ADDMA1101051999999REMMET102MOBOB2 METAR XM21 //000 073342 271053Z AUTO 07008KT 28/25 A2984 RMK A02 SLP106 T02820251 PA075 DA2035=
0129008415999992015112711534+07300+134200FM-15+000099999V0200501N003619999999N999999999+02831+02491101061ADDMA1101051999999REMMET102MOBOB2 METAR XM21 //000 073342 271153Z AUTO 05007KT 28/25 A2984 RMK A02 SLP106 T02830249 PA075 DA2043=
0129008415999992015112712534+07300+134200FM-15+000099999V0200401N004119999999N999999999+02841+02541101061ADDMA1101051999999REMMET102MOBOB2 METAR XM21 //000 073342 271253Z AUTO 04008KT 28/25 A2984 RMK A02 SLP106 T02840254 PA075 DA2065=
0140008415999992015112713534+07300+134200FM-15+000099999V0200401N005719999999N999999999+02861+02471101061ADDMA1101051999999OC100721REMMET105MOBOB2 METAR XM21 //000 073342 271353Z AUTO 04011G14KT 29/25 A2984 RMK A02 SLP106 T02860247 PA075 DA2070=
0140008415999992015112714534+07300+134200FM-15+000099999V0200501N006219999999N999999999+02861+02491101061ADDMA1101051999999OC100771REMMET105MOBOB2 METAR XM21 //000 073342 271453Z AUTO 05012G15KT 29/25 A2984 RMK A02 SLP106 T02860249 PA075 DA2075=
0140008415999992015112715534+07300+134200FM-15+000099999V0200601N006719999999N999999999+02851+02391100991ADDMA1100981999999OC100821REMMET105MOBOB2 METAR XM21 //000 073342 271553Z AUTO 06013G16KT 29/24 A2982 RMK A02 SLP099 T02850239 PA094 DA2063=
0140008415999992015112716534+07300+134200FM-15+000099999V0200601N005719999999N999999999+02831+02451100951ADDMA1100951999999OC100671REMMET105MOBOB2 METAR XM21 //000 073342 271653Z AUTO 06011G13KT 28/24 A2981 RMK A02 SLP095 T02830245 PA103 DA2065=
0129008415999992015112717534+07300+134200FM-15+000099999V0200601N004619999999N999999999+02831+02441100891ADDMA1100881999999REMMET102MOBOB2 METAR XM21 //000 073342 271753Z AUTO 06009KT 28/24 A2979 RMK A02 SLP089 T02830244 PA122 DA2087=
0129008415999992015112718534+07300+134200FM-15+000099999V0200601N004619999999N999999999+02841+02461100891ADDMA1100881999999REMMET102MOBOB2 METAR XM21 //000 073342 271853Z AUTO 06009KT 28/25 A2979 RMK A02 SLP089 T02840246 PA122 DA2104=
0140008415999992015112719534+07300+134200FM-15+000099999V0200601N005119999999N999999999+02831+02481100921ADDMA1100911999999OC100671REMMET105MOBOB2 METAR XM21 //000 073342 271953Z AUTO 06010G13KT 28/25 A2980 RMK A02 SLP092 T02830248 PA112 DA2085=
0129008415999992015112720534+07300+134200FM-15+000099999V0200701N004619999999N999999999+02821+02441100951ADDMA1100951999999REMMET102MOBOB2 METAR XM21 //000 073342 272053Z AUTO 07009KT 28/24 A2981 RMK A02 SLP095 T02820244 PA103 DA2053=
0129008415999992015112721534+07300+134200FM-15+000099999V0200701N004119999999N999999999+02861+02461100991ADDMA1100981999999REMMET102MOBOB2 METAR XM21 //000 073342 272153Z AUTO 07008KT 29/25 A2982 RMK A02 SLP099 T02860246 PA094 DA2090=
0167008415999992015112722534+07300+134200FM-15+000099999V0201001N005119999999N999999999+02741+02501101091ADDAA101001231AW1611MA1101081999999OC100771REMMET115MOBOB2 METAR XM21 //000 073342 272253Z AUTO 10010G15KT -RA 27/25 A2985 RMK A02 SLP109 P0005 T02740250 PA066 DA1931=
0129008415999992015112723534+07300+134200FM-15+000099999V0200601N003119999999N999999999+02841+02491101121ADDMA1101121999999REMMET102MOBOB2 METAR XM21 //000 073342 272353Z AUTO 06006KT 28/25 A2986 RMK A02 SLP112 T02840249 PA057 DA2031=
0140008415999992015112800534+07300+134200FM-15+000099999V0200801N006219999999N999999999+02931+02441101091ADDMA1101081999999OC100771REMMET105MOBOB2 METAR XM21 //000 073342 280053Z AUTO 08012G15KT 29/24 A2985 RMK A02 SLP109 T02930244 PA066 DA2130=
0140008415999992015112801534+07300+134200FM-15+000099999V0200801N006219999999N999999999+02971+02401101061ADDMA1101051999999OC100881REMMET105MOBOB2 METAR XM21 //000 073342 280153Z AUTO 08012G17KT 30/24 A2984 RMK A02 SLP106 T02970240 PA075 DA2177=
0140008415999992015112802534+07300+134200FM-15+000099999V0200901N008219999999N999999999+02981+02411100991ADDMA1100981999999OC100981REMMET105MOBOB2 METAR XM21 //000 073342 280253Z AUTO 09016G19KT 30/24 A2982 RMK A02 SLP099 T02980241 PA094 DA2213=
0140008415999992015112803534+07300+134200FM-15+000099999V0200901N006719999999N999999999+02991+02411100921ADDMA1100911999999OC100821REMMET105MOBOB2 METAR XM21 //000 073342 280353Z AUTO 09013G16KT 30/24 A2980 RMK A02 SLP092 T02990241 PA112 DA2247=
0167008415999992015112804534+07300+134200FM-15+000099999V0201001N010319999999N999999999+02791+02431100851ADDAA101000021AW1611MA1100851999999OC101181REMMET115MOBOB2 METAR XM21 //000 073342 280453Z AUTO 10020G23KT -RA 28/24 A2978 RMK A02 SLP085 P0000 T02790243 PA131 DA2052=
0140008415999992015112805534+07300+134200FM-15+000099999V0200801N006719999999N999999999+02931+02371100821ADDMA1100811999999OC100931REMMET105MOBOB2 METAR XM21 //000 073342 280553Z AUTO 08013G18KT 29/24 A2977 RMK A02 SLP082 T02930237 PA140 DA2205=
0140008415999992015112806534+07300+134200FM-15+000099999V0200701N007719999999N999999999+02951+02371100781ADDMA1100781999999OC101181REMMET105MOBOB2 METAR XM21 //000 073342 280653Z AUTO 07015G23KT 30/24 A2976 RMK A02 SLP078 T02950237 PA149 DA2239=
0140008415999992015112807534+07300+134200FM-15+000099999V0200701N005719999999N999999999+02941+02361100851ADDMA1100851999999OC100721REMMET105MOBOB2 METAR XM21 //000 073342 280753Z AUTO 07011G14KT 29/24 A2978 RMK A02 SLP085 T02940236 PA131 DA2203=
0140008415999992015112808534+07300+134200FM-15+000099999V0200601N005719999999N999999999+02901+02311100891ADDMA1100881999999OC100721REMMET105MOBOB2 METAR XM21 //000 073342 280853Z AUTO 06011G14KT 29/23 A2979 RMK A02 SLP089 T02900231 PA122 DA2135=
0140008415999992015112809534+07300+134200FM-15+000099999V0200701N006219999999N999999999+02881+02291100951ADDMA1100951999999OC100821REMMET105MOBOB2 METAR XM21 //000 073342 280953Z AUTO 07012G16KT 29/23 A2981 RMK A02 SLP095 T02880229 PA103 DA2087=
0140008415999992015112810534+07300+134200FM-15+000099999V0200601N005719999999N999999999+02891+02361101021ADDMA1101021999999OC100771REMMET105MOBOB2 METAR XM21 //000 073342 281053Z AUTO 06011G15KT 29/24 A2983 RMK A02 SLP102 T02890236 PA084 DA2091=
0140008415999992015112811534+07300+134200FM-15+000099999V0200701N005719999999N999999999+02791+02421101091ADDMA1101081999999OC100721REMMET105MOBOB2 METAR XM21 //000 073342 281153Z AUTO 07011G14KT 28/24 A2985 RMK A02 SLP109 T02790242 PA066 DA1970=
0129008415999992015112812534+07300+134200FM-15+000099999V0200601N003619999999N999999999+02801+02361101091ADDMA1101081999999REMMET102MOBOB2 METAR XM21 //000 073342 281253Z AUTO 06007KT 28/24 A2985 RMK A02 SLP109 T02800236 PA066 DA1968=
0140008415999992015112813534+07300+134200FM-15+000099999V0200501N005119999999N999999999+02801+02431101091ADDMA1101081999999OC100671REMMET105MOBOB2 METAR XM21 //000 073342 281353Z AUTO 05010G13KT 28/24 A2985 RMK A02 SLP109 T02800243 PA066 DA1982=
0167008415999992015112814534+07300+134200FM-15+000099999V0200401N005119999999N999999999+02751+02511101091ADDAA101000021AW1611MA1101081999999OC100671REMMET115MOBOB2 METAR XM21 //000 073342 281453Z AUTO 04010G13KT -RA 28/25 A2985 RMK A02 SLP109 P0000 T02750251 PA066 DA1944=
0129008415999992015112815534+07300+134200FM-15+000099999V0200501N004119999999N999999999+02791+02491101091ADDMA1101081999999REMMET102MOBOB2 METAR XM21 //000 073342 281553Z AUTO 05008KT 28/25 A2985 RMK A02 SLP109 T02790249 PA066 DA1984=
0129008415999992015112816534+07300+134200FM-15+000099999V0200501N004119999999N999999999+02801+02471100991ADDMA1100981999999REMMET102MOBOB2 METAR XM21 //000 073342 281653Z AUTO 05008KT 28/25 A2982 RMK A02 SLP099 T02800247 PA094 DA2025=
0129008415999992015112817534+07300+134200FM-15+000099999V0200401N003619999999N999999999+02821+02501100921ADDMA1100911999999REMMET102MOBOB2 METAR XM21 //000 073342 281753Z AUTO 04007KT 28/25 A2980 RMK A02 SLP092 T02820250 PA112 DA2077=
0167008415999992015112818534+07300+134200FM-15+000099999V0200501N007219999999N999999999+02831+02511100921ADDAA101002731AW1611MA1100911999999OC100931REMMET115MOBOB2 METAR XM21 //000 073342 281853Z AUTO 05014G18KT -RA 28/25 A2980 RMK A02 SLP092 P0011 T02830251 PA112 DA2091=
0140008415999992015112819534+07300+134200FM-15+000099999V0200601N007219999999N999999999+02831+02451100921ADDMA1100911999999OC100881REMMET105MOBOB2 METAR XM21 //000 073342 281953Z AUTO 06014G17KT 28/25 A2980 RMK A02 SLP092 T02830245 PA112 DA2078=
0140008415999992015112820534+07300+134200FM-15+000099999V0200601N006719999999N999999999+02831+02461100991ADDMA1100981999999OC100821REMMET105MOBOB2 METAR XM21 //000 073342 282053Z AUTO 06013G16KT 28/25 A2982 RMK A02 SLP099 T02830246 PA094 DA2058=
0140008415999992015112821534+07300+134200FM-15+000099999V0200601N006219999999N999999999+02831+02481101061ADDMA1101051999999OC100771REMMET105MOBOB2 METAR XM21 //000 073342 282153Z AUTO 06012G15KT 28/25 A2984 RMK A02 SLP106 T02830248 PA075 DA2040=
0140008415999992015112822534+07300+134200FM-15+000099999V0200601N006219999999N999999999+02871+02451101121ADDMA1101121999999OC100881REMMET105MOBOB2 METAR XM21 //000 073342 282253Z AUTO 06012G17KT 29/24 A2986 RMK A02 SLP112 T02870245 PA057 DA2054=
0140008415999992015112823534+07300+134200FM-15+000099999V0200701N007219999999N999999999+02931+02371101121ADDMA1101121999999OC100981REMMET105MOBOB2 METAR XM21 //000 073342 282353Z AUTO 07014G19KT 29/24 A2986 RMK A02 SLP112 T02930237 PA057 DA2102=
0140008415999992015112900534+07300+134200FM-15+000099999V0200701N007719999999N999999999+02961+02381101121ADDMA1101121999999OC101031REMMET105MOBOB2 METAR XM21 //000 073342 290053Z AUTO 07015G20KT 30/24 A2986 RMK A02 SLP112 T02960238 PA057 DA2139=
0140008415999992015112901534+07300+134200FM-15+000099999V0200901N007719999999N999999999+02831+02391101061ADDMA1101051999999OC100981REMMET105MOBOB2 METAR XM21 //000 073342 290153Z AUTO 09015G19KT 28/24 A2984 RMK A02 SLP106 T02830239 PA075 DA2018=
0140008415999992015112902534+07300+134200FM-15+000099999V0200801N005719999999N999999999+02871+02381101021ADDMA1101021999999OC100771REMMET105MOBOB2 METAR XM21 //000 073342 290253Z AUTO 08011G15KT 29/24 A2983 RMK A02 SLP102 T02870238 PA084 DA2072=
0140008415999992015112903534+07300+134200FM-15+000099999V0200801N007719999999N999999999+02881+02441100951ADDMA1100951999999OC100981REMMET105MOBOB2 METAR XM21 //000 073342 290353Z AUTO 08015G19KT 29/24 A2981 RMK A02 SLP095 T02880244 PA103 DA2121=
0140008415999992015112904534+07300+134200FM-15+000099999V0201001N004619999999N999999999+02741+02301100851ADDMA1100851999999OC100671REMMET105MOBOB2 METAR XM21 //000 073342 290453Z AUTO 10009G13KT 27/23 A2978 RMK A02 SLP085 T02740230 PA131 DA1967=
0129008415999992015112905534+07300+134200FM-15+000099999V0200801N002619999999N999999999+02671+02361100821ADDMA1100811999999REMMET102MOBOB2 METAR XM21 //000 073342 290553Z AUTO 08005KT 27/24 A2977 RMK A02 SLP082 T02670236 PA140 DA1912=
0129008415999992015112906534+07300+134200FM-15+000099999V0200901N003119999999N999999999+02751+02361100851ADDMA1100851999999REMMET102MOBOB2 METAR XM21 //000 073342 290653Z AUTO 09006KT 28/24 A2978 RMK A02 SLP085 T02750236 PA131 DA1990=
0167008415999992015112907534+07300+134200FM-15+000099999V0200801N005119999999N999999999+02771+02461100851ADDAA101000021AW1611MA1100851999999OC100671REMMET115MOBOB2 METAR XM21 //000 073342 290753Z AUTO 08010G13KT -RA 28/25 A2978 RMK A02 SLP085 P0000 T02770246 PA131 DA2036=
0129008415999992015112908534+07300+134200FM-15+000099999V0200701N004119999999N999999999+02781+02451100921ADDMA1100911999999REMMET102MOBOB2 METAR XM21 //000 073342 290853Z AUTO 07008KT 28/24 A2980 RMK A02 SLP092 T02780245 PA112 DA2021=
0140008415999992015112909534+07300+134200FM-15+000099999V0200601N004619999999N999999999+02771+02421100951ADDMA1100951999999OC100671REMMET105MOBOB2 METAR XM21 //000 073342 290953Z AUTO 06009G13KT 28/24 A2981 RMK A02 SLP095 T02770242 PA103 DA1991=
0140008415999992015112910534+07300+134200FM-15+000099999V0200501N005119999999N999999999+02801+02481101021ADDMA1101021999999OC100671REMMET105MOBOB2 METAR XM21 //000 073342 291053Z AUTO 05010G13KT 28/25 A2983 RMK A02 SLP102 T02800248 PA084 DA2016=
0129008415999992015112911534+07300+134200FM-15+000099999V0200701N004119999999N999999999+02831+02441101061ADDMA1101051999999REMMET102MOBOB2 METAR XM21 //000 073342 291153Z AUTO 07008KT 28/24 A2984 RMK A02 SLP106 T02830244 PA075 DA2030=
0140008415999992015112912544+07300+134200FM-15+000099999V0200601N004619999999N999999999+02831+02411101021ADDMA1101021999999OC100621REMMET105MOBOB2 METAR XM21 //000 073342 291254Z AUTO 06009G12KT 28/24 A2983 RMK A02 SLP102 T02830241 PA084 DA2034=
0140008415999992015112913534+07300+134200FM-15+000099999V0200501N004619999999N999999999+02831+02491101021ADDMA1101021999999OC100621REMMET105MOBOB2 METAR XM21 //000 073342 291353Z AUTO 05009G12KT 28/25 A2983 RMK A02 SLP102 T02830249 PA084 DA2052=
0140008415999992015112914534+07300+134200FM-15+000099999V0200501N005119999999N999999999+02821+02471100991ADDMA1100981999999OC100621REMMET105MOBOB2 METAR XM21 //000 073342 291453Z AUTO 05010G12KT 28/25 A2982 RMK A02 SLP099 T02820247 PA094 DA2048=
0140008415999992015112915534+07300+134200FM-15+000099999V0200501N005119999999N999999999+02841+02461100921ADDMA1100911999999OC100671REMMET105MOBOB2 METAR XM21 //000 073342 291553Z AUTO 05010G13KT 28/25 A2980 RMK A02 SLP092 T02840246 PA112 DA2092=
0129008415999992015112916534+07300+134200FM-15+000099999V0200501N005119999999N999999999+02821+02431100851ADDMA1100851999999REMMET102MOBOB2 METAR XM21 //000 073342 291653Z AUTO 05010KT 28/24 A2978 RMK A02 SLP085 T02820243 PA131 DA2085=
0140008415999992015112917534+07300+134200FM-15+000099999V0200501N005719999999N999999999+02801+02451100821ADDMA1100811999999OC100671REMMET105MOBOB2 METAR XM21 //000 073342 291753Z AUTO 05011G13KT 28/24 A2977 RMK A02 SLP082 T02800245 PA140 DA2078=
0129008415999992015112918534+07300+134200FM-15+000099999V0200501N004619999999N999999999+02801+02441100821ADDMA1100811999999REMMET102MOBOB2 METAR XM21 //000 073342 291853Z AUTO 05009KT 28/24 A2977 RMK A02 SLP082 T02800244 PA140 DA2077=
0129008415999992015112919534+07300+134200FM-15+000099999V0200401N004619999999N999999999+02801+02441100821ADDMA1100811999999REMMET102MOBOB2 METAR XM21 //000 073342 291953Z AUTO 04009KT 28/24 A2977 RMK A02 SLP082 T02800244 PA140 DA2076=
0129008415999992015112920534+07300+134200FM-15+000099999V0200401N004119999999N999999999+02791+02481100851ADDMA1100851999999REMMET102MOBOB2 METAR XM21 //000 073342 292053Z AUTO 04008KT 28/25 A2978 RMK A02 SLP085 T02790248 PA131 DA2064=
0129008415999992015112921534+07300+134200FM-15+000099999V0200501N004619999999N999999999+02821+02451100921ADDMA1100911999999REMMET102MOBOB2 METAR XM21 //000 073342 292153Z AUTO 05009KT 28/24 A2980 RMK A02 SLP092 T02820245 PA112 DA2066=
0129008415999992015112922534+07300+134200FM-15+000099999V0200601N003619999999N999999999+02841+02441100991ADDMA1100981999999REMMET102MOBOB2 METAR XM21 //000 073342 292253Z AUTO 06007KT 28/24 A2982 RMK A02 SLP099 T02840244 PA094 DA2065=
0129008415999992015112923534+07300+134200FM-15+000099999V0200701N003619999999N999999999+02871+02411101021ADDMA1101021999999REMMET102MOBOB2 METAR XM21 //000 073342 292353Z AUTO 07007KT 29/24 A2983 RMK A02 SLP102 T02870241 PA084 DA2080=
0129008415999992015113000534+07300+134200FM-15+000099999V0200801N003619999999N999999999+02881+02411100991ADDMA1100981999999REMMET102MOBOB2 METAR XM21 //000 073342 300053Z AUTO 08007KT 29/24 A2982 RMK A02 SLP099 T02880241 PA094 DA2100=
0129008415999992015113001534+07300+134200FM-15+000099999V0201201N002619999999N999999999+02931+02351100951ADDMA1100951999999REMMET102MOBOB2 METAR XM21 //000 073342 300153Z AUTO 12005KT 29/23 A2981 RMK A02 SLP095 T02930235 PA103 DA2155=
0129008415999992015113002534+07300+134200FM-15+000099999V0201201N004119999999N999999999+02951+02411100891ADDMA1100881999999REMMET102MOBOB2 METAR XM21 //000 073342 300253Z AUTO 12008KT 30/24 A2979 RMK A02 SLP089 T02950241 PA122 DA2214=
0129008415999992015113003534+07300+134200FM-15+000099999V0201301N003619999999N999999999+02921+02481100851ADDMA1100851999999REMMET102MOBOB2 METAR XM21 //000 073342 300353Z AUTO 13007KT 29/25 A2978 RMK A02 SLP085 T02920248 PA131 DA2209=
0156008415999992015113004534+07300+134200FM-15+000099999V0201501N003119999999N999999999+02781+02481100781ADDAA101004831AW1611MA1100781999999REMMET112MOBOB2 METAR XM21 //000 073342 300453Z AUTO 15006KT -RA 28/25 A2976 RMK A02 SLP078 P0019 T02780248 PA149 DA2076=
0156008415999992015113005534+07300+134200FM-15+000099999V0201501N003119999999N999999999+02831+02531100781ADDAA101000021AW1611MA1100781999999REMMET112MOBOB2 METAR XM21 //000 073342 300553Z AUTO 15006KT -RA 28/25 A2976 RMK A02 SLP078 P0000 T02830253 PA149 DA2143=
0129008415999992015113006534+07300+134200FM-15+000099999V0200801N003619999999N999999999+02941+02421100781ADDMA1100781999999REMMET102MOBOB2 METAR XM21 //000 073342 300653Z AUTO 08007KT 29/24 A2976 RMK A02 SLP078 T02940242 PA149 DA2239=
0129008415999992015113007534+07300+134200FM-15+000099999V0201101N004119999999N999999999+02921+02411100781ADDMA1100781999999REMMET102MOBOB2 METAR XM21 //000 073342 300753Z AUTO 11008KT 29/24 A2976 RMK A02 SLP078 T02920241 PA149 DA2214=
0129008415999992015113008534+07300+134200FM-15+000099999V0201001N003619999999N999999999+02901+02421100851ADDMA1100851999999REMMET102MOBOB2 METAR XM21 //000 073342 300853Z AUTO 10007KT 29/24 A2978 RMK A02 SLP085 T02900242 PA131 DA2171=
0129008415999992015113009534+07300+134200FM-15+000099999V0200801N003119999999N999999999+02871+02421100891ADDMA1100881999999REMMET102MOBOB2 METAR XM21 //000 073342 300953Z AUTO 08006KT 29/24 A2979 RMK A02 SLP089 T02870242 PA122 DA2128=
0129008415999992015113010534+07300+134200FM-15+000099999V0201401N004119999999N999999999+02821+02421100951ADDMA1100951999999REMMET102MOBOB2 METAR XM21 //000 073342 301053Z AUTO 14008KT 28/24 A2981 RMK A02 SLP095 T02820242 PA103 DA2048=
0129008415999992015113011534+07300+134200FM-15+000099999V0200901N002119999999N999999999+02851+02471100991ADDMA1100981999999REMMET102MOBOB2 METAR XM21 //000 073342 301153Z AUTO 09004KT 29/25 A2982 RMK A02 SLP099 T02850247 PA094 DA2081=
0129008415999992015113012534+07300+134200FM-15+000099999V0201001N003119999999N999999999+02861+02461100991ADDMA1100981999999REMMET102MOBOB2 METAR XM21 //000 073342 301253Z AUTO 10006KT 29/25 A2982 RMK A02 SLP099 T02860246 PA094 DA2091=
0129008415999992015113013534+07300+134200FM-15+000099999V0200901N003119999999N999999999+02861+02441100951ADDMA1100951999999REMMET102MOBOB2 METAR XM21 //000 073342 301353Z AUTO 09006KT 29/24 A2981 RMK A02 SLP095 T02860244 PA103 DA2099=
0129008415999992015113014534+07300+134200FM-15+000099999V0200901N002619999999N999999999+02851+02451100951ADDMA1100951999999REMMET102MOBOB2 METAR XM21 //000 073342 301453Z AUTO 09005KT 29/25 A2981 RMK A02 SLP095 T02850245 PA103 DA2089=
0129008415999992015113015534+07300+134200FM-15+000099999V0200801N002119999999N999999999+02841+02421100921ADDMA1100911999999REMMET102MOBOB2 METAR XM21 //000 073342 301553Z AUTO 08004KT 28/24 A2980 RMK A02 SLP092 T02840242 PA112 DA2082=
0156008415999992015113016534+07300+134200FM-15+000099999V0200901N002619999999N999999999+02611+02361100821ADDAA101003331AW1611MA1100811999999REMMET112MOBOB2 METAR XM21 //000 073342 301653Z AUTO 09005KT -RA 26/24 A2977 RMK A02 SLP082 P0013 T02610236 PA140 DA1844=
0156008415999992015113017534+07300+134200FM-15+000099999V0200701N004619999999N999999999+02711+02401100821ADDAA101000021AW1611MA1100811999999REMMET112MOBOB2 METAR XM21 //000 073342 301753Z AUTO 07009KT -RA 27/24 A2977 RMK A02 SLP082 P0000 T02710240 PA140 DA1966=
0129008415999992015113018534+07300+134200FM-15+000099999V0200701N003119999999N999999999+02701+02411100821ADDMA1100811999999REMMET102MOBOB2 METAR XM21 //000 073342 301853Z AUTO 07006KT 27/24 A2977 RMK A02 SLP082 T02700241 PA140 DA1956=
0129008415999992015113019534+07300+134200FM-15+000099999V0200701N001519999999N999999999+02711+02421100851ADDMA1100851999999REMMET102MOBOB2 METAR XM21 //000 073342 301953Z AUTO 07003KT 27/24 A2978 RMK A02 SLP085 T02710242 PA131 DA1959=
0129008415999992015113020534+07300+134200FM-15+000099999V0200601N002119999999N999999999+02751+02451100921ADDMA1100911999999REMMET102MOBOB2 METAR XM21 //000 073342 302053Z AUTO 06004KT 28/24 A2980 RMK A02 SLP092 T02750245 PA112 DA1987=
0129008415999992015113021534+07300+134200FM-15+000099999V0200501N002619999999N999999999+02791+02451100991ADDMA1100981999999REMMET102MOBOB2 METAR XM21 //000 073342 302153Z AUTO 05005KT 28/25 A2982 RMK A02 SLP099 T02790245 PA094 DA2011=
0129008415999992015113022534+07300+134200FM-15+000099999V0200301N002119999999N999999999+02821+02501101061ADDMA1101051999999REMMET102MOBOB2 METAR XM21 //000 073342 302253Z AUTO 03004KT 28/25 A2984 RMK A02 SLP106 T02820250 PA075 DA2033=
0129008415999992015113023534+07300+134200FM-15+000099999V0200201N002119999999N999999999+02831+02471101061ADDMA1101051999999REMMET102MOBOB2 METAR XM21 //000 073342 302353Z AUTO 02004KT 28/25 A2984 RMK A02 SLP106 T02830247 PA075 DA2037=
0129008415999992015120100534+07300+134200FM-15+000099999V0200201N003619999999N999999999+02851+02461101061ADDMA1101051999999REMMET102MOBOB2 METAR XM21 //000 073342 010053Z AUTO 02007KT 29/25 A2984 RMK A02 SLP106 T02850246 PA075 DA2056=
0129008415999992015120101534+07300+134200FM-15+000099999V0200101N003119999999N999999999+02871+02471100991ADDMA1100981999999REMMET102MOBOB2 METAR XM21 //000 073342 010153Z AUTO 01006KT 29/25 A2982 RMK A02 SLP099 T02870247 PA094 DA2105=
0129008415999992015120102534+07300+134200FM-15+000099999V0200101N003619999999N999999999+02891+02441100921ADDMA1100911999999REMMET102MOBOB2 METAR XM21 //000 073342 010253Z AUTO 01007KT 29/24 A2980 RMK A02 SLP092 T02890244 PA112 DA2143=
0140008415999992015120103534+07300+134200FM-15+000099999V0200101N006719999999N999999999+02921+02431100851ADDMA1100851999999OC100881REMMET105MOBOB2 METAR XM21 //000 073342 010353Z AUTO 01013G17KT 29/24 A2978 RMK A02 SLP085 T02920243 PA131 DA2197=
0140008415999992015120104534+07300+134200FM-15+000099999V0200101N007719999999N999999999+02911+02461100751ADDMA1100741999999OC100881REMMET105MOBOB2 METAR XM21 //000 073342 010453Z AUTO 01015G17KT 29/25 A2975 RMK A02 SLP075 T02910246 PA159 DA2228=
0140008415999992015120105534+07300+134200FM-15+000099999V0200401N010819999999N999999999+02821+02411100781ADDMA1100781999999OC101241REMMET105MOBOB2 METAR XM21 //000 073342 010553Z AUTO 04021G24KT 28/24 A2976 RMK A02 SLP078 T02820241 PA149 DA2104=
0140008415999992015120106534+07300+134200FM-15+000099999V0200401N008819999999N999999999+02841+02391100781ADDMA1100781999999OC101031REMMET105MOBOB2 METAR XM21 //000 073342 010653Z AUTO 04017G20KT 28/24 A2976 RMK A02 SLP078 T02840239 PA149 DA2122=
0140008415999992015120107534+07300+134200FM-15+000099999V0200401N010319999999N999999999+02801+02311100851ADDMA1100851999999OC101241REMMET105MOBOB2 METAR XM21 //000 073342 010753Z AUTO 04020G24KT 28/23 A2978 RMK A02 SLP085 T02800231 PA131 DA2036=
0167008415999992015120108534+07300+134200FM-15+000099999V0200401N012919999999N999999999+02701+02331100921ADDAA101000021AW1611MA1100911999999OC101601REMMET115MOBOB2 METAR XM21 //000 073342 010853Z AUTO 04025G31KT -RA 27/23 A2980 RMK A02 SLP092 P0000 T02700233 PA112 DA1905=
0140008415999992015120109534+07300+134200FM-15+000099999V0200401N013419999999N999999999+02691+02351100951ADDMA1100951999999OC101601REMMET105MOBOB2 METAR XM21 //000 073342 010953Z AUTO 04026G31KT 27/24 A2981 RMK A02 SLP095 T02690235 PA103 DA1887=
0156008415999992015120110534+07300+134200FM-15+000099999V0209999C000019999999N999999999+02711+02381101021ADDAA101001531AW1611MA1101021999999REMMET112MOBOB2 METAR XM21 //000 073342 011053Z AUTO 00000KT -RA 27/24 A2983 RMK A02 SLP102 P0006 T02710238 PA084 DA1893=
0140008415999992015120111534+07300+134200FM-15+000099999V0200601N010319999999N999999999+02711+02421101091ADDMA1101081999999OC101291REMMET105MOBOB2 METAR XM21 //000 073342 011153Z AUTO 06020G25KT 27/24 A2985 RMK A02 SLP109 T02710242 PA066 DA1880=
0140008415999992015120112534+07300+134200FM-15+000099999V0200601N008819999999N999999999+02751+02391101061ADDMA1101051999999OC101131REMMET105MOBOB2 METAR XM21 //000 073342 011253Z AUTO 06017G22KT 28/24 A2984 RMK A02 SLP106 T02750239 PA075 DA1930=
0140008415999992015120113534+07300+134200FM-15+000099999V0200601N008219999999N999999999+02731+02421100991ADDMA1100981999999OC101031REMMET105MOBOB2 METAR XM21 //000 073342 011353Z AUTO 06016G20KT 27/24 A2982 RMK A02 SLP099 T02730242 PA094 DA1935=
0140008415999992015120114534+07300+134200FM-15+000099999V0200601N006719999999N999999999+02811+02311101021ADDMA1101021999999OC100931REMMET105MOBOB2 METAR XM21 //000 073342 011453Z AUTO 06013G18KT 28/23 A2983 RMK A02 SLP102 T02810231 PA084 DA1989=
0140008415999992015120115534+07300+134200FM-15+000099999V0200601N008219999999N999999999+02801+02371100991ADDMA1100981999999OC101031REMMET105MOBOB2 METAR XM21 //000 073342 011553Z AUTO 06016G20KT 28/24 A2982 RMK A02 SLP099 T02800237 PA094 DA2002=
0140008415999992015120116534+07300+134200FM-15+000099999V0200401N008219999999N999999999+02761+02391100921ADDMA1100911999999OC100981REMMET105MOBOB2 METAR XM21 //000 073342 011653Z AUTO 04016G19KT 28/24 A2980 RMK A02 SLP092 T02760239 PA112 DA1986=
0140008415999992015120117534+07300+134200FM-15+000099999V0200401N009319999999N999999999+02821+02401100851ADDMA1100851999999OC101181REMMET105MOBOB2 METAR XM21 //000 073342 011753Z AUTO 04018G23KT 28/24 A2978 RMK A02 SLP085 T02820240 PA131 DA2078=
0140008415999992015120118534+07300+134200FM-15+000099999V0200501N009319999999N999999999+02821+02361100851ADDMA1100851999999OC101131REMMET105MOBOB2 METAR XM21 //000 073342 011853Z AUTO 05018G22KT 28/24 A2978 RMK A02 SLP085 T02820236 PA131 DA2068=
0140008415999992015120119534+07300+134200FM-15+000099999V0200501N009319999999N999999999+02811+02361100921ADDMA1100911999999OC101131REMMET105MOBOB2 METAR XM21 //000 073342 011953Z AUTO 05018G22KT 28/24 A2980 RMK A02 SLP092 T02810236 PA112 DA2034=
0140008415999992015120120534+07300+134200FM-15+000099999V0200401N009319999999N999999999+02831+02261100951ADDMA1100951999999OC101131REMMET105MOBOB2 METAR XM21 //000 073342 012053Z AUTO 04018G22KT 28/23 A2981 RMK A02 SLP095 T02830226 PA103 DA2025=
0140008415999992015120121534+07300+134200FM-15+000099999V0200501N009819999999N999999999+02841+02351101021ADDMA1101021999999OC101181REMMET105MOBOB2 METAR XM21 //000 073342 012153Z AUTO 05019G23KT 28/23 A2983 RMK A02 SLP102 T02840235 PA084 DA2031=
0140008415999992015120122534+07300+134200FM-15+000099999V0200601N007219999999N999999999+02831+02331101091ADDMA1101081999999OC100931REMMET105MOBOB2 METAR XM21 //000 073342 012253Z AUTO 06014G18KT 28/23 A2985 RMK A02 SLP109 T02830233 PA066 DA1994=
0140008415999992015120123534+07300+134200FM-15+000099999V0200401N008219999999N999999999+02851+02361101091ADDMA1101081999999OC100981REMMET105MOBOB2 METAR XM21 //000 073342 012353Z AUTO 04016G19KT 29/24 A2985 RMK A02 SLP109 T02850236 PA066 DA2023=
0140008415999992015120200534+07300+134200FM-15+000099999V0200601N007219999999N999999999+02911+02381101061ADDMA1101051999999OC100881REMMET105MOBOB2 METAR XM21 //000 073342 020053Z AUTO 06014G17KT 29/24 A2984 RMK A02 SLP106 T02910238 PA075 DA2106=
0140008415999992015120201534+07300+134200FM-15+000099999V0200601N008219999999N999999999+02941+02331100991ADDMA1100981999999OC100931REMMET105MOBOB2 METAR XM21 //000 073342 020153Z AUTO 06016G18KT 29/23 A2982 RMK A02 SLP099 T02940233 PA094 DA2151=
0140008415999992015120202534+07300+134200FM-15+000099999V0200401N007219999999N999999999+02961+02331100951ADDMA1100951999999OC100881REMMET105MOBOB2 METAR XM21 //000 073342 020253Z AUTO 04014G17KT 30/23 A2981 RMK A02 SLP095 T02960233 PA103 DA2183=
0140008415999992015120203534+07300+134200FM-15+000099999V0200601N006719999999N999999999+02971+02331100851ADDMA1100851999999OC100821REMMET105MOBOB2 METAR XM21 //000 073342 020353Z AUTO 06013G16KT 30/23 A2978 RMK A02 SLP085 T02970233 PA131 DA2228=
0140008415999992015120204534+07300+134200FM-15+000099999V0200601N006219999999N999999999+02971+02311100821ADDMA1100811999999OC100771REMMET105MOBOB2 METAR XM21 //000 073342 020453Z AUTO 06012G15KT 30/23 A2977 RMK A02 SLP082 T02970231 PA140 DA2237=
0140008415999992015120205534+07300+134200FM-15+000099999V0200501N006719999999N999999999+02951+02341100781ADDMA1100781999999OC100821REMMET105MOBOB2 METAR XM21 //000 073342 020553Z AUTO 05013G16KT 30/23 A2976 RMK A02 SLP078 T02950234 PA149 DA2232=
0140008415999992015120206534+07300+134200FM-15+000099999V0200601N006219999999N999999999+02931+02321100781ADDMA1100781999999OC100771REMMET105MOBOB2 METAR XM21 //000 073342 020653Z AUTO 06012G15KT 29/23 A2976 RMK A02 SLP078 T02930232 PA149 DA2206=
0140008415999992015120207534+07300+134200FM-15+000099999V0200601N005719999999N999999999+02911+02311100821ADDMA1100811999999OC100771REMMET105MOBOB2 METAR XM21 //000 073342 020753Z AUTO 06011G15KT 29/23 A2977 RMK A02 SLP082 T02910231 PA140 DA2169=
0140008415999992015120208534+07300+134200FM-15+000099999V0200601N006719999999N999999999+02881+02271100891ADDMA1100881999999OC100881REMMET105MOBOB2 METAR XM21 //000 073342 020853Z AUTO 06013G17KT 29/23 A2979 RMK A02 SLP089 T02880227 PA122 DA2104=
0140008415999992015120209534+07300+134200FM-15+000099999V0200601N005119999999N999999999+02871+02351100921ADDMA1100911999999OC100721REMMET105MOBOB2 METAR XM21 //000 073342 020953Z AUTO 06010G14KT 29/24 A2980 RMK A02 SLP092 T02870235 PA112 DA2100=
0140008415999992015120210534+07300+134200FM-15+000099999V0200601N006219999999N999999999+02851+02351100991ADDMA1100981999999OC100721REMMET105MOBOB2 METAR XM21 //000 073342 021053Z AUTO 06012G14KT 29/24 A2982 RMK A02 SLP099 T02850235 PA094 DA2055=
0140008415999992015120211534+07300+134200FM-15+000099999V0200501N006219999999N999999999+02831+02321101061ADDMA1101051999999OC100771REMMET105MOBOB2 METAR XM21 //000 073342 021153Z AUTO 05012G15KT 28/23 A2984 RMK A02 SLP106 T02830232 PA075 DA2002=
0140008415999992015120212534+07300+134200FM-15+000099999V0200701N004619999999N999999999+02821+02371101061ADDMA1101051999999OC100621REMMET105MOBOB2 METAR XM21 //000 073342 021253Z AUTO 07009G12KT 28/24 A2984 RMK A02 SLP106 T02820237 PA075 DA2003=
0129008415999992015120213534+07300+134200FM-15+000099999V0200501N004619999999N999999999+02811+02301101061ADDMA1101051999999REMMET102MOBOB2 METAR XM21 //000 073342 021353Z AUTO 05009KT 28/23 A2984 RMK A02 SLP106 T02810230 PA075 DA1976=
0129008415999992015120214534+07300+134200FM-15+000099999V0200501N005119999999N999999999+02811+02301101061ADDMA1101051999999REMMET102MOBOB2 METAR XM21 //000 073342 021453Z AUTO 05010KT 28/23 A2984 RMK A02 SLP106 T02810230 PA075 DA1977=
0140008415999992015120215534+07300+134200FM-15+000099999V0200501N005719999999N999999999+02811+02321100991ADDMA1100981999999OC100721REMMET105MOBOB2 METAR XM21 //000 073342 021553Z AUTO 05011G14KT 28/23 A2982 RMK A02 SLP099 T02810232 PA094 DA2004=
0140008415999992015120216534+07300+134200FM-15+000099999V0200501N006219999999N999999999+02821+02311100951ADDMA1100951999999OC100721REMMET105MOBOB2 METAR XM21 //000 073342 021653Z AUTO 05012G14KT 28/23 A2981 RMK A02 SLP095 T02820231 PA103 DA2023=
0140008415999992015120217534+07300+134200FM-15+000099999V0200501N005719999999N999999999+02811+02261100921ADDMA1100911999999OC100671REMMET105MOBOB2 METAR XM21 //000 073342 021753Z AUTO 05011G13KT 28/23 A2980 RMK A02 SLP092 T02810226 PA112 DA2013=
0140008415999992015120218534+07300+134200FM-15+000099999V0200501N006219999999N999999999+02801+02351100921ADDMA1100911999999OC100721REMMET105MOBOB2 METAR XM21 //000 073342 021853Z AUTO 05012G14KT 28/23 A2980 RMK A02 SLP092 T02800235 PA112 DA2021=
0140008415999992015120219534+07300+134200FM-15+000099999V0200501N005719999999N999999999+02791+02311100921ADDMA1100911999999OC100721REMMET105MOBOB2 METAR XM21 //000 073342 021953Z AUTO 05011G14KT 28/23 A2980 RMK A02 SLP092 T02790231 PA112 DA2002=
0140008415999992015120220534+07300+134200FM-15+000099999V0200401N005719999999N999999999+02801+02281100991ADDMA1100981999999OC100671REMMET105MOBOB2 METAR XM21 //000 073342 022053Z AUTO 04011G13KT 28/23 A2982 RMK A02 SLP099 T02800228 PA094 DA1983=
0140008415999992015120221534+07300+134200FM-15+000099999V0200401N005719999999N999999999+02821+02311101091ADDMA1101081999999OC100671REMMET105MOBOB2 METAR XM21 //000 073342 022153Z AUTO 04011G13KT 28/23 A2985 RMK A02 SLP109 T02820231 PA066 DA1978=
0140008415999992015120222534+07300+134200FM-15+000099999V0200501N005719999999N999999999+02831+02311101161ADDMA1101151999999OC100721REMMET105MOBOB2 METAR XM21 //000 073342 022253Z AUTO 05011G14KT 28/23 A2987 RMK A02 SLP116 T02830231 PA047 DA1966=
0140008415999992015120223534+07300+134200FM-15+000099999V0200501N005719999999N999999999+02831+02331101191ADDMA1101181999999OC100671REMMET105MOBOB2 METAR XM21 //000 073342 022353Z AUTO 05011G13KT 28/23 A2988 RMK A02 SLP119 T02830233 PA038 DA1958=
0129008415999992015120300534+07300+134200FM-15+000099999V0200401N005119999999N999999999+02861+02351101191ADDMA1101181999999REMMET102MOBOB2 METAR XM21 //000 073342 030053Z AUTO 04010KT 29/23 A2988 RMK A02 SLP119 T02860235 PA038 DA1997=
0129008415999992015120301534+07300+134200FM-15+000099999V0200301N004619999999N999999999+02901+02331101121ADDMA1101121999999REMMET102MOBOB2 METAR XM21 //000 073342 030153Z AUTO 03009KT 29/23 A2986 RMK A02 SLP112 T02900233 PA057 DA2060=
0129008415999992015120302534+07300+134200FM-15+000099999V0200301N004619999999N999999999+02911+02371101061ADDMA1101051999999REMMET102MOBOB2 METAR XM21 //000 073342 030253Z AUTO 03009KT 29/24 A2984 RMK A02 SLP106 T02910237 PA075 DA2103=
0140008415999992015120303534+07300+134200FM-15+000099999V0200201N005119999999N999999999+02911+02311100951ADDMA1100951999999OC100621REMMET105MOBOB2 METAR XM21 //000 073342 030353Z AUTO 02010G12KT 29/23 A2981 RMK A02 SLP095 T02910231 PA103 DA2123=
0129008415999992015120304534+07300+134200FM-15+000099999V0200201N005119999999N999999999+02921+02291100891ADDMA1100881999999REMMET102MOBOB2 METAR XM21 //000 073342 030453Z AUTO 02010KT 29/23 A2979 RMK A02 SLP089 T02920229 PA122 DA2155=
0129008415999992015120305534+07300+134200FM-15+000099999V0200201N004619999999N999999999+02931+02351100851ADDMA1100851999999REMMET102MOBOB2 METAR XM21 //000 073342 030553Z AUTO 02009KT 29/24 A2978 RMK A02 SLP085 T02930235 PA131 DA2190=
0129008415999992015120306534+07300+134200FM-15+000099999V0200801N004119999999N999999999+02941+02251100921ADDMA1100911999999REMMET102MOBOB2 METAR XM21 //000 073342 030653Z AUTO 08008KT 29/23 A2980 RMK A02 SLP092 T02940225 PA112 DA2156=
0140008415999992015120307534+07300+134200FM-15+000099999V0200901N005719999999N999999999+02911+02281100951ADDMA1100951999999OC100721REMMET105MOBOB2 METAR XM21 //000 073342 030753Z AUTO 09011G14KT 29/23 A2981 RMK A02 SLP095 T02910228 PA103 DA2117=
0140008415999992015120308534+07300+134200FM-15+000099999V0200901N006219999999N999999999+02901+02301101061ADDMA1101051999999OC100771REMMET105MOBOB2 METAR XM21 //000 073342 030853Z AUTO 09012G15KT 29/23 A2984 RMK A02 SLP106 T02900230 PA075 DA2077=
0140008415999992015120309534+07300+134200FM-15+000099999V0201101N005119999999N999999999+02711+02401101061ADDMA1101051999999OC100671REMMET105MOBOB2 METAR XM21 //000 073342 030953Z AUTO 11010G13KT 27/24 A2984 RMK A02 SLP106 T02710240 PA075 DA1886=
0129008415999992015120310534+07300+134200FM-15+000099999V0200901N003619999999N999999999+02741+02391101121ADDMA1101121999999REMMET102MOBOB2 METAR XM21 //000 073342 031053Z AUTO 09007KT 27/24 A2986 RMK A02 SLP112 T02740239 PA057 DA1896=
0129008415999992015120311534+07300+134200FM-15+000099999V0201001N002619999999N999999999+02761+02411101121ADDMA1101121999999REMMET102MOBOB2 METAR XM21 //000 073342 031153Z AUTO 10005KT 28/24 A2986 RMK A02 SLP112 T02760241 PA057 DA1922=
0129008415999992015120312534+07300+134200FM-15+000099999V0200701N002119999999N999999999+02771+02421101091ADDMA1101081999999REMMET102MOBOB2 METAR XM21 //000 073342 031253Z AUTO 07004KT 28/24 A2985 RMK A02 SLP109 T02770242 PA066 DA1946=
0129008415999992015120313534+07300+134200FM-15+000099999V0200501N003619999999N999999999+02791+02421101061ADDMA1101051999999REMMET102MOBOB2 METAR XM21 //000 073342 031353Z AUTO 05007KT 28/24 A2984 RMK A02 SLP106 T02790242 PA075 DA1980=
0140008415999992015120314534+07300+134200FM-15+000099999V0200401N005119999999N999999999+02761+02371100991ADDMA1100981999999OC100621REMMET105MOBOB2 METAR XM21 //000 073342 031453Z AUTO 04010G12KT 28/24 A2982 RMK A02 SLP099 T02760237 PA094 DA1958=
0129008415999992015120315534+07300+134200FM-15+000099999V0200701N004619999999N999999999+02731+02311100991ADDMA1100981999999REMMET102MOBOB2 METAR XM21 //000 073342 031553Z AUTO 07009KT 27/23 A2982 RMK A02 SLP099 T02730231 PA094 DA1910=
0129008415999992015120316534+07300+134200FM-15+000099999V0200501N004119999999N999999999+02741+02351100951ADDMA1100951999999REMMET102MOBOB2 METAR XM21 //000 073342 031653Z AUTO 05008KT 27/23 A2981 RMK A02 SLP095 T02740235 PA103 DA1943=
0140008415999992015120317534+07300+134200FM-15+000099999V0200601N004619999999N999999999+02741+02321100921ADDMA1100911999999OC100671REMMET105MOBOB2 METAR XM21 //000 073342 031753Z AUTO 06009G13KT 27/23 A2980 RMK A02 SLP092 T02740232 PA112 DA1947=
0140008415999992015120318534+07300+134200FM-15+000099999V0200701N005119999999N999999999+02751+02331100951ADDMA1100951999999OC100671REMMET105MOBOB2 METAR XM21 //000 073342 031853Z AUTO 07010G13KT 28/23 A2981 RMK A02 SLP095 T02750233 PA103 DA1949=
0129008415999992015120319534+07300+134200FM-15+000099999V0200901N004119999999N999999999+02731+02371100951ADDMA1100951999999REMMET102MOBOB2 METAR XM21 //000 073342 031953Z AUTO 09008KT 27/24 A2981 RMK A02 SLP095 T02730237 PA103 DA1936=
0129008415999992015120320534+07300+134200FM-15+000099999V0200601N003619999999N999999999+02771+02381101061ADDMA1101051999999REMMET102MOBOB2 METAR XM21 //000 073342 032053Z AUTO 06007KT 28/24 A2984 RMK A02 SLP106 T02770238 PA075 DA1948=
0156008415999992015120321534+07300+134200FM-15+000099999V0200801N004619999999N999999999+02781+02321101091ADDAA101000731AW1611MA1101081999999REMMET112MOBOB2 METAR XM21 //000 073342 032153Z AUTO 08009KT -RA 28/23 A2985 RMK A02 SLP109 P0003 T02780232 PA066 DA1936=
0129008415999992015120322534+07300+134200FM-15+000099999V0200701N003619999999N999999999+02831+02421101161ADDMA1101151999999REMMET102MOBOB2 METAR XM21 //000 073342 032253Z AUTO 07007KT 28/24 A2987 RMK A02 SLP116 T02830242 PA047 DA1992=
0129008415999992015120323534+07300+134200FM-15+000099999V0200701N003619999999N999999999+02851+02351101191ADDMA1101181999999REMMET102MOBOB2 METAR XM21 //000 073342 032353Z AUTO 07007KT 29/24 A2988 RMK A02 SLP119 T02850235 PA038 DA1987=
0129008415999992015120400534+07300+134200FM-15+000099999V0201001N004119999999N999999999+02901+02331101191ADDMA1101181999999REMMET102MOBOB2 METAR XM21 //000 073342 040053Z AUTO 10008KT 29/23 A2988 RMK A02 SLP119 T02900233 PA038 DA2038=
0129008415999992015120401534+07300+134200FM-15+000099999V0200901N004119999999N999999999+02921+02311101161ADDMA1101151999999REMMET102MOBOB2 METAR XM21 //000 073342 040153Z AUTO 09008KT 29/23 A2987 RMK A02 SLP116 T02920231 PA047 DA2067=
0129008415999992015120403534+07300+134200FM-15+000099999V0200901N003619999999N999999999+02961+02281101021ADDMA1101021999999REMMET102MOBOB2 METAR XM21 //000 073342 040353Z AUTO 09007KT 30/23 A2983 RMK A02 SLP102 T02960228 PA084 DA2150=
0129008415999992015120404534+07300+134200FM-15+000099999V0200901N004619999999N999999999+02971+02291100951ADDMA1100951999999REMMET102MOBOB2 METAR XM21 //000 073342 040453Z AUTO 09009KT 30/23 A2981 RMK A02 SLP095 T02970229 PA103 DA2186=
0129008415999992015120405534+07300+134200FM-15+000099999V0201201N004119999999N999999999+02941+02391100921ADDMA1100911999999REMMET102MOBOB2 METAR XM21 //000 073342 040553Z AUTO 12008KT 29/24 A2980 RMK A02 SLP092 T02940239 PA112 DA2187=
0140008415999992015120406534+07300+134200FM-15+000099999V0201001N006219999999N999999999+02851+02421100951ADDMA1100951999999OC100721REMMET105MOBOB2 METAR XM21 //000 073342 040653Z AUTO 10012G14KT 29/24 A2981 RMK A02 SLP095 T02850242 PA103 DA2082=
0129008415999992015120407534+07300+134200FM-15+000099999V0200901N004619999999N999999999+02891+02411101021ADDMA1101021999999REMMET102MOBOB2 METAR XM21 //000 073342 040753Z AUTO 09009KT 29/24 A2983 RMK A02 SLP102 T02890241 PA084 DA2101=
0140008415999992015120408534+07300+134200FM-15+000099999V0200901N005119999999N999999999+02871+02481101021ADDMA1101021999999OC100671REMMET105MOBOB2 METAR XM21 //000 073342 040853Z AUTO 09010G13KT 29/25 A2983 RMK A02 SLP102 T02870248 PA084 DA2096=
0140008415999992015120409534+07300+134200FM-15+000099999V0200801N005719999999N999999999+02881+02441101091ADDMA1101081999999OC100721REMMET105MOBOB2 METAR XM21 //000 073342 040953Z AUTO 08011G14KT 29/24 A2985 RMK A02 SLP109 T02880244 PA066 DA2074=
0129008415999992015120410534+07300+134200FM-15+000099999V0200601N004119999999N999999999+02821+02461101161ADDMA1101151999999REMMET102MOBOB2 METAR XM21 //000 073342 041053Z AUTO 06008KT 28/25 A2987 RMK A02 SLP116 T02820246 PA047 DA1988=
0140008415999992015120411534+07300+134200FM-15+000099999V0200801N004619999999N999999999+02831+02421101191ADDMA1101181999999OC100621REMMET105MOBOB2 METAR XM21 //000 073342 041153Z AUTO 08009G12KT 28/24 A2988 RMK A02 SLP119 T02830242 PA038 DA1980=
0129008415999992015120412534+07300+134200FM-15+000099999V0200801N004619999999N999999999+02831+02391101191ADDMA1101181999999REMMET102MOBOB2 METAR XM21 //000 073342 041253Z AUTO 08009KT 28/24 A2988 RMK A02 SLP119 T02830239 PA038 DA1973=
0140008415999992015120413534+07300+134200FM-15+000099999V0200701N005119999999N999999999+02811+02471101161ADDMA1101151999999OC100621REMMET105MOBOB2 METAR XM21 //000 073342 041353Z AUTO 07010G12KT 28/25 A2987 RMK A02 SLP116 T02810247 PA047 DA1980=
0140008415999992015120414534+07300+134200FM-15+000099999V0200601N005119999999N999999999+02811+02401101121ADDMA1101121999999OC100671REMMET105MOBOB2 METAR XM21 //000 073342 041453Z AUTO 06010G13KT 28/24 A2986 RMK A02 SLP112 T02810240 PA057 DA1975=
0140008415999992015120415534+07300+134200FM-15+000099999V0200701N004619999999N999999999+02801+02461101091ADDMA1101081999999OC100621REMMET105MOBOB2 METAR XM21 //000 073342 041553Z AUTO 07009G12KT 28/25 A2985 RMK A02 SLP109 T02800246 PA066 DA1989=
0140008415999992015120416534+07300+134200FM-15+000099999V0200601N007219999999N999999999+02711+02371100991ADDMA1100981999999OC100981REMMET105MOBOB2 METAR XM21 //000 073342 041653Z AUTO 06014G19KT 27/24 A2982 RMK A02 SLP099 T02710237 PA094 DA1902=
0140008415999992015120417534+07300+134200FM-15+000099999V0200601N005119999999N999999999+02731+02431100951ADDMA1100951999999OC100621REMMET105MOBOB2 METAR XM21 //000 073342 041753Z AUTO 06010G12KT 27/24 A2981 RMK A02 SLP095 T02730243 PA103 DA1950=
0167008415999992015120418534+07300+134200FM-15+000099999V0200801N005119999999N999999999+02751+02441100951ADDAA101000231AW1611MA1100951999999OC100771REMMET115MOBOB2 METAR XM21 //000 073342 041853Z AUTO 08010G15KT -RA 28/24 A2981 RMK A02 SLP095 P0001 T02750244 PA103 DA1975=
0140008415999992015120419534+07300+134200FM-15+000099999V0200601N006219999999N999999999+02791+02401101021ADDMA1101021999999OC100821REMMET105MOBOB2 METAR XM21 //000 073342 041953Z AUTO 06012G16KT 28/24 A2983 RMK A02 SLP102 T02790240 PA084 DA1988=
0140008415999992015120420534+07300+134200FM-15+000099999V0200701N006219999999N999999999+02831+02361101061ADDMA1101051999999OC100821REMMET105MOBOB2 METAR XM21 //000 073342 042053Z AUTO 07012G16KT 28/24 A2984 RMK A02 SLP106 T02830236 PA075 DA2011=
0140008415999992015120421534+07300+134200FM-15+000099999V0200701N005119999999N999999999+02821+02431101121ADDMA1101121999999OC100671REMMET105MOBOB2 METAR XM21 //000 073342 042153Z AUTO 07010G13KT 28/24 A2986 RMK A02 SLP112 T02820243 PA057 DA1994=
0140008415999992015120422534+07300+134200FM-15+000099999V0200601N005719999999N999999999+02851+02381101191ADDMA1101181999999OC100771REMMET105MOBOB2 METAR XM21 //000 073342 042253Z AUTO 06011G15KT 29/24 A2988 RMK A02 SLP119 T02850238 PA038 DA1993=
0140008415999992015120423534+07300+134200FM-15+000099999V0200601N005719999999N999999999+02881+02391101191ADDMA1101181999999OC100771REMMET105MOBOB2 METAR XM21 //000 073342 042353Z AUTO 06011G15KT 29/24 A2988 RMK A02 SLP119 T02880239 PA038 DA2027=
0140008415999992015120500534+07300+134200FM-15+000099999V0200801N006219999999N999999999+02941+02271101121ADDMA1101121999999OC100821REMMET105MOBOB2 METAR XM21 //000 073342 050053Z AUTO 08012G16KT 29/23 A2986 RMK A02 SLP112 T02940227 PA057 DA2092=
0140008415999992015120501534+07300+134200FM-15+000099999V0200901N005119999999N999999999+02961+02391101061ADDMA1101051999999OC100621REMMET105MOBOB2 METAR XM21 //000 073342 050153Z AUTO 09010G12KT 30/24 A2984 RMK A02 SLP106 T02960239 PA075 DA2164=
0140008415999992015120502534+07300+134200FM-15+000099999V0200901N005119999999N999999999+02961+02341100951ADDMA1100951999999OC100671REMMET105MOBOB2 METAR XM21 //000 073342 050253Z AUTO 09010G13KT 30/23 A2981 RMK A02 SLP095 T02960234 PA103 DA2186=
0129008415999992015120503534+07300+134200FM-15+000099999V0200901N004619999999N999999999+02961+02371100891ADDMA1100881999999REMMET102MOBOB2 METAR XM21 //000 073342 050353Z AUTO 09009KT 30/24 A2979 RMK A02 SLP089 T02960237 PA122 DA2216=
0129008415999992015120504534+07300+134200FM-15+000099999V0201001N004119999999N999999999+02981+02351100821ADDMA1100811999999REMMET102MOBOB2 METAR XM21 //000 073342 050453Z AUTO 10008KT 30/23 A2977 RMK A02 SLP082 T02980235 PA140 DA2256=
0140008415999992015120505534+07300+134200FM-15+000099999V0200701N005119999999N999999999+02991+02381100781ADDMA1100781999999OC100671REMMET105MOBOB2 METAR XM21 //000 073342 050553Z AUTO 07010G13KT 30/24 A2976 RMK A02 SLP078 T02990238 PA149 DA2286=
0129008415999992015120506534+07300+134200FM-15+000099999V0200701N003619999999N999999999+02911+02401100781ADDMA1100781999999REMMET102MOBOB2 METAR XM21 //000 073342 050653Z AUTO 07007KT 29/24 A2976 RMK A02 SLP078 T02910240 PA149 DA2202=
0140008415999992015120507534+07300+134200FM-15+000099999V0200801N006719999999N999999999+02931+02421100821ADDMA1100811999999OC100771REMMET105MOBOB2 METAR XM21 //000 073342 050753Z AUTO 08013G15KT 29/24 A2977 RMK A02 SLP082 T02930242 PA140 DA2217=
0140008415999992015120508534+07300+134200FM-15+000099999V0200701N006219999999N999999999+02911+02491100891ADDMA1100881999999OC100931REMMET105MOBOB2 METAR XM21 //000 073342 050853Z AUTO 07012G18KT 29/25 A2979 RMK A02 SLP089 T02910249 PA122 DA2187=
0140008415999992015120509534+07300+134200FM-15+000099999V0200701N005719999999N999999999+02861+02491100921ADDMA1100911999999OC100821REMMET105MOBOB2 METAR XM21 //000 073342 050953Z AUTO 07011G16KT 29/25 A2980 RMK A02 SLP092 T02860249 PA112 DA2121=
0129008415999992015120510534+07300+134200FM-15+000099999V0200601N004119999999N999999999+02841+02491100991ADDMA1100981999999REMMET102MOBOB2 METAR XM21 //000 073342 051053Z AUTO 06008KT 28/25 A2982 RMK A02 SLP099 T02840249 PA094 DA2076=
0167008415999992015120511534+07300+134200FM-15+000099999V0200501N006719999999N999999999+02761+02481101061ADDAA101000731AW1611MA1101051999999OC100881REMMET115MOBOB2 METAR XM21 //000 073342 051153Z AUTO 05013G17KT -RA 28/25 A2984 RMK A02 SLP106 P0003 T02760248 PA075 DA1961=
0129008415999992015120512534+07300+134200FM-15+000099999V0200601N004119999999N999999999+02811+02501101061ADDMA1101051999999REMMET102MOBOB2 METAR XM21 //000 073342 051253Z AUTO 06008KT 28/25 A2984 RMK A02 SLP106 T02810250 PA075 DA2022=
0129008415999992015120513534+07300+134200FM-15+000099999V0200701N004119999999N999999999+02861+02481101021ADDMA1101021999999REMMET102MOBOB2 METAR XM21 //000 073342 051353Z AUTO 07008KT 29/25 A2983 RMK A02 SLP102 T02860248 PA084 DA2085=
0129008415999992015120514534+07300+134200FM-15+000099999V0200601N004619999999N999999999+02841+02501101021ADDMA1101021999999REMMET102MOBOB2 METAR XM21 //000 073342 051453Z AUTO 06009KT 28/25 A2983 RMK A02 SLP102 T02840250 PA084 DA2068=
0140008415999992015120515534+07300+134200FM-15+000099999V0200601N005119999999N999999999+02821+02491100951ADDMA1100951999999OC100671REMMET105MOBOB2 METAR XM21 //000 073342 051553Z AUTO 06010G13KT 28/25 A2981 RMK A02 SLP095 T02820249 PA103 DA2065=
0140008415999992015120516534+07300+134200FM-15+000099999V0200601N005119999999N999999999+02831+02461100891ADDMA1100881999999OC100771REMMET105MOBOB2 METAR XM21 //000 073342 051653Z AUTO 06010G15KT 28/25 A2979 RMK A02 SLP089 T02830246 PA122 DA2092=
0140008415999992015120517534+07300+134200FM-15+000099999V0200501N005719999999N999999999+02821+02501100851ADDMA1100851999999OC100671REMMET105MOBOB2 METAR XM21 //000 073342 051753Z AUTO 05011G13KT 28/25 A2978 RMK A02 SLP085 T02820250 PA131 DA2101=
0140008415999992015120518534+07300+134200FM-15+000099999V0200601N005119999999N999999999+02831+02531100821ADDMA1100811999999OC100671REMMET105MOBOB2 METAR XM21 //000 073342 051853Z AUTO 06010G13KT 28/25 A2977 RMK A02 SLP082 T02830253 PA140 DA2131=
0140008415999992015120519534+07300+134200FM-15+000099999V0200601N005719999999N999999999+02841+02491100851ADDMA1100851999999OC100771REMMET105MOBOB2 METAR XM21 //000 073342 051953Z AUTO 06011G15KT 28/25 A2978 RMK A02 SLP085 T02840249 PA131 DA2121=
0140008415999992015120520534+07300+134200FM-15+000099999V0200601N005719999999N999999999+02831+02521100891ADDMA1100881999999OC100671REMMET105MOBOB2 METAR XM21 //000 073342 052053Z AUTO 06011G13KT 28/25 A2979 RMK A02 SLP089 T02830252 PA122 DA2105=
0140008415999992015120521534+07300+134200FM-15+000099999V0200601N005119999999N999999999+02861+02481100991ADDMA1100981999999OC100721REMMET105MOBOB2 METAR XM21 //000 073342 052153Z AUTO 06010G14KT 29/25 A2982 RMK A02 SLP099 T02860248 PA094 DA2097=
0140008415999992015120522534+07300+134200FM-15+000099999V0200601N005719999999N999999999+02871+02451101091ADDMA1101081999999OC100721REMMET105MOBOB2 METAR XM21 //000 073342 052253Z AUTO 06011G14KT 29/24 A2985 RMK A02 SLP109 T02870245 PA066 DA2065=
0140008415999992015120523534+07300+134200FM-15+000099999V0200601N005119999999N999999999+02881+02491101161ADDMA1101151999999OC100621REMMET105MOBOB2 METAR XM21 //000 073342 052353Z AUTO 06010G12KT 29/25 A2987 RMK A02 SLP116 T02880249 PA047 DA2063=
0140008415999992015120600534+07300+134200FM-15+000099999V0200801N006719999999N999999999+02971+02351101121ADDMA1101121999999OC100821REMMET105MOBOB2 METAR XM21 //000 073342 060053Z AUTO 08013G16KT 30/24 A2986 RMK A02 SLP112 T02970235 PA057 DA2143=
0140008415999992015120601534+07300+134200FM-15+000099999V0200801N006219999999N999999999+02991+02381101091ADDMA1101081999999OC100881REMMET105MOBOB2 METAR XM21 //000 073342 060153Z AUTO 08012G17KT 30/24 A2985 RMK A02 SLP109 T02990238 PA066 DA2182=
0129008415999992015120602534+07300+134200FM-15+000099999V0200801N003619999999N999999999+02991+02441101021ADDMA1101021999999REMMET102MOBOB2 METAR XM21 //000 073342 060253Z AUTO 08007KT 30/24 A2983 RMK A02 SLP102 T02990244 PA084 DA2219=
0129008415999992015120603534+07300+134200FM-15+000099999V0200901N004119999999N999999999+03001+02391100921ADDMA1100911999999REMMET102MOBOB2 METAR XM21 //000 073342 060353Z AUTO 09008KT 30/24 A2980 RMK A02 SLP092 T03000239 PA112 DA2253=
0129008415999992015120604534+07300+134200FM-15+000099999V0200801N004619999999N999999999+02971+02391100851ADDMA1100851999999REMMET102MOBOB2 METAR XM21 //000 073342 060453Z AUTO 08009KT 30/24 A2978 RMK A02 SLP085 T02970239 PA131 DA2244=
0140008415999992015120605534+07300+134200FM-15+000099999V0200601N005119999999N999999999+02981+02291100781ADDMA1100781999999OC100671REMMET105MOBOB2 METAR XM21 //000 073342 060553Z AUTO 06010G13KT 30/23 A2976 RMK A02 SLP078 T02980229 PA149 DA2254=
0140008415999992015120606534+07300+134200FM-15+000099999V0200701N005719999999N999999999+02981+02311100781ADDMA1100781999999OC100771REMMET105MOBOB2 METAR XM21 //000 073342 060653Z AUTO 07011G15KT 30/23 A2976 RMK A02 SLP078 T02980231 PA149 DA2260=
0140008415999992015120607534+07300+134200FM-15+000099999V0200701N005119999999N999999999+02951+02411100851ADDMA1100851999999OC100721REMMET105MOBOB2 METAR XM21 //000 073342 060753Z AUTO 07010G14KT 30/24 A2978 RMK A02 SLP085 T02950241 PA131 DA2225=
0129008415999992015120608534+07300+134200FM-15+000099999V0200801N004119999999N999999999+02941+02391100921ADDMA1100911999999REMMET102MOBOB2 METAR XM21 //000 073342 060853Z AUTO 08008KT 29/24 A2980 RMK A02 SLP092 T02940239 PA112 DA2186=
0140008415999992015120609534+07300+134200FM-15+000099999V0200801N004619999999N999999999+02921+02411100991ADDMA1100981999999OC100621REMMET105MOBOB2 METAR XM21 //000 073342 060953Z AUTO 08009G12KT 29/24 A2982 RMK A02 SLP099 T02920241 PA094 DA2145=
0167008415999992015120610534+07300+134200FM-15+000099999V0200801N005119999999N999999999+02781+02481101021ADDAA101000021AW1611MA1101021999999OC100671REMMET115MOBOB2 METAR XM21 //000 073342 061053Z AUTO 08010G13KT -RA 28/25 A2983 RMK A02 SLP102 P0000 T02780248 PA084 DA1995=
0129008415999992015120611534+07300+134200FM-15+000099999V0200701N004119999999N999999999+02851+02481101061ADDMA1101051999999REMMET102MOBOB2 METAR XM21 //000 073342 061153Z AUTO 07008KT 29/25 A2984 RMK A02 SLP106 T02850248 PA075 DA2061=
0156008415999992015120612534+07300+134200FM-15+000099999V0200801N004619999999N999999999+02791+02411101061ADDAA101000731AW1611MA1101051999999REMMET112MOBOB2 METAR XM21 //000 073342 061253Z AUTO 08009KT -RA 28/24 A2984 RMK A02 SLP106 P0003 T02790241 PA075 DA1977=
0129008415999992015120613534+07300+134200FM-15+000099999V0200801N003619999999N999999999+02811+02491101061ADDMA1101051999999REMMET102MOBOB2 METAR XM21 //000 073342 061353Z AUTO 08007KT 28/25 A2984 RMK A02 SLP106 T02810249 PA075 DA2019=
0129008415999992015120614534+07300+134200FM-15+000099999V0200801N003119999999N999999999+02831+02501101021ADDMA1101021999999REMMET102MOBOB2 METAR XM21 //000 073342 061453Z AUTO 08006KT 28/25 A2983 RMK A02 SLP102 T02830250 PA084 DA2056=
0129008415999992015120615534+07300+134200FM-15+000099999V0200601N003619999999N999999999+02841+02501100951ADDMA1100951999999REMMET102MOBOB2 METAR XM21 //000 073342 061553Z AUTO 06007KT 28/25 A2981 RMK A02 SLP095 T02840250 PA103 DA2090=
0129008415999992015120616534+07300+134200FM-15+000099999V0200601N004119999999N999999999+02811+02431100921ADDMA1100911999999REMMET102MOBOB2 METAR XM21 //000 073342 061653Z AUTO 06008KT 28/24 A2980 RMK A02 SLP092 T02810243 PA112 DA2052=
0140008415999992015120617534+07300+134200FM-15+000099999V0200601N005119999999N999999999+02851+02431100891ADDMA1100881999999OC100621REMMET105MOBOB2 METAR XM21 //000 073342 061753Z AUTO 06010G12KT 29/24 A2979 RMK A02 SLP089 T02850243 PA122 DA2106=
0140008415999992015120619534+07300+134200FM-15+000099999V0200601N005119999999N999999999+02851+02451100951ADDMA1100951999999OC100671REMMET105MOBOB2 METAR XM21 //000 073342 061953Z AUTO 06010G13KT 29/24 A2981 RMK A02 SLP095 T02850245 PA103 DA2088=
0140008415999992015120620534+07300+134200FM-15+000099999V0200701N006219999999N999999999+02851+02401100951ADDMA1100951999999OC100821REMMET105MOBOB2 METAR XM21 //000 073342 062053Z AUTO 07012G16KT 29/24 A2981 RMK A02 SLP095 T02850240 PA103 DA2078=
0140008415999992015120621534+07300+134200FM-15+000099999V0200701N006219999999N999999999+02891+02421101061ADDMA1101051999999OC100881REMMET105MOBOB2 METAR XM21 //000 073342 062153Z AUTO 07012G17KT 29/24 A2984 RMK A02 SLP106 T02890242 PA075 DA2092=
0140008415999992015120622534+07300+134200FM-15+000099999V0200801N005719999999N999999999+02891+02331101121ADDMA1101121999999OC100721REMMET105MOBOB2 METAR XM21 //000 073342 062253Z AUTO 08011G14KT 29/23 A2986 RMK A02 SLP112 T02890233 PA057 DA2048=
0140008415999992015120623534+07300+134200FM-15+000099999V0200701N006719999999N999999999+02941+02371101161ADDMA1101151999999OC100821REMMET105MOBOB2 METAR XM21 //000 073342 062353Z AUTO 07013G16KT 29/24 A2987 RMK A02 SLP116 T02940237 PA047 DA2103=
0140008415999992015120700534+07300+134200FM-15+000099999V0200701N006219999999N999999999+02971+02351101161ADDMA1101151999999OC100821REMMET105MOBOB2 METAR XM21 //000 073342 070053Z AUTO 07012G16KT 30/24 A2987 RMK A02 SLP116 T02970235 PA047 DA2131=
0140008415999992015120701534+07300+134200FM-15+000099999V0200801N005719999999N999999999+02991+02411101121ADDMA1101121999999OC100771REMMET105MOBOB2 METAR XM21 //000 073342 070153Z AUTO 08011G15KT 30/24 A2986 RMK A02 SLP112 T02990241 PA057 DA2178=
0140008415999992015120702534+07300+134200FM-15+000099999V0200901N007219999999N999999999+02981+02371101021ADDMA1101021999999OC100881REMMET105MOBOB2 METAR XM21 //000 073342 070253Z AUTO 09014G17KT 30/24 A2983 RMK A02 SLP102 T02980237 PA084 DA2191=
0140008415999992015120703534+07300+134200FM-15+000099999V0200901N006719999999N999999999+02971+02351100951ADDMA1100951999999OC100821REMMET105MOBOB2 METAR XM21 //000 073342 070353Z AUTO 09013G16KT 30/24 A2981 RMK A02 SLP095 T02970235 PA103 DA2200=
0140008415999992015120704534+07300+134200FM-15+000099999V0201201N006719999999N999999999+02871+02471100891ADDMA1100881999999OC100821REMMET105MOBOB2 METAR XM21 //000 073342 070453Z AUTO 12013G16KT 29/25 A2979 RMK A02 SLP089 T02870247 PA122 DA2139=
0166008415999992015120705534+07300+134200FM-15+000099999V0200801N006219999999N999999999+02711+02211100851ADDAA101000231AW1621MA1100851999999OC100981REMMET114MOBOB2 METAR XM21 //000 073342 070553Z AUTO 08012G19KT RA 27/22 A2978 RMK A02 SLP085 P0001 T02710221 PA131 DA1913=
0139008415999992015120706534+07300+134200FM-15+000099999V0200701N006219999999N999999999+02841+02401999999ADDMA1100881999999OC100771REMMET104MOBOB2 METAR XM21 //000 073342 070653Z AUTO 07012G15KT 28/24 A2979 RMK A02 SLPNO T02840240 PA122 DA2089=
0140008415999992015120707534+07300+134200FM-15+000099999V0200501N006719999999N999999999+02711+02311100951ADDMA1100951999999OC100881REMMET105MOBOB2 METAR XM21 //000 073342 070753Z AUTO 05013G17KT 27/23 A2981 RMK A02 SLP095 T02710231 PA103 DA1901=
0140008415999992015120708534+07300+134200FM-15+000099999V0200901N005119999999N999999999+02831+02291100991ADDMA1100981999999OC100721REMMET105MOBOB2 METAR XM21 //000 073342 070853Z AUTO 09010G14KT 28/23 A2982 RMK A02 SLP099 T02830229 PA094 DA2019=
0140008415999992015120709534+07300+134200FM-15+000099999V0200801N006219999999N999999999+02831+02421101021ADDMA1101021999999OC100771REMMET105MOBOB2 METAR XM21 //000 073342 070953Z AUTO 08012G15KT 28/24 A2983 RMK A02 SLP102 T02830242 PA084 DA2036=
0167008415999992015120710534+07300+134200FM-15+000099999V0201201N010319999999N999999999+02591+02441101161ADDAA101001031AW1611MA1101151999999OC101291REMMET115MOBOB2 METAR XM21 //000 073342 071053Z AUTO 12020G25KT -RA 26/24 A2987 RMK A02 SLP116 P0004 T02590244 PA047 DA1725=
0156008415999992015120711534+07300+134200FM-15+000099999V0200501N003119999999N999999999+02691+02441101161ADDAA101001531AW1611MA1101151999999REMMET112MOBOB2 METAR XM21 //000 073342 071153Z AUTO 05006KT -RA 27/24 A2987 RMK A02 SLP116 P0006 T02690244 PA047 DA1839=
0129008415999992015120712534+07300+134200FM-15+000099999V0200601N004619999999N999999999+02791+02471101161ADDMA1101151999999REMMET102MOBOB2 METAR XM21 //000 073342 071253Z AUTO 06009KT 28/25 A2987 RMK A02 SLP116 T02790247 PA047 DA1959=
0140008415999992015120713534+07300+134200FM-15+000099999V0200501N007219999999N999999999+02841+02431101121ADDMA1101121999999OC100821REMMET105MOBOB2 METAR XM21 //000 073342 071353Z AUTO 05014G16KT 28/24 A2986 RMK A02 SLP112 T02840243 PA057 DA2017=
0140008415999992015120714534+07300+134200FM-15+000099999V0200601N006219999999N999999999+02831+02431101121ADDMA1101121999999OC100821REMMET105MOBOB2 METAR XM21 //000 073342 071453Z AUTO 06012G16KT 28/24 A2986 RMK A02 SLP112 T02830243 PA057 DA2006=
0140008415999992015120715534+07300+134200FM-15+000099999V0200501N007219999999N999999999+02831+02391101061ADDMA1101051999999OC100881REMMET105MOBOB2 METAR XM21 //000 073342 071553Z AUTO 05014G17KT 28/24 A2984 RMK A02 SLP106 T02830239 PA075 DA2018=
0140008415999992015120716534+07300+134200FM-15+000099999V0200401N007219999999N999999999+02831+02421100991ADDMA1100981999999OC100931REMMET105MOBOB2 METAR XM21 //000 073342 071653Z AUTO 04014G18KT 28/24 A2982 RMK A02 SLP099 T02830242 PA094 DA2049=
0140008415999992015120717534+07300+134200FM-15+000099999V0200501N009319999999N999999999+02831+02421100891ADDMA1100881999999OC101181REMMET105MOBOB2 METAR XM21 //000 073342 071753Z AUTO 05018G23KT 28/24 A2979 RMK A02 SLP089 T02830242 PA122 DA2083=
0140008415999992015120718534+07300+134200FM-15+000099999V0200501N009319999999N999999999+02841+02421100891ADDMA1100881999999OC101131REMMET105MOBOB2 METAR XM21 //000 073342 071853Z AUTO 05018G22KT 28/24 A2979 RMK A02 SLP089 T02840242 PA122 DA2094=
0140008415999992015120719534+07300+134200FM-15+000099999V0200501N009319999999N999999999+02831+02351100951ADDMA1100951999999OC101031REMMET105MOBOB2 METAR XM21 //000 073342 071953Z AUTO 05018G20KT 28/24 A2981 RMK A02 SLP095 T02830235 PA103 DA2045=
0140008415999992015120720534+07300+134200FM-15+000099999V0200501N007719999999N999999999+02831+02391101021ADDMA1101021999999OC100931REMMET105MOBOB2 METAR XM21 //000 073342 072053Z AUTO 05015G18KT 28/24 A2983 RMK A02 SLP102 T02830239 PA084 DA2029=
0140008415999992015120721534+07300+134200FM-15+000099999V0200501N007219999999N999999999+02851+02351101091ADDMA1101081999999OC100881REMMET105MOBOB2 METAR XM21 //000 073342 072153Z AUTO 05014G17KT 29/23 A2985 RMK A02 SLP109 T02850235 PA066 DA2020=
0140008415999992015120722534+07300+134200FM-15+000099999V0200601N007719999999N999999999+02861+02331101191ADDMA1101181999999OC100981REMMET105MOBOB2 METAR XM21 //000 073342 072253Z AUTO 06015G19KT 29/23 A2988 RMK A02 SLP119 T02860233 PA038 DA1992=
0140008415999992015120723534+07300+134200FM-15+000099999V0200601N007219999999N999999999+02871+02381101221ADDMA1101221999999OC100881REMMET105MOBOB2 METAR XM21 //000 073342 072353Z AUTO 06014G17KT 29/24 A2989 RMK A02 SLP122 T02870238 PA029 DA2005=
0140008415999992015120800534+07300+134200FM-15+000099999V0200501N006719999999N999999999+02901+02371101221ADDMA1101221999999OC100821REMMET105MOBOB2 METAR XM21 //000 073342 080053Z AUTO 05013G16KT 29/24 A2989 RMK A02 SLP122 T02900237 PA029 DA2036=
0140008415999992015120801534+07300+134200FM-15+000099999V0200401N006219999999N999999999+02921+02401101161ADDMA1101151999999OC100721REMMET105MOBOB2 METAR XM21 //000 073342 080153Z AUTO 04012G14KT 29/24 A2987 RMK A02 SLP116 T02920240 PA047 DA2087=
0140008415999992015120802534+07300+134200FM-15+000099999V0200401N006719999999N999999999+02941+02381101091ADDMA1101081999999OC100771REMMET105MOBOB2 METAR XM21 //000 073342 080253Z AUTO 04013G15KT 29/24 A2985 RMK A02 SLP109 T02940238 PA066 DA2127=
0140008415999992015120803534+07300+134200FM-15+000099999V0200301N006719999999N999999999+02901+02411101021ADDMA1101021999999OC100821REMMET105MOBOB2 METAR XM21 //000 073342 080353Z AUTO 03013G16KT 29/24 A2983 RMK A02 SLP102 T02900241 PA084 DA2112=
0140008415999992015120804534+07300+134200FM-15+000099999V0200601N006719999999N999999999+02931+02311100951ADDMA1100951999999OC100821REMMET105MOBOB2 METAR XM21 //000 073342 080453Z AUTO 06013G16KT 29/23 A2981 RMK A02 SLP095 T02930231 PA103 DA2147=
0140008415999992015120805534+07300+134200FM-15+000099999V0200401N006219999999N999999999+02931+02411100891ADDMA1100881999999OC100771REMMET105MOBOB2 METAR XM21 //000 073342 080553Z AUTO 04012G15KT 29/24 A2979 RMK A02 SLP089 T02930241 PA122 DA2191=
0140008415999992015120806534+07300+134200FM-15+000099999V0200401N008219999999N999999999+02891+02361100921ADDMA1100911999999OC101181REMMET105MOBOB2 METAR XM21 //000 073342 080653Z AUTO 04016G23KT 29/24 A2980 RMK A02 SLP092 T02890236 PA112 DA2124=
0140008415999992015120807534+07300+134200FM-15+000099999V0200501N007219999999N999999999+02881+02411100951ADDMA1100951999999OC100881REMMET105MOBOB2 METAR XM21 //000 073342 080753Z AUTO 05014G17KT 29/24 A2981 RMK A02 SLP095 T02880241 PA103 DA2112=
0140008415999992015120808534+07300+134200FM-15+000099999V0200601N008819999999N999999999+02901+02431101021ADDMA1101021999999OC101031REMMET105MOBOB2 METAR XM21 //000 073342 080853Z AUTO 06017G20KT 29/24 A2983 RMK A02 SLP102 T02900243 PA084 DA2117=
0167008415999992015120809534+07300+134200FM-15+000099999V0200801N005719999999N999999999+02811+02451101091ADDAA101000021AW1611MA1101081999999OC100721REMMET115MOBOB2 METAR XM21 //000 073342 080953Z AUTO 08011G14KT -RA 28/25 A2985 RMK A02 SLP109 P0000 T02810245 PA066 DA1998=
0140008415999992015120810534+07300+134200FM-15+000099999V0200601N005119999999N999999999+02801+02471101161ADDMA1101151999999OC100721REMMET105MOBOB2 METAR XM21 //000 073342 081053Z AUTO 06010G14KT 28/25 A2987 RMK A02 SLP116 T02800247 PA047 DA1968=
0140008415999992015120811534+07300+134200FM-15+000099999V0200801N005119999999N999999999+02841+02471101221ADDMA1101221999999OC100721REMMET105MOBOB2 METAR XM21 //000 073342 081153Z AUTO 08010G14KT 28/25 A2989 RMK A02 SLP122 T02840247 PA029 DA1991=
0156008415999992015120812534+07300+134200FM-15+000099999V0200601N004619999999N999999999+02761+02461101221ADDAA101000531AW1611MA1101221999999REMMET112MOBOB2 METAR XM21 //000 073342 081253Z AUTO 06009KT -RA 28/25 A2989 RMK A02 SLP122 P0002 T02760246 PA029 DA1899=
0140008415999992015120813534+07300+134200FM-15+000099999V0200701N005719999999N999999999+02831+02461101161ADDMA1101151999999OC100771REMMET105MOBOB2 METAR XM21 //000 073342 081353Z AUTO 07011G15KT 28/25 A2987 RMK A02 SLP116 T02830246 PA047 DA2000=
0140008415999992015120814534+07300+134200FM-15+000099999V0200601N005719999999N999999999+02831+02441101121ADDMA1101121999999OC100771REMMET105MOBOB2 METAR XM21 //000 073342 081453Z AUTO 06011G15KT 28/24 A2986 RMK A02 SLP112 T02830244 PA057 DA2007=
0140008415999992015120815534+07300+134200FM-15+000099999V0200601N007719999999N999999999+02801+02391101061ADDMA1101051999999OC101031REMMET105MOBOB2 METAR XM21 //000 073342 081553Z AUTO 06015G20KT 28/24 A2984 RMK A02 SLP106 T02800239 PA075 DA1985=
0140008415999992015120816534+07300+134200FM-15+000099999V0200701N006219999999N999999999+02771+02441100991ADDMA1100981999999OC100771REMMET105MOBOB2 METAR XM21 //000 073342 081653Z AUTO 07012G15KT 28/24 A2982 RMK A02 SLP099 T02770244 PA094 DA1987=
0140008415999992015120817534+07300+134200FM-15+000099999V0200601N006719999999N999999999+02781+02471100921ADDMA1100911999999OC100881REMMET105MOBOB2 METAR XM21 //000 073342 081753Z AUTO 06013G17KT 28/25 A2980 RMK A02 SLP092 T02780247 PA112 DA2027=
0140008415999992015120818534+07300+134200FM-15+000099999V0200601N005119999999N999999999+02771+02471100921ADDMA1100911999999OC100771REMMET105MOBOB2 METAR XM21 //000 073342 081853Z AUTO 06010G15KT 28/25 A2980 RMK A02 SLP092 T02770247 PA112 DA2015=
0140008415999992015120819534+07300+134200FM-15+000099999V0200601N006219999999N999999999+02791+02461100951ADDMA1100951999999OC100821REMMET105MOBOB2 METAR XM21 //000 073342 081953Z AUTO 06012G16KT 28/25 A2981 RMK A02 SLP095 T02790246 PA103 DA2023=
0140008415999992015120820534+07300+134200FM-15+000099999V0200801N007219999999N999999999+02751+02471101021ADDMA1101021999999OC100931REMMET105MOBOB2 METAR XM21 //000 073342 082053Z AUTO 08014G18KT 28/25 A2983 RMK A02 SLP102 T02750247 PA084 DA1959=
0129008415999992015120821534+07300+134200FM-15+000099999V0200701N004619999999N999999999+02771+02481101061ADDMA1101051999999REMMET102MOBOB2 METAR XM21 //000 073342 082153Z AUTO 07009KT 28/25 A2984 RMK A02 SLP106 T02770248 PA075 DA1973=
0140008415999992015120822534+07300+134200FM-15+000099999V0200701N006219999999N999999999+02831+02391101161ADDMA1101151999999OC100821REMMET105MOBOB2 METAR XM21 //000 073342 082253Z AUTO 07012G16KT 28/24 A2987 RMK A02 SLP116 T02830239 PA047 DA1985=
0140008415999992015120823534+07300+134200FM-15+000099999V0200501N007219999999N999999999+02811+02471101161ADDMA1101151999999OC100931REMMET105MOBOB2 METAR XM21 //000 073342 082353Z AUTO 05014G18KT 28/25 A2987 RMK A02 SLP116 T02810247 PA047 DA1980=
0140008415999992015120900534+07300+134200FM-15+000099999V0200501N008219999999N999999999+02771+02441101121ADDMA1101121999999OC101031REMMET105MOBOB2 METAR XM21 //000 073342 090053Z AUTO 05016G20KT 28/24 A2986 RMK A02 SLP112 T02770244 PA057 DA1939=
0140008415999992015120901534+07300+134200FM-15+000099999V0200501N005719999999N999999999+02841+02491101091ADDMA1101081999999OC100671REMMET105MOBOB2 METAR XM21 //000 073342 090153Z AUTO 05011G13KT 28/25 A2985 RMK A02 SLP109 T02840249 PA066 DA2042=
0140008415999992015120902534+07300+134200FM-15+000099999V0200601N007219999999N999999999+02931+02401100991ADDMA1100981999999OC101031REMMET105MOBOB2 METAR XM21 //000 073342 090253Z AUTO 06014G20KT 29/24 A2982 RMK A02 SLP099 T02930240 PA094 DA2155=
0140008415999992015120903534+07300+134200FM-15+000099999V0200601N007219999999N999999999+02991+02331100921ADDMA1100911999999OC100881REMMET105MOBOB2 METAR XM21 //000 073342 090353Z AUTO 06014G17KT 30/23 A2980 RMK A02 SLP092 T02990233 PA112 DA2230=
0140008415999992015120904534+07300+134200FM-15+000099999V0200601N007719999999N999999999+02981+02321100851ADDMA1100851999999OC100981REMMET105MOBOB2 METAR XM21 //000 073342 090453Z AUTO 06015G19KT 30/23 A2978 RMK A02 SLP085 T02980232 PA131 DA2238=
0140008415999992015120905534+07300+134200FM-15+000099999V0200601N007719999999N999999999+02961+02361100821ADDMA1100811999999OC100981REMMET105MOBOB2 METAR XM21 //000 073342 090553Z AUTO 06015G19KT 30/24 A2977 RMK A02 SLP082 T02960236 PA140 DA2235=
0140008415999992015120906534+07300+134200FM-15+000099999V0200601N008219999999N999999999+02931+02371100781ADDMA1100781999999OC101031REMMET105MOBOB2 METAR XM21 //000 073342 090653Z AUTO 06016G20KT 29/24 A2976 RMK A02 SLP078 T02930237 PA149 DA2217=
0140008415999992015120907534+07300+134200FM-15+000099999V0200601N008219999999N999999999+02901+02391100821ADDMA1100811999999OC101031REMMET105MOBOB2 METAR XM21 //000 073342 090753Z AUTO 06016G20KT 29/24 A2977 RMK A02 SLP082 T02900239 PA140 DA2177=
0140008415999992015120908534+07300+134200FM-15+000099999V0200601N007719999999N999999999+02881+02381100891ADDMA1100881999999OC101031REMMET105MOBOB2 METAR XM21 //000 073342 090853Z AUTO 06015G20KT 29/24 A2979 RMK A02 SLP089 T02880238 PA122 DA2129=
0140008415999992015120909534+07300+134200FM-15+000099999V0200601N008219999999N999999999+02861+02391100951ADDMA1100951999999OC100981REMMET105MOBOB2 METAR XM21 //000 073342 090953Z AUTO 06016G19KT 29/24 A2981 RMK A02 SLP095 T02860239 PA103 DA2087=
0140008415999992015120910534+07300+134200FM-15+000099999V0200601N007719999999N999999999+02861+02411100991ADDMA1100981999999OC101031REMMET105MOBOB2 METAR XM21 //000 073342 091053Z AUTO 06015G20KT 29/24 A2982 RMK A02 SLP099 T02860241 PA094 DA2079=
0140008415999992015120911534+07300+134200FM-15+000099999V0200601N006719999999N999999999+02861+02391101061ADDMA1101051999999OC100931REMMET105MOBOB2 METAR XM21 //000 073342 091153Z AUTO 06013G18KT 29/24 A2984 RMK A02 SLP106 T02860239 PA075 DA2053=
0140008415999992015120912534+07300+134200FM-15+000099999V0200601N005719999999N999999999+02851+02371101091ADDMA1101081999999OC100721REMMET105MOBOB2 METAR XM21 //000 073342 091253Z AUTO 06011G14KT 29/24 A2985 RMK A02 SLP109 T02850237 PA066 DA2025=
0140008415999992015120913534+07300+134200FM-15+000099999V0200601N005719999999N999999999+02851+02381101061ADDMA1101051999999OC100821REMMET105MOBOB2 METAR XM21 //000 073342 091353Z AUTO 06011G16KT 29/24 A2984 RMK A02 SLP106 T02850238 PA075 DA2039=
0129008415999992015120914534+07300+134200FM-15+000099999V0200701N004619999999N999999999+02851+02421101061ADDMA1101051999999REMMET102MOBOB2 METAR XM21 //000 073342 091453Z AUTO 07009KT 29/24 A2984 RMK A02 SLP106 T02850242 PA075 DA2048=
0140008415999992015120915534+07300+134200FM-15+000099999V0200601N004619999999N999999999+02831+02431100991ADDMA1100981999999OC100621REMMET105MOBOB2 METAR XM21 //000 073342 091553Z AUTO 06009G12KT 28/24 A2982 RMK A02 SLP099 T02830243 PA094 DA2050=
0140008415999992015120917534+07300+134200FM-15+000099999V0200501N008219999999N999999999+02791+02441100851ADDMA1100851999999OC101131REMMET105MOBOB2 METAR XM21 //000 073342 091753Z AUTO 05016G22KT 28/24 A2978 RMK A02 SLP085 T02790244 PA131 DA2053=
0140008415999992015120919534+07300+134200FM-15+000099999V0200601N005719999999N999999999+02781+02421100851ADDMA1100851999999OC100771REMMET105MOBOB2 METAR XM21 //000 073342 091953Z AUTO 06011G15KT 28/24 A2978 RMK A02 SLP085 T02780242 PA131 DA2037=
0140008415999992015120921534+07300+134200FM-15+000099999V0200601N006719999999N999999999+02811+02461100951ADDMA1100951999999OC100821REMMET105MOBOB2 METAR XM21 //000 073342 092153Z AUTO 06013G16KT 28/25 A2981 RMK A02 SLP095 T02810246 PA103 DA2047=
0140008415999992015120922534+07300+134200FM-15+000099999V0200501N005119999999N999999999+02821+02461101021ADDMA1101021999999OC100621REMMET105MOBOB2 METAR XM21 //000 073342 092253Z AUTO 05010G12KT 28/25 A2983 RMK A02 SLP102 T02820246 PA084 DA2035=
0140008415999992015120923534+07300+134200FM-15+000099999V0200501N005119999999N999999999+02821+02461101061ADDMA1101051999999OC100671REMMET105MOBOB2 METAR XM21 //000 073342 092353Z AUTO 05010G13KT 28/25 A2984 RMK A02 SLP106 T02820246 PA075 DA2024=
0140008415999992015121000534+07300+134200FM-15+000099999V0200401N006719999999N999999999+02901+02461101021ADDMA1101021999999OC100771REMMET105MOBOB2 METAR XM21 //000 073342 100053Z AUTO 04013G15KT 29/25 A2983 RMK A02 SLP102 T02900246 PA084 DA2124=
0140008415999992015121001534+07300+134200FM-15+000099999V0200401N007219999999N999999999+02921+02431100991ADDMA1100981999999OC100881REMMET105MOBOB2 METAR XM21 //000 073342 100153Z AUTO 04014G17KT 29/24 A2982 RMK A02 SLP099 T02920243 PA094 DA2150=
0167008415999992015121002534+07300+134200FM-15+000099999V0200301N007719999999N999999999+02921+02411100891ADDAA101000231AW1611MA1100881999999OC100931REMMET115MOBOB2 METAR XM21 //000 073342 100253Z AUTO 03015G18KT -RA 29/24 A2979 RMK A02 SLP089 P0001 T02920241 PA122 DA2179=
0140008415999992015121003534+07300+134200FM-15+000099999V0200301N008219999999N999999999+02931+02431100821ADDMA1100811999999OC100931REMMET105MOBOB2 METAR XM21 //000 073342 100353Z AUTO 03016G18KT 29/24 A2977 RMK A02 SLP082 T02930243 PA140 DA2219=
0140008415999992015121004534+07300+134200FM-15+000099999V0200201N007219999999N999999999+02911+02431100781ADDMA1100781999999OC100821REMMET105MOBOB2 METAR XM21 //000 073342 100453Z AUTO 02014G16KT 29/24 A2976 RMK A02 SLP078 T02910243 PA149 DA2207=
0140008415999992015121005534+07300+134200FM-15+000099999V0200101N007719999999N999999999+02891+02441100751ADDMA1100741999999OC100931REMMET105MOBOB2 METAR XM21 //000 073342 100553Z AUTO 01015G18KT 29/24 A2975 RMK A02 SLP075 T02890244 PA159 DA2199=
0140008415999992015121006534+07300+134200FM-15+000099999V0200101N007219999999N999999999+02861+02451100721ADDMA1100711999999OC100881REMMET105MOBOB2 METAR XM21 //000 073342 100653Z AUTO 01014G17KT 29/25 A2974 RMK A02 SLP072 T02860245 PA168 DA2180=
0140008415999992015121007534+07300+134200FM-15+000099999V0200101N006219999999N999999999+02871+02451100781ADDMA1100781999999OC100721REMMET105MOBOB2 METAR XM21 //000 073342 100753Z AUTO 01012G14KT 29/24 A2976 RMK A02 SLP078 T02870245 PA149 DA2168=
0140008415999992015121008534+07300+134200FM-15+000099999V0200101N006219999999N999999999+02851+02491100851ADDMA1100851999999OC100771REMMET105MOBOB2 METAR XM21 //000 073342 100853Z AUTO 01012G15KT 29/25 A2978 RMK A02 SLP085 T02850249 PA131 DA2131=
0140008415999992015121009534+07300+134200FM-15+000099999V0200201N007219999999N999999999+02861+02441100891ADDMA1100881999999OC100821REMMET105MOBOB2 METAR XM21 //000 073342 100953Z AUTO 02014G16KT 29/24 A2979 RMK A02 SLP089 T02860244 PA122 DA2120=
0140008415999992015121010534+07300+134200FM-15+000099999V0200101N008219999999N999999999+02871+02491100951ADDMA1100951999999OC100931REMMET105MOBOB2 METAR XM21 //000 073342 101053Z AUTO 01016G18KT 29/25 A2981 RMK A02 SLP095 T02870249 PA103 DA2122=
0140008415999992015121011534+07300+134200FM-15+000099999V0200101N008819999999N999999999+02771+02431100991ADDMA1100981999999OC101031REMMET105MOBOB2 METAR XM21 //000 073342 101153Z AUTO 01017G20KT 28/24 A2982 RMK A02 SLP099 T02770243 PA094 DA1983=
0140008415999992015121012534+07300+134200FM-15+000099999V0203601N007219999999N999999999+02831+02461100991ADDMA1100981999999OC100881REMMET105MOBOB2 METAR XM21 //000 073342 101253Z AUTO 36014G17KT 28/25 A2982 RMK A02 SLP099 T02830246 PA094 DA2057=
0129008415999992015121013534+07300+134200FM-15+000099999V0203501N004619999999N999999999+02781+02501100951ADDMA1100951999999REMMET102MOBOB2 METAR XM21 //000 073342 101353Z AUTO 35009KT 28/25 A2981 RMK A02 SLP095 T02780250 PA103 DA2021=
0140008415999992015121014534+07300+134200FM-15+000099999V0200101N006719999999N999999999+02831+02481100951ADDMA1100951999999OC100821REMMET105MOBOB2 METAR XM21 //000 073342 101453Z AUTO 01013G16KT 28/25 A2981 RMK A02 SLP095 T02830248 PA103 DA2075=
0140008415999992015121015534+07300+134200FM-15+000099999V0203401N008819999999N999999999+02781+02461100851ADDMA1100851999999OC100981REMMET105MOBOB2 METAR XM21 //000 073342 101553Z AUTO 34017G19KT 28/25 A2978 RMK A02 SLP085 T02780246 PA131 DA2047=
0140008415999992015121016534+07300+134200FM-15+000099999V0203201N005719999999N999999999+02761+02501100821ADDMA1100811999999OC100671REMMET105MOBOB2 METAR XM21 //000 073342 101653Z AUTO 32011G13KT 28/25 A2977 RMK A02 SLP082 T02760250 PA140 DA2046=
0140008415999992015121017534+07300+134200FM-15+000099999V0203501N008819999999N999999999+02741+02471100751ADDMA1100741999999OC101031REMMET105MOBOB2 METAR XM21 //000 073342 101753Z AUTO 35017G20KT 27/25 A2975 RMK A02 SLP075 T02740247 PA159 DA2038=
0140008415999992015121019534+07300+134200FM-15+000099999V0203401N007219999999N999999999+02801+02521100721ADDMA1100711999999OC100881REMMET105MOBOB2 METAR XM21 //000 073342 101953Z AUTO 34014G17KT 28/25 A2974 RMK A02 SLP072 T02800252 PA168 DA2130=
0167008415999992015121020534+07300+134200FM-15+000099999V0203401N008219999999N999999999+02721+02491100721ADDAA101000021AW1611MA1100711999999OC101031REMMET115MOBOB2 METAR XM21 //000 073342 102053Z AUTO 34016G20KT -RA 27/25 A2974 RMK A02 SLP072 P0000 T02720249 PA168 DA2032=
0140008415999992015121021534+07300+134200FM-15+000099999V0203501N006719999999N999999999+02771+02471100781ADDMA1100781999999OC100881REMMET105MOBOB2 METAR XM21 //000 073342 102153Z AUTO 35013G17KT 28/25 A2976 RMK A02 SLP078 T02770247 PA149 DA2062=
0140008415999992015121022534+07300+134200FM-15+000099999V0203401N007719999999N999999999+02811+02521100821ADDMA1100811999999OC100881REMMET105MOBOB2 METAR XM21 //000 073342 102253Z AUTO 34015G17KT 28/25 A2977 RMK A02 SLP082 T02810252 PA140 DA2107=
0140008415999992015121023534+07300+134200FM-15+000099999V0203501N006719999999N999999999+02731+02511100851ADDMA1100851999999OC100881REMMET105MOBOB2 METAR XM21 //000 073342 102353Z AUTO 35013G17KT 27/25 A2978 RMK A02 SLP085 T02730251 PA131 DA2003=
0140008415999992015121100534+07300+134200FM-15+000099999V0203501N006219999999N999999999+02831+02521100851ADDMA1100851999999OC100821REMMET105MOBOB2 METAR XM21 //000 073342 110053Z AUTO 35012G16KT 28/25 A2978 RMK A02 SLP085 T02830252 PA131 DA2116=
0140008415999992015121101534+07300+134200FM-15+000099999V0203601N007219999999N999999999+02851+02491100751ADDMA1100741999999OC100881REMMET105MOBOB2 METAR XM21 //000 073342 110153Z AUTO 36014G17KT 29/25 A2975 RMK A02 SLP075 T02850249 PA159 DA2167=
0140008415999992015121102534+07300+134200FM-15+000099999V0203501N006719999999N999999999+02871+02491100681ADDMA1100681999999OC100821REMMET105MOBOB2 METAR XM21 //000 073342 110253Z AUTO 35013G16KT 29/25 A2973 RMK A02 SLP068 T02870249 PA177 DA2212=
0140008415999992015121103544+07300+134200FM-15+000099999V0203501N006219999999N999999999+02881+02541100611ADDMA1100611999999OC100721REMMET105MOBOB2 METAR XM21 //000 073342 110354Z AUTO 35012G14KT 29/25 A2971 RMK A02 SLP061 T02880254 PA196 DA2258=
0140008415999992015121104534+07300+134200FM-15+000099999V0203401N005719999999N999999999+02861+02541100581ADDMA1100581999999OC100621REMMET105MOBOB2 METAR XM21 //000 073342 110453Z AUTO 34011G12KT 29/25 A2970 RMK A02 SLP058 T02860254 PA205 DA2248=
0140008415999992015121105534+07300+134200FM-15+000099999V0203501N005719999999N999999999+02841+02501100511ADDMA1100511999999OC100621REMMET105MOBOB2 METAR XM21 //000 073342 110553Z AUTO 35011G12KT 28/25 A2968 RMK A02 SLP051 T02840250 PA224 DA2238=
0129008415999992015121106534+07300+134200FM-15+000099999V0203501N004619999999N999999999+02851+02531100511ADDMA1100511999999REMMET102MOBOB2 METAR XM21 //000 073342 110653Z AUTO 35009KT 29/25 A2968 RMK A02 SLP051 T02850253 PA224 DA2258=
0129008415999992015121107534+07300+134200FM-15+000099999V0203401N004619999999N999999999+02831+02531100551ADDMA1100541999999REMMET102MOBOB2 METAR XM21 //000 073342 110753Z AUTO 34009KT 28/25 A2969 RMK A02 SLP055 T02830253 PA214 DA2224=
0156008415999992015121108534+07300+134200FM-15+000099999V0203101N003119999999N999999999+02721+02531100621ADDAA101000531AW1611MA1100611999999REMMET112MOBOB2 METAR XM21 //000 073342 110853Z AUTO 31006KT -RA 27/25 A2971 RMK A02 SLP062 P0002 T02720253 PA196 DA2076=
0140008415999992015121109534+07300+134200FM-15+000099999V0203501N005119999999N999999999+02831+02531100681ADDMA1100681999999OC100671REMMET105MOBOB2 METAR XM21 //000 073342 110953Z AUTO 35010G13KT 28/25 A2973 RMK A02 SLP068 T02830253 PA177 DA2177=
0129008415999992015121110534+07300+134200FM-15+000099999V0203601N004619999999N999999999+02771+02521100681ADDMA1100681999999REMMET102MOBOB2 METAR XM21 //000 073342 111053Z AUTO 36009KT 28/25 A2973 RMK A02 SLP068 T02770252 PA177 DA2107=
0129008415999992015121111534+07300+134200FM-15+000099999V0203401N002619999999N999999999+02811+02561100721ADDMA1100711999999REMMET102MOBOB2 METAR XM21 //000 073342 111153Z AUTO 34005KT 28/26 A2974 RMK A02 SLP072 T02810256 PA168 DA2152=
0129008415999992015121112534+07300+134200FM-15+000099999V0200101N003619999999N999999999+02801+02491100751ADDMA1100741999999REMMET102MOBOB2 METAR XM21 //000 073342 111253Z AUTO 01007KT 28/25 A2975 RMK A02 SLP075 T02800249 PA159 DA2110=
0129008415999992015121113534+07300+134200FM-15+000099999V0202701N001519999999N999999999+02791+02531100681ADDMA1100681999999REMMET102MOBOB2 METAR XM21 //000 073342 111353Z AUTO 27003KT 28/25 A2973 RMK A02 SLP068 T02790253 PA177 DA2133=
0129008415999992015121114534+07300+134200FM-15+000099999V0203201N003119999999N999999999+02791+02451100651ADDMA1100641999999REMMET102MOBOB2 METAR XM21 //000 073342 111453Z AUTO 32006KT 28/25 A2972 RMK A02 SLP065 T02790245 PA187 DA2125=
0129008415999992015121115534+07300+134200FM-15+000099999V0203001N002119999999N999999999+02761+02541100611ADDMA1100611999999REMMET102MOBOB2 METAR XM21 //000 073342 111553Z AUTO 30004KT 28/25 A2971 RMK A02 SLP061 T02760254 PA196 DA2124=
0129008415999992015121116534+07300+134200FM-15+000099999V0202801N002619999999N999999999+02761+02511100581ADDMA1100581999999REMMET102MOBOB2 METAR XM21 //000 073342 111653Z AUTO 28005KT 28/25 A2970 RMK A02 SLP058 T02760251 PA205 DA2129=
0129008415999992015121117534+07300+134200FM-15+000099999V0202801N003119999999N999999999+02771+02491100511ADDMA1100511999999REMMET102MOBOB2 METAR XM21 //000 073342 111753Z AUTO 28006KT 28/25 A2968 RMK A02 SLP051 T02770249 PA224 DA2159=
0129008415999992015121118534+07300+134200FM-15+000099999V0202801N003119999999N999999999+02791+02461100511ADDMA1100511999999REMMET102MOBOB2 METAR XM21 //000 073342 111853Z AUTO 28006KT 28/25 A2968 RMK A02 SLP051 T02790246 PA224 DA2174=
0129008415999992015121119534+07300+134200FM-15+000099999V0202701N003119999999N999999999+02761+02511100551ADDMA1100541999999REMMET102MOBOB2 METAR XM21 //000 073342 111953Z AUTO 27006KT 28/25 A2969 RMK A02 SLP055 T02760251 PA214 DA2139=
0129008415999992015121120534+07300+134200FM-15+000099999V0202501N003119999999N999999999+02771+02511100581ADDMA1100581999999REMMET102MOBOB2 METAR XM21 //000 073342 112053Z AUTO 25006KT 28/25 A2970 RMK A02 SLP058 T02770251 PA205 DA2139=
0129008415999992015121121534+07300+134200FM-15+000099999V0202601N004119999999N999999999+02761+02511100651ADDMA1100641999999REMMET102MOBOB2 METAR XM21 //000 073342 112153Z AUTO 26008KT 28/25 A2972 RMK A02 SLP065 T02760251 PA187 DA2105=
0129008415999992015121122534+07300+134200FM-15+000099999V0202201N005119999999N999999999+02771+02551100721ADDMA1100711999999REMMET102MOBOB2 METAR XM21 //000 073342 112253Z AUTO 22010KT 28/25 A2974 RMK A02 SLP072 T02770255 PA168 DA2102=
0167008415999992015121123534+07300+134200FM-15+000099999V0202301N005119999999N999999999+02771+02501100751ADDAA101000021AW1611MA1100741999999OC100621REMMET115MOBOB2 METAR XM21 //000 073342 112353Z AUTO 23010G12KT -RA 28/25 A2975 RMK A02 SLP075 P0000 T02770250 PA159 DA2080=
0156008415999992015121200534+07300+134200FM-15+000099999V0202601N004119999999N999999999+02761+02511100721ADDAA101000021AW1611MA1100711999999REMMET112MOBOB2 METAR XM21 //000 073342 120053Z AUTO 26008KT -RA 28/25 A2974 RMK A02 SLP072 P0000 T02760251 PA168 DA2083=
0129008415999992015121201534+07300+134200FM-15+000099999V0202201N004119999999N999999999+02811+02511100721ADDMA1100711999999REMMET102MOBOB2 METAR XM21 //000 073342 120153Z AUTO 22008KT 28/25 A2974 RMK A02 SLP072 T02810251 PA168 DA2139=
0140008415999992015121202534+07300+134200FM-15+000099999V0202101N005719999999N999999999+02831+02501100681ADDMA1100681999999OC100721REMMET105MOBOB2 METAR XM21 //000 073342 120253Z AUTO 21011G14KT 28/25 A2973 RMK A02 SLP068 T02830250 PA177 DA2171=
0140008415999992015121203534+07300+134200FM-15+000099999V0202001N005719999999N999999999+02871+02541100611ADDMA1100611999999OC100771REMMET105MOBOB2 METAR XM21 //000 073342 120353Z AUTO 20011G15KT 29/25 A2971 RMK A02 SLP061 T02870254 PA196 DA2248=
0140008415999992015121204534+07300+134200FM-15+000099999V0202101N007219999999N999999999+02861+02531100511ADDMA1100511999999OC100881REMMET105MOBOB2 METAR XM21 //000 073342 120453Z AUTO 21014G17KT 29/25 A2968 RMK A02 SLP051 T02860253 PA224 DA2267=
0167008415999992015121205534+07300+134200FM-15+000099999V0201901N005719999999N999999999+02721+02491100511ADDAA101000021AW1611MA1100511999999OC100671REMMET115MOBOB2 METAR XM21 //000 073342 120553Z AUTO 19011G13KT -RA 27/25 A2968 RMK A02 SLP051 P0000 T02720249 PA224 DA2101=
0140008415999992015121206534+07300+134200FM-15+000099999V0202201N005119999999N999999999+02771+02531100551ADDMA1100541999999OC100621REMMET105MOBOB2 METAR XM21 //000 073342 120653Z AUTO 22010G12KT 28/25 A2969 RMK A02 SLP055 T02770253 PA214 DA2157=
0129008415999992015121207534+07300+134200FM-15+000099999V0202001N004619999999N999999999+02771+02511100551ADDMA1100541999999REMMET102MOBOB2 METAR XM21 //000 073342 120753Z AUTO 20009KT 28/25 A2969 RMK A02 SLP055 T02770251 PA214 DA2151=
0129008415999992015121208534+07300+134200FM-15+000099999V0202001N004119999999N999999999+02821+02591100651ADDMA1100641999999REMMET102MOBOB2 METAR XM21 //000 073342 120853Z AUTO 20008KT 28/26 A2972 RMK A02 SLP065 T02820259 PA187 DA2192=
0140008415999992015121209534+07300+134200FM-15+000099999V0202001N006219999999N999999999+02851+02531100651ADDMA1100641999999OC100771REMMET105MOBOB2 METAR XM21 //000 073342 120953Z AUTO 20012G15KT 29/25 A2972 RMK A02 SLP065 T02850253 PA187 DA2211=
0167008415999992015121210534+07300+134200FM-15+000099999V0202101N007219999999N999999999+02841+02531100681ADDAA101000531AW1611MA1100681999999OC100881REMMET115MOBOB2 METAR XM21 //000 073342 121053Z AUTO 21014G17KT -RA 28/25 A2973 RMK A02 SLP068 P0002 T02840253 PA177 DA2189=
0140008415999992015121211534+07300+134200FM-15+000099999V0202101N007219999999N999999999+02881+02481100721ADDMA1100711999999OC100881REMMET105MOBOB2 METAR XM21 //000 073342 121153Z AUTO 21014G17KT 29/25 A2974 RMK A02 SLP072 T02880248 PA168 DA2210=
0140008415999992015121212534+07300+134200FM-15+000099999V0202101N006219999999N999999999+02881+02511100781ADDMA1100781999999OC100771REMMET105MOBOB2 METAR XM21 //000 073342 121253Z AUTO 21012G15KT 29/25 A2976 RMK A02 SLP078 T02880251 PA149 DA2193=
0140008415999992015121213534+07300+134200FM-15+000099999V0201801N005719999999N999999999+02871+02511100821ADDMA1100811999999OC100771REMMET105MOBOB2 METAR XM21 //000 073342 121353Z AUTO 18011G15KT 29/25 A2977 RMK A02 SLP082 T02870251 PA140 DA2170=
0140008415999992015121214534+07300+134200FM-15+000099999V0201901N005719999999N999999999+02871+02491100821ADDMA1100811999999OC100821REMMET105MOBOB2 METAR XM21 //000 073342 121453Z AUTO 19011G16KT 29/25 A2977 RMK A02 SLP082 T02870249 PA140 DA2165=
0140008415999992015121215534+07300+134200FM-15+000099999V0201801N005719999999N999999999+02851+02501100781ADDMA1100781999999OC100821REMMET105MOBOB2 METAR XM21 //000 073342 121553Z AUTO 18011G16KT 29/25 A2976 RMK A02 SLP078 T02850250 PA149 DA2159=
0140008415999992015121216534+07300+134200FM-15+000099999V0201801N005119999999N999999999+02841+02491100721ADDMA1100711999999OC100671REMMET105MOBOB2 METAR XM21 //000 073342 121653Z AUTO 18010G13KT 28/25 A2974 RMK A02 SLP072 T02840249 PA168 DA2167=
0140008415999992015121217534+07300+134200FM-15+000099999V0201701N004619999999N999999999+02831+02461100721ADDMA1100711999999OC100621REMMET105MOBOB2 METAR XM21 //000 073342 121753Z AUTO 17009G12KT 28/25 A2974 RMK A02 SLP072 T02830246 PA168 DA2149=
0129008415999992015121218534+07300+134200FM-15+000099999V0201701N004619999999N999999999+02831+02451100681ADDMA1100681999999REMMET102MOBOB2 METAR XM21 //000 073342 121853Z AUTO 17009KT 28/24 A2973 RMK A02 SLP068 T02830245 PA177 DA2157=
0129008415999992015121219534+07300+134200FM-15+000099999V0201801N004119999999N999999999+02831+02461100721ADDMA1100711999999REMMET102MOBOB2 METAR XM21 //000 073342 121953Z AUTO 18008KT 28/25 A2974 RMK A02 SLP072 T02830246 PA168 DA2148=
0140008415999992015121220534+07300+134200FM-15+000099999V0201801N005119999999N999999999+02831+02441100751ADDMA1100741999999OC100621REMMET105MOBOB2 METAR XM21 //000 073342 122053Z AUTO 18010G12KT 28/24 A2975 RMK A02 SLP075 T02830244 PA159 DA2133=
0129008415999992015121221534+07300+134200FM-15+000099999V0201701N004619999999N999999999+02841+02481100821ADDMA1100811999999REMMET102MOBOB2 METAR XM21 //000 073342 122153Z AUTO 17009KT 28/25 A2977 RMK A02 SLP082 T02840248 PA140 DA2130=
0129008415999992015121222534+07300+134200FM-15+000099999V0201701N004619999999N999999999+02871+02491100891ADDMA1100881999999REMMET102MOBOB2 METAR XM21 //000 073342 122253Z AUTO 17009KT 29/25 A2979 RMK A02 SLP089 T02870249 PA122 DA2144=
0140008415999992015121223534+07300+134200FM-15+000099999V0201501N005119999999N999999999+02901+02481100951ADDMA1100951999999OC100621REMMET105MOBOB2 METAR XM21 //000 073342 122353Z AUTO 15010G12KT 29/25 A2981 RMK A02 SLP095 T02900248 PA103 DA2151=
0140008415999992015121300534+07300+134200FM-15+000099999V0201501N005719999999N999999999+02931+02491100951ADDMA1100951999999OC100671REMMET105MOBOB2 METAR XM21 //000 073342 130053Z AUTO 15011G13KT 29/25 A2981 RMK A02 SLP095 T02930249 PA103 DA2186=
0129008415999992015121301534+07300+134200FM-15+000099999V0201401N004619999999N999999999+02931+02451100921ADDMA1100911999999REMMET102MOBOB2 METAR XM21 //000 073342 130153Z AUTO 14009KT 29/24 A2980 RMK A02 SLP092 T02930245 PA112 DA2189=
0129008415999992015121302534+07300+134200FM-15+000099999V0201501N004619999999N999999999+02941+02471100851ADDMA1100851999999REMMET102MOBOB2 METAR XM21 //000 073342 130253Z AUTO 15009KT 29/25 A2978 RMK A02 SLP085 T02940247 PA131 DA2227=
0129008415999992015121303534+07300+134200FM-15+000099999V0201501N004619999999N999999999+02941+02511100821ADDMA1100811999999REMMET102MOBOB2 METAR XM21 //000 073342 130353Z AUTO 15009KT 29/25 A2977 RMK A02 SLP082 T02940251 PA140 DA2249=
0129008415999992015121304534+07300+134200FM-15+000099999V0201501N004619999999N999999999+02941+02471100751ADDMA1100741999999REMMET102MOBOB2 METAR XM21 //000 073342 130453Z AUTO 15009KT 29/25 A2975 RMK A02 SLP075 T02940247 PA159 DA2262=
0140008415999992015121305534+07300+134200FM-15+000099999V0201501N005719999999N999999999+02921+02451100721ADDMA1100711999999OC100621REMMET105MOBOB2 METAR XM21 //000 073342 130553Z AUTO 15011G12KT 29/25 A2974 RMK A02 SLP072 T02920245 PA168 DA2248=
0129008415999992015121306534+07300+134200FM-15+000099999V0201501N004619999999N999999999+02911+02481100721ADDMA1100711999999REMMET102MOBOB2 METAR XM21 //000 073342 130653Z AUTO 15009KT 29/25 A2974 RMK A02 SLP072 T02910248 PA168 DA2244=
0167008415999992015121307534+07300+134200FM-15+000099999V0201201N005719999999N999999999+02761+02521100751ADDAA101003331AW1611MA1100741999999OC100771REMMET115MOBOB2 METAR XM21 //000 073342 130753Z AUTO 12011G15KT -RA 28/25 A2975 RMK A02 SLP075 P0013 T02760252 PA159 DA2072=
0129008415999992015121308534+07300+134200FM-15+000099999V0201201N004619999999N999999999+02831+02501100781ADDMA1100781999999REMMET102MOBOB2 METAR XM21 //000 073342 130853Z AUTO 12009KT 28/25 A2976 RMK A02 SLP078 T02830250 PA149 DA2135=
0140008415999992015121309534+07300+134200FM-15+000099999V0201301N005119999999N999999999+02861+02431100851ADDMA1100851999999OC100621REMMET105MOBOB2 METAR XM21 //000 073342 130953Z AUTO 13010G12KT 29/24 A2978 RMK A02 SLP085 T02860243 PA131 DA2130=
0129008415999992015121310534+07300+134200FM-15+000099999V0201201N004119999999N999999999+02871+02491100891ADDMA1100881999999REMMET102MOBOB2 METAR XM21 //000 073342 131053Z AUTO 12008KT 29/25 A2979 RMK A02 SLP089 T02870249 PA122 DA2143=
0129008415999992015121311534+07300+134200FM-15+000099999V0201201N005119999999N999999999+02871+02501100951ADDMA1100951999999REMMET102MOBOB2 METAR XM21 //000 073342 131153Z AUTO 12010KT 29/25 A2981 RMK A02 SLP095 T02870250 PA103 DA2122=
0140008415999992015121312534+07300+134200FM-15+000099999V0201201N005119999999N999999999+02881+02481100951ADDMA1100951999999OC100671REMMET105MOBOB2 METAR XM21 //000 073342 131253Z AUTO 12010G13KT 29/25 A2981 RMK A02 SLP095 T02880248 PA103 DA2130=
0129008415999992015121313534+07300+134200FM-15+000099999V0201201N004619999999N999999999+02861+02461100951ADDMA1100951999999REMMET102MOBOB2 METAR XM21 //000 073342 131353Z AUTO 12009KT 29/25 A2981 RMK A02 SLP095 T02860246 PA103 DA2101=
0129008415999992015121314534+07300+134200FM-15+000099999V0201201N004619999999N999999999+02871+02511100951ADDMA1100951999999REMMET102MOBOB2 METAR XM21 //000 073342 131453Z AUTO 12009KT 29/25 A2981 RMK A02 SLP095 T02870251 PA103 DA2125=
0140008415999992015121315534+07300+134200FM-15+000099999V0201201N005119999999N999999999+02861+02501100851ADDMA1100851999999OC100621REMMET105MOBOB2 METAR XM21 //000 073342 131553Z AUTO 12010G12KT 29/25 A2978 RMK A02 SLP085 T02860250 PA131 DA2145=
0129008415999992015121316534+07300+134200FM-15+000099999V0201001N004619999999N999999999+02851+02481100781ADDMA1100781999999REMMET102MOBOB2 METAR XM21 //000 073342 131653Z AUTO 10009KT 29/25 A2976 RMK A02 SLP078 T02850248 PA149 DA2152=
0129008415999992015121317534+07300+134200FM-15+000099999V0201001N004119999999N999999999+02841+02511100721ADDMA1100711999999REMMET102MOBOB2 METAR XM21 //000 073342 131753Z AUTO 10008KT 28/25 A2974 RMK A02 SLP072 T02840251 PA168 DA2172=
0140008415999992015121318534+07300+134200FM-15+000099999V0201001N005119999999N999999999+02841+02481100721ADDMA1100711999999OC100671REMMET105MOBOB2 METAR XM21 //000 073342 131853Z AUTO 10010G13KT 28/25 A2974 RMK A02 SLP072 T02840248 PA168 DA2164=
0129008415999992015121319534+07300+134200FM-15+000099999V0200901N004119999999N999999999+02831+02451100751ADDMA1100741999999REMMET102MOBOB2 METAR XM21 //000 073342 131953Z AUTO 09008KT 28/24 A2975 RMK A02 SLP075 T02830245 PA159 DA2134=
0129008415999992015121320534+07300+134200FM-15+000099999V0201001N004119999999N999999999+02841+02451100781ADDMA1100781999999REMMET102MOBOB2 METAR XM21 //000 073342 132053Z AUTO 10008KT 28/25 A2976 RMK A02 SLP078 T02840245 PA149 DA2135=
0129008415999992015121321534+07300+134200FM-15+000099999V0200901N004119999999N999999999+02841+02441100851ADDMA1100851999999REMMET102MOBOB2 METAR XM21 //000 073342 132153Z AUTO 09008KT 28/24 A2978 RMK A02 SLP085 T02840244 PA131 DA2110=
0129008415999992015121322534+07300+134200FM-15+000099999V0200801N004119999999N999999999+02871+02411100951ADDMA1100951999999REMMET102MOBOB2 METAR XM21 //000 073342 132253Z AUTO 08008KT 29/24 A2981 RMK A02 SLP095 T02870241 PA103 DA2102=
0140008415999992015121323534+07300+134200FM-15+000099999V0200801N005119999999N999999999+02881+02461101021ADDMA1101021999999OC100671REMMET105MOBOB2 METAR XM21 //000 073342 132353Z AUTO 08010G13KT 29/25 A2983 RMK A02 SLP102 T02880246 PA084 DA2103=
0129008415999992015121400534+07300+134200FM-15+000099999V0200901N004619999999N999999999+02901+02441100991ADDMA1100981999999REMMET102MOBOB2 METAR XM21 //000 073342 140053Z AUTO 09009KT 29/24 A2982 RMK A02 SLP099 T02900244 PA094 DA2130=
0129008415999992015121401534+07300+134200FM-15+000099999V0200901N004119999999N999999999+02921+02401100921ADDMA1100911999999REMMET102MOBOB2 METAR XM21 //000 073342 140153Z AUTO 09008KT 29/24 A2980 RMK A02 SLP092 T02920240 PA112 DA2166=
0129008415999992015121402534+07300+134200FM-15+000099999V0200901N004619999999N999999999+02911+02411100891ADDMA1100881999999REMMET102MOBOB2 METAR XM21 //000 073342 140253Z AUTO 09009KT 29/24 A2979 RMK A02 SLP089 T02910241 PA122 DA2170=
0129008415999992015121403534+07300+134200FM-15+000099999V0200801N004619999999N999999999+02911+02381100781ADDMA1100781999999REMMET102MOBOB2 METAR XM21 //000 073342 140353Z AUTO 08009KT 29/24 A2976 RMK A02 SLP078 T02910238 PA149 DA2196=
0129008415999992015121404534+07300+134200FM-15+000099999V0201001N005119999999N999999999+02901+02391100721ADDMA1100711999999REMMET102MOBOB2 METAR XM21 //000 073342 140453Z AUTO 10010KT 29/24 A2974 RMK A02 SLP072 T02900239 PA168 DA2211=
0129008415999992015121405534+07300+134200FM-15+000099999V0200901N003619999999N999999999+02911+02401100721ADDMA1100711999999REMMET102MOBOB2 METAR XM21 //000 073342 140553Z AUTO 09007KT 29/24 A2974 RMK A02 SLP072 T02910240 PA168 DA2224=
0129008415999992015121406534+07300+134200FM-15+000099999V0200801N003619999999N999999999+02901+02401100721ADDMA1100711999999REMMET102MOBOB2 METAR XM21 //000 073342 140653Z AUTO 08007KT 29/24 A2974 RMK A02 SLP072 T02900240 PA168 DA2213=
0129008415999992015121407534+07300+134200FM-15+000099999V0200801N004619999999N999999999+02871+02431100721ADDMA1100711999999REMMET102MOBOB2 METAR XM21 //000 073342 140753Z AUTO 08009KT 29/24 A2974 RMK A02 SLP072 T02870243 PA168 DA2188=
0129008415999992015121408534+07300+134200FM-15+000099999V0200801N003619999999N999999999+02861+02421100751ADDMA1100741999999REMMET102MOBOB2 METAR XM21 //000 073342 140853Z AUTO 08007KT 29/24 A2975 RMK A02 SLP075 T02860242 PA159 DA2162=
0129008415999992015121409534+07300+134200FM-15+000099999V0200601N004119999999N999999999+02851+02451100821ADDMA1100811999999REMMET102MOBOB2 METAR XM21 //000 073342 140953Z AUTO 06008KT 29/24 A2977 RMK A02 SLP082 T02850245 PA140 DA2134=
0140008415999992015121410534+07300+134200FM-15+000099999V0200401N005719999999N999999999+02841+02521100851ADDMA1100851999999OC100621REMMET105MOBOB2 METAR XM21 //000 073342 141053Z AUTO 04011G12KT 28/25 A2978 RMK A02 SLP085 T02840252 PA131 DA2129=
0140008415999992015121411534+07300+134200FM-15+000099999V0200501N006219999999N999999999+02831+02461100921ADDMA1100911999999OC100771REMMET105MOBOB2 METAR XM21 //000 073342 141153Z AUTO 05012G15KT 28/25 A2980 RMK A02 SLP092 T02830246 PA112 DA2080=
0140008415999992015121412534+07300+134200FM-15+000099999V0200601N005719999999N999999999+02831+02461100951ADDMA1100951999999OC100671REMMET105MOBOB2 METAR XM21 //000 073342 141253Z AUTO 06011G13KT 28/25 A2981 RMK A02 SLP095 T02830246 PA103 DA2070=
0140008415999992015121413534+07300+134200FM-15+000099999V0200501N007719999999N999999999+02821+02461100891ADDMA1100881999999OC100881REMMET105MOBOB2 METAR XM21 //000 073342 141353Z AUTO 05015G17KT 28/25 A2979 RMK A02 SLP089 T02820246 PA122 DA2081=
0140008415999992015121414534+07300+134200FM-15+000099999V0200501N007719999999N999999999+02831+02471100891ADDMA1100881999999OC100931REMMET105MOBOB2 METAR XM21 //000 073342 141453Z AUTO 05015G18KT 28/25 A2979 RMK A02 SLP089 T02830247 PA122 DA2093=
0140008415999992015121415534+07300+134200FM-15+000099999V0200401N007219999999N999999999+02841+02441100851ADDMA1100851999999OC100881REMMET105MOBOB2 METAR XM21 //000 073342 141553Z AUTO 04014G17KT 28/24 A2978 RMK A02 SLP085 T02840244 PA131 DA2110=
0140008415999992015121416534+07300+134200FM-15+000099999V0200501N007219999999N999999999+02821+02451100751ADDMA1100741999999OC100931REMMET105MOBOB2 METAR XM21 //000 073342 141653Z AUTO 05014G18KT 28/24 A2975 RMK A02 SLP075 T02820245 PA159 DA2124=
0140008415999992015121417534+07300+134200FM-15+000099999V0200401N007219999999N999999999+02821+02441100651ADDMA1100641999999OC100881REMMET105MOBOB2 METAR XM21 //000 073342 141753Z AUTO 04014G17KT 28/24 A2972 RMK A02 SLP065 T02820244 PA187 DA2157=
0140008415999992015121418534+07300+134200FM-15+000099999V0200301N007719999999N999999999+02821+02381100651ADDMA1100641999999OC100931REMMET105MOBOB2 METAR XM21 //000 073342 141853Z AUTO 03015G18KT 28/24 A2972 RMK A02 SLP065 T02820238 PA187 DA2143=
0140008415999992015121419534+07300+134200FM-15+000099999V0200301N008219999999N999999999+02821+02451100681ADDMA1100681999999OC100981REMMET105MOBOB2 METAR XM21 //000 073342 141953Z AUTO 03016G19KT 28/25 A2973 RMK A02 SLP068 T02820245 PA177 DA2148=
0140008415999992015121420534+07300+134200FM-15+000099999V0200301N007719999999N999999999+02821+02451100781ADDMA1100781999999OC100931REMMET105MOBOB2 METAR XM21 //000 073342 142053Z AUTO 03015G18KT 28/24 A2976 RMK A02 SLP078 T02820245 PA149 DA2112=
0140008415999992015121421534+07300+134200FM-15+000099999V0200401N007219999999N999999999+02821+02451100821ADDMA1100811999999OC100881REMMET105MOBOB2 METAR XM21 //000 073342 142153Z AUTO 04014G17KT 28/24 A2977 RMK A02 SLP082 T02820245 PA140 DA2100=
0167008415999992015121422534+07300+134200FM-15+000099999V0200501N007719999999N999999999+02801+02411100921ADDAA101000021AW1611MA1100911999999OC100931REMMET115MOBOB2 METAR XM21 //000 073342 142253Z AUTO 05015G18KT -RA 28/24 A2980 RMK A02 SLP092 P0000 T02800241 PA112 DA2035=
0140008415999992015121423534+07300+134200FM-15+000099999V0200401N009819999999N999999999+02671+02331100951ADDMA1100951999999OC101131REMMET105MOBOB2 METAR XM21 //000 073342 142353Z AUTO 04019G22KT 27/23 A2981 RMK A02 SLP095 T02670233 PA103 DA1859=
0167008415999992015121500534+07300+134200FM-15+000099999V0200601N007719999999N999999999+02691+02411100891ADDAA101000021AW1611MA1100881999999OC101081REMMET115MOBOB2 METAR XM21 //000 073342 150053Z AUTO 06015G21KT -RA 27/24 A2979 RMK A02 SLP089 P0000 T02690241 PA122 DA1924=
0167008415999992015121501534+07300+134200FM-15+000099999V0200701N006219999999N999999999+02741+02321100851ADDAA101000021AW1611MA1100851999999OC100881REMMET115MOBOB2 METAR XM21 //000 073342 150153Z AUTO 07012G17KT -RA 27/23 A2978 RMK A02 SLP085 P0000 T02740232 PA131 DA1971=
0129008415999992015121502534+07300+134200FM-15+000099999V0200801N004619999999N999999999+02761+02331100821ADDMA1100811999999REMMET102MOBOB2 METAR XM21 //000 073342 150253Z AUTO 08009KT 28/23 A2977 RMK A02 SLP082 T02760233 PA140 DA2007=
0140008415999992015121503534+07300+134200FM-15+000099999V0200701N004619999999N999999999+02761+02311100751ADDMA1100741999999OC100721REMMET105MOBOB2 METAR XM21 //000 073342 150353Z AUTO 07009G14KT 28/23 A2975 RMK A02 SLP075 T02760231 PA159 DA2025=
0167008415999992015121504534+07300+134200FM-15+000099999V0200701N005119999999N999999999+02701+02291100681ADDAA101000021AW1611MA1100681999999OC100621REMMET115MOBOB2 METAR XM21 //000 073342 150453Z AUTO 07010G12KT -RA 27/23 A2973 RMK A02 SLP068 P0000 T02700229 PA177 DA1976=
0167008415999992015121505534+07300+134200FM-15+000099999V0200701N006219999999N999999999+02801+02341100681ADDAA101000021AW1611MA1100681999999OC100821REMMET115MOBOB2 METAR XM21 //000 073342 150553Z AUTO 07012G16KT -RA 28/23 A2973 RMK A02 SLP068 P0000 T02800234 PA177 DA2099=
0129008415999992015121506534+07300+134200FM-15+000099999V0200501N004119999999N999999999+02821+02371100651ADDMA1100641999999REMMET102MOBOB2 METAR XM21 //000 073342 150653Z AUTO 05008KT 28/24 A2972 RMK A02 SLP065 T02820237 PA187 DA2140=
0167008415999992015121507534+07300+134200FM-15+000099999V0200601N005119999999N999999999+02671+02331100681ADDAA101000021AW1611MA1100681999999OC100881REMMET115MOBOB2 METAR XM21 //000 073342 150753Z AUTO 06010G17KT -RA 27/23 A2973 RMK A02 SLP068 P0000 T02670233 PA177 DA1952=
0156008415999992015121508534+07300+134200FM-15+000099999V0200601N003119999999N999999999+02771+02381100721ADDAA101000021AW1611MA1100711999999REMMET112MOBOB2 METAR XM21 //000 073342 150853Z AUTO 06006KT -RA 28/24 A2974 RMK A02 SLP072 P0000 T02770238 PA168 DA2063=
0129008415999992015121509534+07300+134200FM-15+000099999V0200701N002619999999N999999999+02811+02371100751ADDMA1100741999999REMMET102MOBOB2 METAR XM21 //000 073342 150953Z AUTO 07005KT 28/24 A2975 RMK A02 SLP075 T02810237 PA159 DA2094=
0129008415999992015121510534+07300+134200FM-15+000099999V0200701N003619999999N999999999+02821+02361100781ADDMA1100781999999REMMET102MOBOB2 METAR XM21 //000 073342 151053Z AUTO 07007KT 28/24 A2976 RMK A02 SLP078 T02820236 PA149 DA2091=
0140008415999992015121511534+07300+134200FM-15+000099999V0200601N005119999999N999999999+02831+02331100821ADDMA1100811999999OC100621REMMET105MOBOB2 METAR XM21 //000 073342 151153Z AUTO 06010G12KT 28/23 A2977 RMK A02 SLP082 T02830233 PA140 DA2086=
0140008415999992015121512534+07300+134200FM-15+000099999V0200401N005119999999N999999999+02831+02401100821ADDMA1100811999999OC100621REMMET105MOBOB2 METAR XM21 //000 073342 151253Z AUTO 04010G12KT 28/24 A2977 RMK A02 SLP082 T02830240 PA140 DA2100=
0140008415999992015121513534+07300+134200FM-15+000099999V0200401N006219999999N999999999+02851+02271100781ADDMA1100781999999OC100721REMMET105MOBOB2 METAR XM21 //000 073342 151353Z AUTO 04012G14KT 29/23 A2976 RMK A02 SLP078 T02850227 PA149 DA2106=
0140008415999992015121514534+07300+134200FM-15+000099999V0200401N007219999999N999999999+02831+02411100721ADDMA1100711999999OC100881REMMET105MOBOB2 METAR XM21 //000 073342 151453Z AUTO 04014G17KT 28/24 A2974 RMK A02 SLP072 T02830241 PA168 DA2137=
0140008415999992015121515534+07300+134200FM-15+000099999V0200401N007219999999N999999999+02811+02421100651ADDMA1100641999999OC100881REMMET105MOBOB2 METAR XM21 //000 073342 151553Z AUTO 04014G17KT 28/24 A2972 RMK A02 SLP065 T02810242 PA187 DA2139=
0140008415999992015121516534+07300+134200FM-15+000099999V0200301N006719999999N999999999+02811+02411100621ADDMA1100611999999OC100881REMMET105MOBOB2 METAR XM21 //000 073342 151653Z AUTO 03013G17KT 28/24 A2971 RMK A02 SLP062 T02810241 PA196 DA2148=
0167008415999992015121517534+07300+134200FM-15+000099999V0200201N008219999999N999999999+02761+02381100481ADDAA101000021AW1611MA1100471999999OC100981REMMET115MOBOB2 METAR XM21 //000 073342 151753Z AUTO 02016G19KT -RA 28/24 A2967 RMK A02 SLP048 P0000 T02760238 PA233 DA2132=
0140008415999992015121518534+07300+134200FM-15+000099999V0200201N007719999999N999999999+02801+02371100481ADDMA1100471999999OC100931REMMET105MOBOB2 METAR XM21 //000 073342 151853Z AUTO 02015G18KT 28/24 A2967 RMK A02 SLP048 T02800237 PA233 DA2176=
0167008415999992015121519534+07300+134200FM-15+000099999V0200201N008219999999N999999999+02731+02441100581ADDAA101000021AW1611MA1100581999999OC100981REMMET115MOBOB2 METAR XM21 //000 073342 151953Z AUTO 02016G19KT -RA 27/24 A2970 RMK A02 SLP058 P0000 T02730244 PA205 DA2077=
0140008415999992015121520534+07300+134200FM-15+000099999V0200101N007219999999N999999999+02741+02381100581ADDMA1100581999999OC100881REMMET105MOBOB2 METAR XM21 //000 073342 152053Z AUTO 01014G17KT 27/24 A2970 RMK A02 SLP058 T02740238 PA205 DA2076=
0140008415999992015121607534+07300+134200FM-15+000099999V0202501N008219999999N999999999+02681+02481100311ADDMA1100301999999OC100981REMMET105MOBOB2 METAR XM21 //000 073342 160753Z AUTO 25016G19KT 27/25 A2962 RMK A02 SLP031 T02680248 PA280 DA2123=
0140008415999992015121608534+07300+134200FM-15+000099999V0202601N007719999999N999999999+02651+02421100381ADDMA1100371999999OC101031REMMET105MOBOB2 METAR XM21 //000 073342 160853Z AUTO 26015G20KT 27/24 A2964 RMK A02 SLP038 T02650242 PA261 DA2053=
0140008415999992015121609534+07300+134200FM-15+000099999V0202301N007719999999N999999999+02701+02451100451ADDMA1100441999999OC100981REMMET105MOBOB2 METAR XM21 //000 073342 160953Z AUTO 23015G19KT 27/25 A2966 RMK A02 SLP045 T02700245 PA242 DA2093=
0140008415999992015121610534+07300+134200FM-15+000099999V0202501N006219999999N999999999+02721+02411100551ADDMA1100541999999OC100881REMMET105MOBOB2 METAR XM21 //000 073342 161053Z AUTO 25012G17KT 27/24 A2969 RMK A02 SLP055 T02720241 PA214 DA2072=
0140008415999992015121611534+07300+134200FM-15+000099999V0202601N006219999999N999999999+02751+02451100621ADDMA1100611999999OC100771REMMET105MOBOB2 METAR XM21 //000 073342 161153Z AUTO 26012G15KT 28/24 A2971 RMK A02 SLP062 T02750245 PA196 DA2091=
0140008415999992015121612534+07300+134200FM-15+000099999V0202501N005119999999N999999999+02761+02471100651ADDMA1100641999999OC100771REMMET105MOBOB2 METAR XM21 //000 073342 161253Z AUTO 25010G15KT 28/25 A2972 RMK A02 SLP065 T02760247 PA187 DA2095=
0140008415999992015121613534+07300+134200FM-15+000099999V0202401N006219999999N999999999+02781+02471100621ADDMA1100611999999OC100771REMMET105MOBOB2 METAR XM21 //000 073342 161353Z AUTO 24012G15KT 28/25 A2971 RMK A02 SLP062 T02780247 PA196 DA2130=
0140008415999992015121614534+07300+134200FM-15+000099999V0202201N006719999999N999999999+02791+02461100581ADDMA1100581999999OC100771REMMET105MOBOB2 METAR XM21 //000 073342 161453Z AUTO 22013G15KT 28/25 A2970 RMK A02 SLP058 T02790246 PA205 DA2149=
0140008415999992015121615534+07300+134200FM-15+000099999V0202201N005719999999N999999999+02791+02441100551ADDMA1100541999999OC100721REMMET105MOBOB2 METAR XM21 //000 073342 161553Z AUTO 22011G14KT 28/24 A2969 RMK A02 SLP055 T02790244 PA214 DA2156=
0140008415999992015121616534+07300+134200FM-15+000099999V0202101N006219999999N999999999+02771+02381100481ADDMA1100471999999OC100721REMMET105MOBOB2 METAR XM21 //000 073342 161653Z AUTO 21012G14KT 28/24 A2967 RMK A02 SLP048 T02770238 PA233 DA2144=
0140008415999992015121617534+07300+134200FM-15+000099999V0202201N005119999999N999999999+02781+02451100451ADDMA1100441999999OC100671REMMET105MOBOB2 METAR XM21 //000 073342 161753Z AUTO 22010G13KT 28/25 A2966 RMK A02 SLP045 T02780245 PA242 DA2183=
0140008415999992015121618534+07300+134200FM-15+000099999V0202301N005119999999N999999999+02761+02421100481ADDMA1100471999999OC100671REMMET105MOBOB2 METAR XM21 //000 073342 161853Z AUTO 23010G13KT 28/24 A2967 RMK A02 SLP048 T02760242 PA233 DA2142=
0140008415999992015121619534+07300+134200FM-15+000099999V0202301N005119999999N999999999+02751+02391100481ADDMA1100471999999OC100721REMMET105MOBOB2 METAR XM21 //000 073342 161953Z AUTO 23010G14KT 28/24 A2967 RMK A02 SLP048 T02750239 PA233 DA2124=
0140008415999992015121620534+07300+134200FM-15+000099999V0202201N004619999999N999999999+02761+02391100581ADDMA1100581999999OC100671REMMET105MOBOB2 METAR XM21 //000 073342 162053Z AUTO 22009G13KT 28/24 A2970 RMK A02 SLP058 T02760239 PA205 DA2100=
0129008415999992015121621534+07300+134200FM-15+000099999V0202301N004119999999N999999999+02761+02461100651ADDMA1100641999999REMMET102MOBOB2 METAR XM21 //000 073342 162153Z AUTO 23008KT 28/25 A2972 RMK A02 SLP065 T02760246 PA187 DA2093=
0140008415999992015121622534+07300+134200FM-15+000099999V0202401N006719999999N999999999+02661+02431100751ADDMA1100741999999OC100881REMMET105MOBOB2 METAR XM21 //000 073342 162253Z AUTO 24013G17KT 27/24 A2975 RMK A02 SLP075 T02660243 PA159 DA1939=
0129008415999992015121623534+07300+134200FM-15+000099999V0202501N002119999999N999999999+02781+02431100781ADDMA1100781999999REMMET102MOBOB2 METAR XM21 //000 073342 162353Z AUTO 25004KT 28/24 A2976 RMK A02 SLP078 T02780243 PA149 DA2062=
0129008415999992015121700534+07300+134200FM-15+000099999V0201701N001019999999N999999999+02861+02431100781ADDMA1100781999999REMMET102MOBOB2 METAR XM21 //000 073342 170053Z AUTO 17002KT 29/24 A2976 RMK A02 SLP078 T02860243 PA149 DA2152=
0129008415999992015121701534+07300+134200FM-15+000099999V0202101N001519999999N999999999+02731+02421100721ADDMA1100711999999REMMET102MOBOB2 METAR XM21 //000 073342 170153Z AUTO 21003KT 27/24 A2974 RMK A02 SLP072 T02730242 PA168 DA2028=
0156008415999992015121702534+07300+134200FM-15+000099999V0202001N003119999999N999999999+02771+02201100651ADDAA101000021AW1611MA1100641999999REMMET112MOBOB2 METAR XM21 //000 073342 170253Z AUTO 20006KT -RA 28/22 A2972 RMK A02 SLP065 P0000 T02770220 PA187 DA2046=
0129008415999992015121703534+07300+134200FM-15+000099999V0201501N003119999999N999999999+02791+02341100621ADDMA1100611999999REMMET102MOBOB2 METAR XM21 //000 073342 170353Z AUTO 15006KT 28/23 A2971 RMK A02 SLP062 T02790234 PA196 DA2112=
0129008415999992015121704534+07300+134200FM-15+000099999V0201601N002619999999N999999999+02851+02391100551ADDMA1100541999999REMMET102MOBOB2 METAR XM21 //000 073342 170453Z AUTO 16005KT 29/24 A2969 RMK A02 SLP055 T02850239 PA214 DA2213=
0129008415999992015121705534+07300+134200FM-15+000099999V0201201N001519999999N999999999+02871+02421100511ADDMA1100511999999REMMET102MOBOB2 METAR XM21 //000 073342 170553Z AUTO 12003KT 29/24 A2968 RMK A02 SLP051 T02870242 PA224 DA2253=
0129008415999992015121706534+07300+134200FM-15+000099999V0202401N003119999999N999999999+02901+02421100581ADDMA1100581999999REMMET102MOBOB2 METAR XM21 //000 073342 170653Z AUTO 24006KT 29/24 A2970 RMK A02 SLP058 T02900242 PA205 DA2264=
0129008415999992015121707534+07300+134200FM-15+000099999V0202201N002619999999N999999999+02831+02371100621ADDMA1100611999999REMMET102MOBOB2 METAR XM21 //000 073342 170753Z AUTO 22005KT 28/24 A2971 RMK A02 SLP062 T02830237 PA196 DA2161=
0129008415999992015121708534+07300+134200FM-15+000099999V0201301N004119999999N999999999+02721+02451100681ADDMA1100681999999REMMET102MOBOB2 METAR XM21 //000 073342 170853Z AUTO 13008KT 27/25 A2973 RMK A02 SLP068 T02720245 PA177 DA2035=
0167008415999992015121709534+07300+134200FM-15+000099999V0201101N005719999999N999999999+02661+02471100751ADDAA101000021AW1611MA1100741999999OC100721REMMET115MOBOB2 METAR XM21 //000 073342 170953Z AUTO 11011G14KT -RA 27/25 A2975 RMK A02 SLP075 P0000 T02660247 PA159 DA1950=
0167008415999992015121710534+07300+134200FM-15+000099999V0201201N005719999999N999999999+02661+02411100821ADDAA101000021AW1611MA1100811999999OC100721REMMET115MOBOB2 METAR XM21 //000 073342 171053Z AUTO 12011G14KT -RA 27/24 A2977 RMK A02 SLP082 P0000 T02660241 PA140 DA1912=
0140008415999992015121711534+07300+134200FM-15+000099999V0201101N006219999999N999999999+02681+02451100851ADDMA1100851999999OC100771REMMET105MOBOB2 METAR XM21 //000 073342 171153Z AUTO 11012G15KT 27/24 A2978 RMK A02 SLP085 T02680245 PA131 DA1932=
0129008415999992015121712534+07300+134200FM-15+000099999V0201301N004119999999N999999999+02691+02431100851ADDMA1100851999999REMMET102MOBOB2 METAR XM21 //000 073342 171253Z AUTO 13008KT 27/24 A2978 RMK A02 SLP085 T02690243 PA131 DA1940=
0129008415999992015121713534+07300+134200FM-15+000099999V0201301N002619999999N999999999+02691+02411100851ADDMA1100851999999REMMET102MOBOB2 METAR XM21 //000 073342 171353Z AUTO 13005KT 27/24 A2978 RMK A02 SLP085 T02690241 PA131 DA1934=
0140008415999992015121714534+07300+134200FM-15+000099999V0201101N005119999999N999999999+02731+02471100821ADDMA1100811999999OC100621REMMET105MOBOB2 METAR XM21 //000 073342 171453Z AUTO 11010G12KT 27/25 A2977 RMK A02 SLP082 T02730247 PA140 DA2004=
0140008415999992015121715534+07300+134200FM-15+000099999V0201101N006719999999N999999999+02681+02411100751ADDMA1100741999999OC100771REMMET105MOBOB2 METAR XM21 //000 073342 171553Z AUTO 11013G15KT 27/24 A2975 RMK A02 SLP075 T02680241 PA159 DA1957=
0129008415999992015121716534+07300+134200FM-15+000099999V0201401N004119999999N999999999+02671+02441100721ADDMA1100711999999REMMET102MOBOB2 METAR XM21 //000 073342 171653Z AUTO 14008KT 27/24 A2974 RMK A02 SLP072 T02670244 PA168 DA1964=
0140008415999992015121717534+07300+134200FM-15+000099999V0201401N005119999999N999999999+02721+02401100681ADDMA1100681999999OC100621REMMET105MOBOB2 METAR XM21 //000 073342 171753Z AUTO 14010G12KT 27/24 A2973 RMK A02 SLP068 T02720240 PA177 DA2024=
0129008415999992015121718534+07300+134200FM-15+000099999V0201301N004119999999N999999999+02751+02451100681ADDMA1100681999999REMMET102MOBOB2 METAR XM21 //000 073342 171853Z AUTO 13008KT 28/25 A2973 RMK A02 SLP068 T02750245 PA177 DA2069=
0129008415999992015121719534+07300+134200FM-15+000099999V0201401N004119999999N999999999+02771+02441100751ADDMA1100741999999REMMET102MOBOB2 METAR XM21 //000 073342 171953Z AUTO 14008KT 28/24 A2975 RMK A02 SLP075 T02770244 PA159 DA2066=
0129008415999992015121720534+07300+134200FM-15+000099999V0201401N004619999999N999999999+02791+02441100821ADDMA1100811999999REMMET102MOBOB2 METAR XM21 //000 073342 172053Z AUTO 14009KT 28/24 A2977 RMK A02 SLP082 T02790244 PA140 DA2066=
0129008415999992015121721534+07300+134200FM-15+000099999V0201301N004119999999N999999999+02801+02451100851ADDMA1100851999999REMMET102MOBOB2 METAR XM21 //000 073342 172153Z AUTO 13008KT 28/24 A2978 RMK A02 SLP085 T02800245 PA131 DA2066=
0129008415999992015121722534+07300+134200FM-15+000099999V0201401N004619999999N999999999+02841+02411100951ADDMA1100951999999REMMET102MOBOB2 METAR XM21 //000 073342 172253Z AUTO 14009KT 28/24 A2981 RMK A02 SLP095 T02840241 PA103 DA2069=
0167008415999992015121723534+07300+134200FM-15+000099999V0201701N006719999999N999999999+02661+02471100991ADDAA101000731AW1611MA1100981999999OC100881REMMET115MOBOB2 METAR XM21 //000 073342 172353Z AUTO 17013G17KT -RA 27/25 A2982 RMK A02 SLP099 P0003 T02660247 PA094 DA1868=
0156008415999992015121800534+07300+134200FM-15+000099999V0201901N004619999999N999999999+02641+02471100991ADDAA101001231AW1611MA1100981999999REMMET112MOBOB2 METAR XM21 //000 073342 180053Z AUTO 19009KT -RA 26/25 A2982 RMK A02 SLP099 P0005 T02640247 PA094 DA1847=
0140008415999992015121801534+07300+134200FM-15+000099999V0201601N005119999999N999999999+02801+02451100921ADDMA1100911999999OC100671REMMET105MOBOB2 METAR XM21 //000 073342 180153Z AUTO 16010G13KT 28/25 A2980 RMK A02 SLP092 T02800245 PA112 DA2045=
0140008415999992015121802534+07300+134200FM-15+000099999V0201601N005719999999N999999999+02781+02381100851ADDMA1100851999999OC100721REMMET105MOBOB2 METAR XM21 //000 073342 180253Z AUTO 16011G14KT 28/24 A2978 RMK A02 SLP085 T02780238 PA131 DA2028=
0129008415999992015121803534+07300+134200FM-15+000099999V0201601N005119999999N999999999+02821+02401100821ADDMA1100811999999REMMET102MOBOB2 METAR XM21 //000 073342 180353Z AUTO 16010KT 28/24 A2977 RMK A02 SLP082 T02820240 PA140 DA2088=
0129008415999992015121804534+07300+134200FM-15+000099999V0201501N004619999999N999999999+02851+02451100751ADDMA1100741999999REMMET102MOBOB2 METAR XM21 //000 073342 180453Z AUTO 15009KT 29/24 A2975 RMK A02 SLP075 T02850245 PA159 DA2157=
0156008415999992015121805534+07300+134200FM-15+000099999V0200701N003119999999N999999999+02651+02441100751ADDAA101002031AW1611MA1100741999999REMMET112MOBOB2 METAR XM21 //000 073342 180553Z AUTO 07006KT -RA 27/24 A2975 RMK A02 SLP075 P0008 T02650244 PA159 DA1931=
0156008415999992015121806534+07300+134200FM-15+000099999V0201301N003619999999N999999999+02551+02361100751ADDAA101000731AW1611MA1100741999999REMMET112MOBOB2 METAR XM21 //000 073342 180653Z AUTO 13007KT -RA 26/24 A2975 RMK A02 SLP075 P0003 T02550236 PA159 DA1799=
0156008415999992015121807534+07300+134200FM-15+000099999V0201501N003119999999N999999999+02501+02321100781ADDAA101001731AW1611MA1100781999999REMMET112MOBOB2 METAR XM21 //000 073342 180753Z AUTO 15006KT -RA 25/23 A2976 RMK A02 SLP078 P0007 T02500232 PA149 DA1723=
0156008415999992015121808534+07300+134200FM-15+000099999V0201401N003619999999N999999999+02571+02441100821ADDAA101001031AW1611MA1100811999999REMMET112MOBOB2 METAR XM21 //000 073342 180853Z AUTO 14007KT -RA 26/24 A2977 RMK A02 SLP082 P0004 T02570244 PA140 DA1817=
0167008415999992015121809534+07300+134200FM-15+000099999V0200901N004119999999N999999999+02711+02391100851ADDAA101000531AW1611MA1100851999999OC100671REMMET115MOBOB2 METAR XM21 //000 073342 180953Z AUTO 09008G13KT -RA 27/24 A2978 RMK A02 SLP085 P0002 T02710239 PA131 DA1953=
0140008415999992015121810534+07300+134200FM-15+000099999V0200901N006719999999N999999999+02851+02421100921ADDMA1100911999999OC100881REMMET105MOBOB2 METAR XM21 //000 073342 181053Z AUTO 09013G17KT 29/24 A2980 RMK A02 SLP092 T02850242 PA112 DA2093=
0156008415999992015121811534+07300+134200FM-15+000099999V0200701N004119999999N999999999+02711+02471100991ADDAA101002031AW1611MA1100981999999REMMET112MOBOB2 METAR XM21 //000 073342 181153Z AUTO 07008KT -RA 27/25 A2982 RMK A02 SLP099 P0008 T02710247 PA094 DA1925=
0140008415999992015121812534+07300+134200FM-15+000099999V0200701N008219999999N999999999+02841+02391100991ADDMA1100981999999OC101081REMMET105MOBOB2 METAR XM21 //000 073342 181253Z AUTO 07016G21KT 28/24 A2982 RMK A02 SLP099 T02840239 PA094 DA2052=
0140008415999992015121813534+07300+134200FM-15+000099999V0200701N007219999999N999999999+02831+02401100991ADDMA1100981999999OC100931REMMET105MOBOB2 METAR XM21 //000 073342 181353Z AUTO 07014G18KT 28/24 A2982 RMK A02 SLP099 T02830240 PA094 DA2043=
0140008415999992015121814534+07300+134200FM-15+000099999V0200701N007219999999N999999999+02831+02331100991ADDMA1100981999999OC100981REMMET105MOBOB2 METAR XM21 //000 073342 181453Z AUTO 07014G19KT 28/23 A2982 RMK A02 SLP099 T02830233 PA094 DA2027=
0140008415999992015121816534+07300+134200FM-15+000099999V0200701N006719999999N999999999+02831+02301100891ADDMA1100881999999OC100881REMMET105MOBOB2 METAR XM21 //000 073342 181653Z AUTO 07013G17KT 28/23 A2979 RMK A02 SLP089 T02830230 PA122 DA2055=
0140008415999992015121817534+07300+134200FM-15+000099999V0200701N007719999999N999999999+02811+02321100851ADDMA1100851999999OC101131REMMET105MOBOB2 METAR XM21 //000 073342 181753Z AUTO 07015G22KT 28/23 A2978 RMK A02 SLP085 T02810232 PA131 DA2049=
0140008415999992015121818534+07300+134200FM-15+000099999V0200701N006719999999N999999999+02801+02301100851ADDMA1100851999999OC100931REMMET105MOBOB2 METAR XM21 //000 073342 181853Z AUTO 07013G18KT 28/23 A2978 RMK A02 SLP085 T02800230 PA131 DA2034=
0140008415999992015121819534+07300+134200FM-15+000099999V0200601N007719999999N999999999+02801+02261100891ADDMA1100881999999OC100981REMMET105MOBOB2 METAR XM21 //000 073342 181953Z AUTO 06015G19KT 28/23 A2979 RMK A02 SLP089 T02800226 PA122 DA2014=
0140008415999992015121820534+07300+134200FM-15+000099999V0200701N007719999999N999999999+02801+02261100951ADDMA1100951999999OC100981REMMET105MOBOB2 METAR XM21 //000 073342 182053Z AUTO 07015G19KT 28/23 A2981 RMK A02 SLP095 T02800226 PA103 DA1991=
0140008415999992015121821534+07300+134200FM-15+000099999V0200701N007219999999N999999999+02801+02301101021ADDMA1101021999999OC100881REMMET105MOBOB2 METAR XM21 //000 073342 182153Z AUTO 07014G17KT 28/23 A2983 RMK A02 SLP102 T02800230 PA084 DA1976=
0140008415999992015121822534+07300+134200FM-15+000099999V0200701N006719999999N999999999+02821+02311101091ADDMA1101081999999OC100771REMMET105MOBOB2 METAR XM21 //000 073342 182253Z AUTO 07013G15KT 28/23 A2985 RMK A02 SLP109 T02820231 PA066 DA1977=
0140008415999992015121823534+07300+134200FM-15+000099999V0200701N007219999999N999999999+02861+02281101121ADDMA1101121999999OC100981REMMET105MOBOB2 METAR XM21 //000 073342 182353Z AUTO 07014G19KT 29/23 A2986 RMK A02 SLP112 T02860228 PA057 DA2005=
0140008415999992015121900534+07300+134200FM-15+000099999V0200701N007219999999N999999999+02871+02341101121ADDMA1101121999999OC100881REMMET105MOBOB2 METAR XM21 //000 073342 190053Z AUTO 07014G17KT 29/23 A2986 RMK A02 SLP112 T02870234 PA057 DA2030=
0140008415999992015121901534+07300+134200FM-15+000099999V0200901N006719999999N999999999+02921+02261101061ADDMA1101051999999OC100881REMMET105MOBOB2 METAR XM21 //000 073342 190153Z AUTO 09013G17KT 29/23 A2984 RMK A02 SLP106 T02920226 PA075 DA2090=
0140008415999992015121902534+07300+134200FM-15+000099999V0200801N005719999999N999999999+02901+02311100991ADDMA1100981999999OC100721REMMET105MOBOB2 METAR XM21 //000 073342 190253Z AUTO 08011G14KT 29/23 A2982 RMK A02 SLP099 T02900231 PA094 DA2102=
0140008415999992015121903534+07300+134200FM-15+000099999V0200901N006219999999N999999999+02921+02211100921ADDMA1100911999999OC100821REMMET105MOBOB2 METAR XM21 //000 073342 190353Z AUTO 09012G16KT 29/22 A2980 RMK A02 SLP092 T02920221 PA112 DA2126=
0140008415999992015121904534+07300+134200FM-15+000099999V0201001N004619999999N999999999+02891+02291100891ADDMA1100881999999OC100771REMMET105MOBOB2 METAR XM21 //000 073342 190453Z AUTO 10009G15KT 29/23 A2979 RMK A02 SLP089 T02890229 PA122 DA2120=
0140008415999992015121905534+07300+134200FM-15+000099999V0201001N005119999999N999999999+02911+02351100851ADDMA1100851999999OC100671REMMET105MOBOB2 METAR XM21 //000 073342 190553Z AUTO 10010G13KT 29/23 A2978 RMK A02 SLP085 T02910235 PA131 DA2166=
0140008415999992015121906534+07300+134200FM-15+000099999V0200801N005719999999N999999999+02861+02401100891ADDMA1100881999999OC100721REMMET105MOBOB2 METAR XM21 //000 073342 190653Z AUTO 08011G14KT 29/24 A2979 RMK A02 SLP089 T02860240 PA122 DA2111=
0129008415999992015121907534+07300+134200FM-15+000099999V0200801N004119999999N999999999+02831+02351100921ADDMA1100911999999REMMET102MOBOB2 METAR XM21 //000 073342 190753Z AUTO 08008KT 28/23 A2980 RMK A02 SLP092 T02830235 PA112 DA2055=
0167008415999992015121908534+07300+134200FM-15+000099999V0200901N005719999999N999999999+02761+02371100991ADDAA101001231AW1611MA1100981999999OC100881REMMET115MOBOB2 METAR XM21 //000 073342 190853Z AUTO 09011G17KT -RA 28/24 A2982 RMK A02 SLP099 P0005 T02760237 PA094 DA1959=
0140008415999992015121909534+07300+134200FM-15+000099999V0200701N005119999999N999999999+02801+02361101021ADDMA1101021999999OC100721REMMET105MOBOB2 METAR XM21 //000 073342 190953Z AUTO 07010G14KT 28/24 A2983 RMK A02 SLP102 T02800236 PA084 DA1990=
0140008415999992015121910534+07300+134200FM-15+000099999V0200601N006219999999N999999999+02821+02321101091ADDMA1101081999999OC100771REMMET105MOBOB2 METAR XM21 //000 073342 191053Z AUTO 06012G15KT 28/23 A2985 RMK A02 SLP109 T02820232 PA066 DA1980=
0140008415999992015121911534+07300+134200FM-15+000099999V0200701N005119999999N999999999+02811+02371101121ADDMA1101121999999OC100671REMMET105MOBOB2 METAR XM21 //000 073342 191153Z AUTO 07010G13KT 28/24 A2986 RMK A02 SLP112 T02810237 PA057 DA1969=
0129008415999992015121912534+07300+134200FM-15+000099999V0200601N004619999999N999999999+02801+02291101091ADDMA1101081999999REMMET102MOBOB2 METAR XM21 //000 073342 191253Z AUTO 06009KT 28/23 A2985 RMK A02 SLP109 T02800229 PA066 DA1951=
0129008415999992015121913534+07300+134200FM-15+000099999V0200701N003619999999N999999999+02791+02381101091ADDMA1101081999999REMMET102MOBOB2 METAR XM21 //000 073342 191353Z AUTO 07007KT 28/24 A2985 RMK A02 SLP109 T02790238 PA066 DA1959=
0129008415999992015121914534+07300+134200FM-15+000099999V0200501N004119999999N999999999+02791+02361101091ADDMA1101081999999REMMET102MOBOB2 METAR XM21 //000 073342 191453Z AUTO 05008KT 28/24 A2985 RMK A02 SLP109 T02790236 PA066 DA1956=
0129008415999992015121915534+07300+134200FM-15+000099999V0200601N004119999999N999999999+02791+02351101061ADDMA1101051999999REMMET102MOBOB2 METAR XM21 //000 073342 191553Z AUTO 06008KT 28/23 A2984 RMK A02 SLP106 T02790235 PA075 DA1964=
0129008415999992015121916534+07300+134200FM-15+000099999V0200601N004119999999N999999999+02781+02331100991ADDMA1100981999999REMMET102MOBOB2 METAR XM21 //000 073342 191653Z AUTO 06008KT 28/23 A2982 RMK A02 SLP099 T02780233 PA094 DA1973=
0129008415999992015121917534+07300+134200FM-15+000099999V0200701N004119999999N999999999+02771+02381100921ADDMA1100911999999REMMET102MOBOB2 METAR XM21 //000 073342 191753Z AUTO 07008KT 28/24 A2980 RMK A02 SLP092 T02770238 PA112 DA1994=
0140008415999992015121918534+07300+134200FM-15+000099999V0200801N005719999999N999999999+02791+02261100921ADDMA1100911999999OC100721REMMET105MOBOB2 METAR XM21 //000 073342 191853Z AUTO 08011G14KT 28/23 A2980 RMK A02 SLP092 T02790226 PA112 DA1991=
0140008415999992015121919534+07300+134200FM-15+000099999V0200701N005719999999N999999999+02801+02291100991ADDMA1100981999999OC100771REMMET105MOBOB2 METAR XM21 //000 073342 191953Z AUTO 07011G15KT 28/23 A2982 RMK A02 SLP099 T02800229 PA094 DA1985=
0140008415999992015121920534+07300+134200FM-15+000099999V0200601N006219999999N999999999+02801+02281101021ADDMA1101021999999OC100771REMMET105MOBOB2 METAR XM21 //000 073342 192053Z AUTO 06012G15KT 28/23 A2983 RMK A02 SLP102 T02800228 PA084 DA1972=
0140008415999992015121921534+07300+134200FM-15+000099999V0200601N005719999999N999999999+02791+02361101121ADDMA1101121999999OC100721REMMET105MOBOB2 METAR XM21 //000 073342 192153Z AUTO 06011G14KT 28/24 A2986 RMK A02 SLP112 T02790236 PA057 DA1944=
0140008415999992015121922534+07300+134200FM-15+000099999V0200501N007219999999N999999999+02811+02301101191ADDMA1101181999999OC100881REMMET105MOBOB2 METAR XM21 //000 073342 192253Z AUTO 05014G17KT 28/23 A2988 RMK A02 SLP119 T02810230 PA038 DA1929=
0140008415999992015121923534+07300+134200FM-15+000099999V0200601N007219999999N999999999+02841+02331101221ADDMA1101221999999OC100931REMMET105MOBOB2 METAR XM21 //000 073342 192353Z AUTO 06014G18KT 28/23 A2989 RMK A02 SLP122 T02840233 PA029 DA1960=
0140008415999992015122000534+07300+134200FM-15+000099999V0200601N006719999999N999999999+02891+02341101161ADDMA1101151999999OC100881REMMET105MOBOB2 METAR XM21 //000 073342 200053Z AUTO 06013G17KT 29/23 A2987 RMK A02 SLP116 T02890234 PA047 DA2039=
0140008415999992015122001534+07300+134200FM-15+000099999V0200601N007219999999N999999999+02911+02261101121ADDMA1101121999999OC100881REMMET105MOBOB2 METAR XM21 //000 073342 200153Z AUTO 06014G17KT 29/23 A2986 RMK A02 SLP112 T02910226 PA057 DA2056=
0140008415999992015122002534+07300+134200FM-15+000099999V0200701N006719999999N999999999+02941+02281101021ADDMA1101021999999OC100931REMMET105MOBOB2 METAR XM21 //000 073342 200253Z AUTO 07013G18KT 29/23 A2983 RMK A02 SLP102 T02940228 PA084 DA2129=
0140008415999992015122003534+07300+134200FM-15+000099999V0200701N006219999999N999999999+02941+02251100921ADDMA1100911999999OC100821REMMET105MOBOB2 METAR XM21 //000 073342 200353Z AUTO 07012G16KT 29/23 A2980 RMK A02 SLP092 T02940225 PA112 DA2157=
0140008415999992015122004534+07300+134200FM-15+000099999V0200601N006219999999N999999999+02941+02271100851ADDMA1100851999999OC100981REMMET105MOBOB2 METAR XM21 //000 073342 200453Z AUTO 06012G19KT 29/23 A2978 RMK A02 SLP085 T02940227 PA131 DA2183=
0140008415999992015122005534+07300+134200FM-15+000099999V0200701N007219999999N999999999+02931+02301100821ADDMA1100811999999OC100931REMMET105MOBOB2 METAR XM21 //000 073342 200553Z AUTO 07014G18KT 29/23 A2977 RMK A02 SLP082 T02930230 PA140 DA2191=
0140008415999992015122006534+07300+134200FM-15+000099999V0200701N006719999999N999999999+02931+02231100851ADDMA1100851999999OC100821REMMET105MOBOB2 METAR XM21 //000 073342 200653Z AUTO 07013G16KT 29/22 A2978 RMK A02 SLP085 T02930223 PA131 DA2163=
0140008415999992015122007534+07300+134200FM-15+000099999V0200701N006219999999N999999999+02871+02331100891ADDMA1100881999999OC100821REMMET105MOBOB2 METAR XM21 //000 073342 200753Z AUTO 07012G16KT 29/23 A2979 RMK A02 SLP089 T02870233 PA122 DA2106=
0140008415999992015122008534+07300+134200FM-15+000099999V0200601N006719999999N999999999+02861+02361100921ADDMA1100911999999OC100931REMMET105MOBOB2 METAR XM21 //000 073342 200853Z AUTO 06013G18KT 29/24 A2980 RMK A02 SLP092 T02860236 PA112 DA2091=
0140008415999992015122009534+07300+134200FM-15+000099999V0200601N006719999999N999999999+02851+02331100951ADDMA1100951999999OC100881REMMET105MOBOB2 METAR XM21 //000 073342 200953Z AUTO 06013G17KT 29/23 A2981 RMK A02 SLP095 T02850233 PA103 DA2061=
0140008415999992015122010534+07300+134200FM-15+000099999V0200501N007219999999N999999999+02831+02431101021ADDMA1101021999999OC100881REMMET105MOBOB2 METAR XM21 //000 073342 201053Z AUTO 05014G17KT 28/24 A2983 RMK A02 SLP102 T02830243 PA084 DA2039=
0140008415999992015122011534+07300+134200FM-15+000099999V0200601N005719999999N999999999+02831+02431101061ADDMA1101051999999OC100721REMMET105MOBOB2 METAR XM21 //000 073342 201153Z AUTO 06011G14KT 28/24 A2984 RMK A02 SLP106 T02830243 PA075 DA2029=
0140008415999992015122012534+07300+134200FM-15+000099999V0200701N006219999999N999999999+02841+02381101091ADDMA1101081999999OC100821REMMET105MOBOB2 METAR XM21 //000 073342 201253Z AUTO 07012G16KT 28/24 A2985 RMK A02 SLP109 T02840238 PA066 DA2015=
0140008415999992015122013534+07300+134200FM-15+000099999V0200701N005119999999N999999999+02831+02341101091ADDMA1101081999999OC100721REMMET105MOBOB2 METAR XM21 //000 073342 201353Z AUTO 07010G14KT 28/23 A2985 RMK A02 SLP109 T02830234 PA066 DA1996=
0140008415999992015122014534+07300+134200FM-15+000099999V0200701N005119999999N999999999+02841+02361101091ADDMA1101081999999OC100721REMMET105MOBOB2 METAR XM21 //000 073342 201453Z AUTO 07010G14KT 28/24 A2985 RMK A02 SLP109 T02840236 PA066 DA2010=
0129008415999992015122015534+07300+134200FM-15+000099999V0200801N004619999999N999999999+02821+02381101061ADDMA1101051999999REMMET102MOBOB2 METAR XM21 //000 073342 201553Z AUTO 08009KT 28/24 A2984 RMK A02 SLP106 T02820238 PA075 DA2005=
0140008415999992015122016534+07300+134200FM-15+000099999V0200701N005719999999N999999999+02831+02361100991ADDMA1100981999999OC100771REMMET105MOBOB2 METAR XM21 //000 073342 201653Z AUTO 07011G15KT 28/24 A2982 RMK A02 SLP099 T02830236 PA094 DA2035=
0129008415999992015122017534+07300+134200FM-15+000099999V0200701N004619999999N999999999+02791+02381100991ADDMA1100981999999REMMET102MOBOB2 METAR XM21 //000 073342 201753Z AUTO 07009KT 28/24 A2982 RMK A02 SLP099 T02790238 PA094 DA1994=
0140008415999992015122018534+07300+134200FM-15+000099999V0200701N006219999999N999999999+02801+02311100991ADDMA1100981999999OC100821REMMET105MOBOB2 METAR XM21 //000 073342 201853Z AUTO 07012G16KT 28/23 A2982 RMK A02 SLP099 T02800231 PA094 DA1989=
0140008415999992015122019534+07300+134200FM-15+000099999V0200601N006219999999N999999999+02801+02381101061ADDMA1101051999999OC100771REMMET105MOBOB2 METAR XM21 //000 073342 201953Z AUTO 06012G15KT 28/24 A2984 RMK A02 SLP106 T02800238 PA075 DA1982=
0140008415999992015122020534+07300+134200FM-15+000099999V0200601N006719999999N999999999+02791+02341101061ADDMA1101051999999OC100881REMMET105MOBOB2 METAR XM21 //000 073342 202053Z AUTO 06013G17KT 28/23 A2984 RMK A02 SLP106 T02790234 PA075 DA1963=
0140008415999992015122021534+07300+134200FM-15+000099999V0200601N007219999999N999999999+02781+02361101121ADDMA1101121999999OC100931REMMET105MOBOB2 METAR XM21 //000 073342 202153Z AUTO 06014G18KT 28/24 A2986 RMK A02 SLP112 T02780236 PA057 DA1933=
0140008415999992015122022534+07300+134200FM-15+000099999V0200601N007719999999N999999999+02821+02371101221ADDMA1101221999999OC100931REMMET105MOBOB2 METAR XM21 //000 073342 202253Z AUTO 06015G18KT 28/24 A2989 RMK A02 SLP122 T02820237 PA029 DA1945=
0140008415999992015122023534+07300+134200FM-15+000099999V0200601N008219999999N999999999+02881+02341101221ADDMA1101221999999OC101181REMMET105MOBOB2 METAR XM21 //000 073342 202353Z AUTO 06016G23KT 29/23 A2989 RMK A02 SLP122 T02880234 PA029 DA2006=
0140008415999992015122100534+07300+134200FM-15+000099999V0200601N008819999999N999999999+02891+02391101221ADDMA1101221999999OC101131REMMET105MOBOB2 METAR XM21 //000 073342 210053Z AUTO 06017G22KT 29/24 A2989 RMK A02 SLP122 T02890239 PA029 DA2029=
0140008415999992015122101534+07300+134200FM-15+000099999V0200601N009319999999N999999999+02931+02261101191ADDMA1101181999999OC101181REMMET105MOBOB2 METAR XM21 //000 073342 210153Z AUTO 06018G23KT 29/23 A2988 RMK A02 SLP119 T02930226 PA038 DA2055=
0140008415999992015122102534+07300+134200FM-15+000099999V0200501N008819999999N999999999+02941+02311101121ADDMA1101121999999OC101031REMMET105MOBOB2 METAR XM21 //000 073342 210253Z AUTO 05017G20KT 29/23 A2986 RMK A02 SLP112 T02940231 PA057 DA2100=
0140008415999992015122103534+07300+134200FM-15+000099999V0200601N007719999999N999999999+02961+02271101021ADDMA1101021999999OC100931REMMET105MOBOB2 METAR XM21 //000 073342 210353Z AUTO 06015G18KT 30/23 A2983 RMK A02 SLP102 T02960227 PA084 DA2149=
0140008415999992015122104534+07300+134200FM-15+000099999V0200401N007219999999N999999999+02901+02431100951ADDMA1100951999999OC100931REMMET105MOBOB2 METAR XM21 //000 073342 210453Z AUTO 04014G18KT 29/24 A2981 RMK A02 SLP095 T02900243 PA103 DA2140=
0140008415999992015122105534+07300+134200FM-15+000099999V0200501N007719999999N999999999+02961+02331100951ADDMA1100951999999OC100931REMMET105MOBOB2 METAR XM21 //000 073342 210553Z AUTO 05015G18KT 30/23 A2981 RMK A02 SLP095 T02960233 PA103 DA2183=
0140008415999992015122106534+07300+134200FM-15+000099999V0200501N008219999999N999999999+02921+02331100951ADDMA1100951999999OC100981REMMET105MOBOB2 METAR XM21 //000 073342 210653Z AUTO 05016G19KT 29/23 A2981 RMK A02 SLP095 T02920233 PA103 DA2140=
0140008415999992015122107534+07300+134200FM-15+000099999V0200501N006719999999N999999999+02871+02301100991ADDMA1100981999999OC100881REMMET105MOBOB2 METAR XM21 //000 073342 210753Z AUTO 05013G17KT 29/23 A2982 RMK A02 SLP099 T02870230 PA094 DA2066=
0140008415999992015122108544+07300+134200FM-15+000099999V0200601N008819999999N999999999+02851+02321101061ADDMA1101051999999OC101031REMMET105MOBOB2 METAR XM21 //000 073342 210854Z AUTO 06017G20KT 29/23 A2984 RMK A02 SLP106 T02850232 PA075 DA2025=
0140008415999992015122109534+07300+134200FM-15+000099999V0200601N007719999999N999999999+02811+02321101091ADDMA1101081999999OC100931REMMET105MOBOB2 METAR XM21 //000 073342 210953Z AUTO 06015G18KT 28/23 A2985 RMK A02 SLP109 T02810232 PA066 DA1968=
0140008415999992015122110534+07300+134200FM-15+000099999V0200501N007219999999N999999999+02801+02341101161ADDMA1101151999999OC100881REMMET105MOBOB2 METAR XM21 //000 073342 211053Z AUTO 05014G17KT 28/23 A2987 RMK A02 SLP116 T02800234 PA047 DA1939=
0140008415999992015122111534+07300+134200FM-15+000099999V0200501N007219999999N999999999+02821+02341101191ADDMA1101181999999OC100931REMMET105MOBOB2 METAR XM21 //000 073342 211153Z AUTO 05014G18KT 28/23 A2988 RMK A02 SLP119 T02820234 PA038 DA1949=
0140008415999992015122112534+07300+134200FM-15+000099999V0200401N006719999999N999999999+02781+02391101261ADDMA1101251999999OC100821REMMET105MOBOB2 METAR XM21 //000 073342 211253Z AUTO 04013G16KT 28/24 A2990 RMK A02 SLP126 T02780239 PA020 DA1894=
0140008415999992015122113534+07300+134200FM-15+000099999V0200601N006719999999N999999999+02811+02361101221ADDMA1101221999999OC100821REMMET105MOBOB2 METAR XM21 //000 073342 211353Z AUTO 06013G16KT 28/24 A2989 RMK A02 SLP122 T02810236 PA029 DA1932=
0140008415999992015122114534+07300+134200FM-15+000099999V0200601N007719999999N999999999+02811+02361101261ADDMA1101251999999OC100931REMMET105MOBOB2 METAR XM21 //000 073342 211453Z AUTO 06015G18KT 28/24 A2990 RMK A02 SLP126 T02810236 PA020 DA1921=
0167008415999992015122115534+07300+134200FM-15+000099999V0200601N006219999999N999999999+02771+02411101221ADDAA101000021AW1611MA1101221999999OC100881REMMET115MOBOB2 METAR XM21 //000 073342 211553Z AUTO 06012G17KT -RA 28/24 A2989 RMK A02 SLP122 P0000 T02770241 PA029 DA1898=
0167008415999992015122116534+07300+134200FM-15+000099999V0200601N005719999999N999999999+02771+02401101191ADDAA101002231AW1611MA1101181999999OC100821REMMET115MOBOB2 METAR XM21 //000 073342 211653Z AUTO 06011G16KT -RA 28/24 A2988 RMK A02 SLP119 P0009 T02770240 PA038 DA1907=
0140008415999992015122117534+07300+134200FM-15+000099999V0200701N006219999999N999999999+02781+02351101121ADDMA1101121999999OC100821REMMET105MOBOB2 METAR XM21 //000 073342 211753Z AUTO 07012G16KT 28/24 A2986 RMK A02 SLP112 T02780235 PA057 DA1931=
0140008415999992015122118534+07300+134200FM-15+000099999V0200501N006719999999N999999999+02771+02361101091ADDMA1101081999999OC100821REMMET105MOBOB2 METAR XM21 //000 073342 211853Z AUTO 05013G16KT 28/24 A2985 RMK A02 SLP109 T02770236 PA066 DA1933=
0140008415999992015122119534+07300+134200FM-15+000099999V0200501N007219999999N999999999+02781+02321101121ADDMA1101121999999OC100881REMMET105MOBOB2 METAR XM21 //000 073342 211953Z AUTO 05014G17KT 28/23 A2986 RMK A02 SLP112 T02780232 PA057 DA1923=
0140008415999992015122120534+07300+134200FM-15+000099999V0200601N007719999999N999999999+02781+02311101161ADDMA1101151999999OC100931REMMET105MOBOB2 METAR XM21 //000 073342 212053Z AUTO 06015G18KT 28/23 A2987 RMK A02 SLP116 T02780231 PA047 DA1910=
0140008415999992015122121534+07300+134200FM-15+000099999V0200601N007719999999N999999999+02791+02281101221ADDMA1101221999999OC100981REMMET105MOBOB2 METAR XM21 //000 073342 212153Z AUTO 06015G19KT 28/23 A2989 RMK A02 SLP122 T02790228 PA029 DA1892=
0140008415999992015122122534+07300+134200FM-15+000099999V0200501N006719999999N999999999+02791+02291101331ADDMA1101321999999OC100881REMMET105MOBOB2 METAR XM21 //000 073342 212253Z AUTO 05013G17KT 28/23 A2992 RMK A02 SLP133 T02790229 PA001 DA1861=
0140008415999992015122123534+07300+134200FM-15+000099999V0200501N007219999999N999999999+02821+02321101331ADDMA1101321999999OC100881REMMET105MOBOB2 METAR XM21 //000 073342 212353Z AUTO 05014G17KT 28/23 A2992 RMK A02 SLP133 T02820232 PA001 DA1900=
0140008415999992015122200534+07300+134200FM-15+000099999V0200401N006719999999N999999999+02841+02261101291ADDMA1101291999999OC100821REMMET105MOBOB2 METAR XM21 //000 073342 220053Z AUTO 04013G16KT 28/23 A2991 RMK A02 SLP129 T02840226 PA010 DA1921=
0140008415999992015122201534+07300+134200FM-15+000099999V0200401N007719999999N999999999+02891+02291101261ADDMA1101251999999OC100881REMMET105MOBOB2 METAR XM21 //000 073342 220153Z AUTO 04015G17KT 29/23 A2990 RMK A02 SLP126 T02890229 PA020 DA1996=
0140008415999992015122202534+07300+134200FM-15+000099999V0200301N007719999999N999999999+02881+02381101191ADDMA1101181999999OC100981REMMET105MOBOB2 METAR XM21 //000 073342 220253Z AUTO 03015G19KT 29/24 A2988 RMK A02 SLP119 T02880238 PA038 DA2027=
0167008415999992015122203534+07300+134200FM-15+000099999V0200301N008219999999N999999999+02881+02331101091ADDAA101000021AW1611MA1101081999999OC100981REMMET115MOBOB2 METAR XM21 //000 073342 220353Z AUTO 03016G19KT -RA 29/23 A2985 RMK A02 SLP109 P0000 T02880233 PA066 DA2049=
0167008415999992015122204534+07300+134200FM-15+000099999V0200701N005719999999N999999999+02861+02301101021ADDAA101000021AW1611MA1101021999999OC100981REMMET115MOBOB2 METAR XM21 //000 073342 220453Z AUTO 07011G19KT -RA 29/23 A2983 RMK A02 SLP102 P0000 T02860230 PA084 DA2044=
0129008415999992015122205534+07300+134200FM-15+000099999V0200601N004619999999N999999999+02681+02301100991ADDMA1100981999999REMMET102MOBOB2 METAR XM21 //000 073342 220553Z AUTO 06009KT 27/23 A2982 RMK A02 SLP099 T02680230 PA094 DA1853=
0140008415999992015122206534+07300+134200FM-15+000099999V0200601N008819999999N999999999+02871+02261100951ADDMA1100951999999OC101031REMMET105MOBOB2 METAR XM21 //000 073342 220653Z AUTO 06017G20KT 29/23 A2981 RMK A02 SLP095 T02870226 PA103 DA2068=
0140008415999992015122207534+07300+134200FM-15+000099999V0200601N007219999999N999999999+02861+02341100991ADDMA1100981999999OC100821REMMET105MOBOB2 METAR XM21 //000 073342 220753Z AUTO 06014G16KT 29/23 A2982 RMK A02 SLP099 T02860234 PA094 DA2064=
0140008415999992015122208534+07300+134200FM-15+000099999V0200601N007719999999N999999999+02821+02331101061ADDMA1101051999999OC100931REMMET105MOBOB2 METAR XM21 //000 073342 220853Z AUTO 06015G18KT 28/23 A2984 RMK A02 SLP106 T02820233 PA075 DA1994=
0140008415999992015122209534+07300+134200FM-15+000099999V0200501N006719999999N999999999+02801+02421101091ADDMA1101081999999OC100821REMMET105MOBOB2 METAR XM21 //000 073342 220953Z AUTO 05013G16KT 28/24 A2985 RMK A02 SLP109 T02800242 PA066 DA1979=
0140008415999992015122210534+07300+134200FM-15+000099999V0200601N007219999999N999999999+02801+02351101161ADDMA1101151999999OC100981REMMET105MOBOB2 METAR XM21 //000 073342 221053Z AUTO 06014G19KT 28/23 A2987 RMK A02 SLP116 T02800235 PA047 DA1941=
0140008415999992015122211534+07300+134200FM-15+000099999V0200601N006219999999N999999999+02791+02441101221ADDMA1101221999999OC100881REMMET105MOBOB2 METAR XM21 //000 073342 221153Z AUTO 06012G17KT 28/24 A2989 RMK A02 SLP122 T02790244 PA029 DA1927=
0140008415999992015122212534+07300+134200FM-15+000099999V0200601N006219999999N999999999+02781+02361101221ADDMA1101221999999OC100771REMMET105MOBOB2 METAR XM21 //000 073342 221253Z AUTO 06012G15KT 28/24 A2989 RMK A02 SLP122 T02780236 PA029 DA1899=
0140008415999992015122213534+07300+134200FM-15+000099999V0200601N007219999999N999999999+02791+02311101221ADDMA1101221999999OC100881REMMET105MOBOB2 METAR XM21 //000 073342 221353Z AUTO 06014G17KT 28/23 A2989 RMK A02 SLP122 T02790231 PA029 DA1899=
0140008415999992015122214534+07300+134200FM-15+000099999V0200601N005719999999N999999999+02791+02311101191ADDMA1101181999999OC100721REMMET105MOBOB2 METAR XM21 //000 073342 221453Z AUTO 06011G14KT 28/23 A2988 RMK A02 SLP119 T02790231 PA038 DA1910=
0167008415999992015122215534+07300+134200FM-15+000099999V0200901N006719999999N999999999+02591+02281101161ADDAA101001531AW1611MA1101151999999OC100881REMMET115MOBOB2 METAR XM21 //000 073342 221553Z AUTO 09013G17KT -RA 26/23 A2987 RMK A02 SLP116 P0006 T02590228 PA047 DA1690=
0140008415999992015122216534+07300+134200FM-15+000099999V0200701N006219999999N999999999+02741+02261101121ADDMA1101121999999OC100771REMMET105MOBOB2 METAR XM21 //000 073342 221653Z AUTO 07012G15KT 27/23 A2986 RMK A02 SLP112 T02740226 PA057 DA1866=
0140008415999992015122217534+07300+134200FM-15+000099999V0200701N006719999999N999999999+02781+02151101061ADDMA1101051999999OC100931REMMET105MOBOB2 METAR XM21 //000 073342 221753Z AUTO 07013G18KT 28/22 A2984 RMK A02 SLP106 T02780215 PA075 DA1912=
0140008415999992015122218534+07300+134200FM-15+000099999V0200801N006219999999N999999999+02771+02111101061ADDMA1101051999999OC100821REMMET105MOBOB2 METAR XM21 //000 073342 221853Z AUTO 08012G16KT 28/21 A2984 RMK A02 SLP106 T02770211 PA075 DA1892=
0140008415999992015122219534+07300+134200FM-15+000099999V0200701N005119999999N999999999+02771+02161101091ADDMA1101081999999OC100621REMMET105MOBOB2 METAR XM21 //000 073342 221953Z AUTO 07010G12KT 28/22 A2985 RMK A02 SLP109 T02770216 PA066 DA1890=
0140008415999992015122220534+07300+134200FM-15+000099999V0200701N005719999999N999999999+02761+02161101121ADDMA1101121999999OC100721REMMET105MOBOB2 METAR XM21 //000 073342 222053Z AUTO 07011G14KT 28/22 A2986 RMK A02 SLP112 T02760216 PA057 DA1868=
0140008415999992015122221534+07300+134200FM-15+000099999V0200701N005719999999N999999999+02771+02121101191ADDMA1101181999999OC100771REMMET105MOBOB2 METAR XM21 //000 073342 222153Z AUTO 07011G15KT 28/21 A2988 RMK A02 SLP119 T02770212 PA038 DA1848=
0140008415999992015122222534+07300+134200FM-15+000099999V0200701N005719999999N999999999+02801+02151101291ADDMA1101291999999OC100771REMMET105MOBOB2 METAR XM21 //000 073342 222253Z AUTO 07011G15KT 28/22 A2991 RMK A02 SLP129 T02800215 PA010 DA1854=
0140008415999992015122223534+07300+134200FM-15+000099999V0200601N004619999999N999999999+02811+02151101291ADDMA1101291999999OC100671REMMET105MOBOB2 METAR XM21 //000 073342 222353Z AUTO 06009G13KT 28/21 A2991 RMK A02 SLP129 T02810215 PA010 DA1865=
0140008415999992015122300534+07300+134200FM-15+000099999V0200501N005119999999N999999999+02821+02221101291ADDMA1101291999999OC100671REMMET105MOBOB2 METAR XM21 //000 073342 230053Z AUTO 05010G13KT 28/22 A2991 RMK A02 SLP129 T02820222 PA010 DA1891=
0140008415999992015122301534+07300+134200FM-15+000099999V0200701N004619999999N999999999+02881+02231101221ADDMA1101221999999OC100621REMMET105MOBOB2 METAR XM21 //000 073342 230153Z AUTO 07009G12KT 29/22 A2989 RMK A02 SLP122 T02880223 PA029 DA1983=
0140008415999992015122302534+07300+134200FM-15+000099999V0200801N006219999999N999999999+02911+02221101121ADDMA1101121999999OC100771REMMET105MOBOB2 METAR XM21 //000 073342 230253Z AUTO 08012G15KT 29/22 A2986 RMK A02 SLP112 T02910222 PA057 DA2048=
0140008415999992015122303534+07300+134200FM-15+000099999V0200701N005719999999N999999999+02901+02231101021ADDMA1101021999999OC100771REMMET105MOBOB2 METAR XM21 //000 073342 230353Z AUTO 07011G15KT 29/22 A2983 RMK A02 SLP102 T02900223 PA084 DA2073=
0140008415999992015122304534+07300+134200FM-15+000099999V0200401N006219999999N999999999+02871+02331100951ADDMA1100951999999OC100821REMMET105MOBOB2 METAR XM21 //000 073342 230453Z AUTO 04012G16KT 29/23 A2981 RMK A02 SLP095 T02870233 PA103 DA2083=
0140008415999992015122305534+07300+134200FM-15+000099999V0200601N006719999999N999999999+02911+02181100851ADDMA1100851999999OC100771REMMET105MOBOB2 METAR XM21 //000 073342 230553Z AUTO 06013G15KT 29/22 A2978 RMK A02 SLP085 T02910218 PA131 DA2130=
0140008415999992015122306534+07300+134200FM-15+000099999V0200601N006719999999N999999999+02871+02171100851ADDMA1100851999999OC100821REMMET105MOBOB2 METAR XM21 //000 073342 230653Z AUTO 06013G16KT 29/22 A2978 RMK A02 SLP085 T02870217 PA131 DA2084=
0140008415999992015122307534+07300+134200FM-15+000099999V0200501N006219999999N999999999+02871+02221100891ADDMA1100881999999OC100771REMMET105MOBOB2 METAR XM21 //000 073342 230753Z AUTO 05012G15KT 29/22 A2979 RMK A02 SLP089 T02870222 PA122 DA2084=
0140008415999992015122308534+07300+134200FM-15+000099999V0200601N006719999999N999999999+02831+02231100951ADDMA1100951999999OC100881REMMET105MOBOB2 METAR XM21 //000 073342 230853Z AUTO 06013G17KT 28/22 A2981 RMK A02 SLP095 T02830223 PA103 DA2019=
0140008415999992015122309534+07300+134200FM-15+000099999V0200501N006719999999N999999999+02801+02241101021ADDMA1101021999999OC100821REMMET105MOBOB2 METAR XM21 //000 073342 230953Z AUTO 05013G16KT 28/22 A2983 RMK A02 SLP102 T02800224 PA084 DA1964=
0140008415999992015122310534+07300+134200FM-15+000099999V0200601N006719999999N999999999+02791+02241101061ADDMA1101051999999OC100821REMMET105MOBOB2 METAR XM21 //000 073342 231053Z AUTO 06013G16KT 28/22 A2984 RMK A02 SLP106 T02790224 PA075 DA1942=
0140008415999992015122311534+07300+134200FM-15+000099999V0200501N006219999999N999999999+02791+02271101091ADDMA1101081999999OC100771REMMET105MOBOB2 METAR XM21 //000 073342 231153Z AUTO 05012G15KT 28/23 A2985 RMK A02 SLP109 T02790227 PA066 DA1935=
0140008415999992015122312534+07300+134200FM-15+000099999V0200501N005719999999N999999999+02781+02321101091ADDMA1101081999999OC100721REMMET105MOBOB2 METAR XM21 //000 073342 231253Z AUTO 05011G14KT 28/23 A2985 RMK A02 SLP109 T02780232 PA066 DA1934=
0140008415999992015122313534+07300+134200FM-15+000099999V0200501N006719999999N999999999+02781+02331101091ADDMA1101081999999OC100821REMMET105MOBOB2 METAR XM21 //000 073342 231353Z AUTO 05013G16KT 28/23 A2985 RMK A02 SLP109 T02780233 PA066 DA1938=
0140008415999992015122314534+07300+134200FM-15+000099999V0200501N007219999999N999999999+02781+02331101061ADDMA1101051999999OC100821REMMET105MOBOB2 METAR XM21 //000 073342 231453Z AUTO 05014G16KT 28/23 A2984 RMK A02 SLP106 T02780233 PA075 DA1949=
0140008415999992015122315534+07300+134200FM-15+000099999V0200501N006719999999N999999999+02761+02321101061ADDMA1101051999999OC100821REMMET105MOBOB2 METAR XM21 //000 073342 231553Z AUTO 05013G16KT 28/23 A2984 RMK A02 SLP106 T02760232 PA075 DA1925=
0140008415999992015122316534+07300+134200FM-15+000099999V0200501N006219999999N999999999+02751+02341101021ADDMA1101021999999OC100821REMMET105MOBOB2 METAR XM21 //000 073342 231653Z AUTO 05012G16KT 28/23 A2983 RMK A02 SLP102 T02750234 PA084 DA1929=
0140008415999992015122317534+07300+134200FM-15+000099999V0200501N005719999999N999999999+02751+02341100951ADDMA1100951999999OC100721REMMET105MOBOB2 METAR XM21 //000 073342 231753Z AUTO 05011G14KT 28/23 A2981 RMK A02 SLP095 T02750234 PA103 DA1952=
0140008415999992015122318534+07300+134200FM-15+000099999V0200501N006219999999N999999999+02741+02301100991ADDMA1100981999999OC100721REMMET105MOBOB2 METAR XM21 //000 073342 231853Z AUTO 05012G14KT 27/23 A2982 RMK A02 SLP099 T02740230 PA094 DA1921=
0140008415999992015122319534+07300+134200FM-15+000099999V0200501N004619999999N999999999+02761+02301100991ADDMA1100981999999OC100621REMMET105MOBOB2 METAR XM21 //000 073342 231953Z AUTO 05009G12KT 28/23 A2982 RMK A02 SLP099 T02760230 PA094 DA1943=
0140008415999992015122320534+07300+134200FM-15+000099999V0200401N005719999999N999999999+02781+02311101021ADDMA1101021999999OC100721REMMET105MOBOB2 METAR XM21 //000 073342 232053Z AUTO 04011G14KT 28/23 A2983 RMK A02 SLP102 T02780231 PA084 DA1957=
0140008415999992015122321534+07300+134200FM-15+000099999V0200501N007219999999N999999999+02701+02351101091ADDMA1101081999999OC100881REMMET105MOBOB2 METAR XM21 //000 073342 232153Z AUTO 05014G17KT 27/24 A2985 RMK A02 SLP109 T02700235 PA066 DA1853=
0140008415999992015122322534+07300+134200FM-15+000099999V0200401N007719999999N999999999+02711+02301101161ADDMA1101151999999OC101031REMMET105MOBOB2 METAR XM21 //000 073342 232253Z AUTO 04015G20KT 27/23 A2987 RMK A02 SLP116 T02710230 PA047 DA1830=
0140008415999992015122323534+07300+134200FM-15+000099999V0200501N006719999999N999999999+02771+02351101191ADDMA1101181999999OC100881REMMET105MOBOB2 METAR XM21 //000 073342 232353Z AUTO 05013G17KT 28/24 A2988 RMK A02 SLP119 T02770235 PA038 DA1897=
0140008415999992015122400534+07300+134200FM-15+000099999V0200501N007219999999N999999999+02841+02311101161ADDMA1101151999999OC100821REMMET105MOBOB2 METAR XM21 //000 073342 240053Z AUTO 05014G16KT 28/23 A2987 RMK A02 SLP116 T02840231 PA047 DA1977=
0167008415999992015122401534+07300+134200FM-15+000099999V0200701N005119999999N999999999+02611+02391101121ADDAA101000531AW1611MA1101121999999OC100671REMMET115MOBOB2 METAR XM21 //000 073342 240153Z AUTO 07010G13KT -RA 26/24 A2986 RMK A02 SLP112 P0002 T02610239 PA057 DA1748=
0140008415999992015122402534+07300+134200FM-15+000099999V0200401N005719999999N999999999+02661+02291101061ADDMA1101051999999OC100671REMMET105MOBOB2 METAR XM21 //000 073342 240253Z AUTO 04011G13KT 27/23 A2984 RMK A02 SLP106 T02660229 PA075 DA1806=
0140008415999992015122403534+07300+134200FM-15+000099999V0200501N006219999999N999999999+02731+02381100921ADDMA1100911999999OC100721REMMET105MOBOB2 METAR XM21 //000 073342 240353Z AUTO 05012G14KT 27/24 A2980 RMK A02 SLP092 T02730238 PA112 DA1950=
0140008415999992015122404534+07300+134200FM-15+000099999V0200701N004619999999N999999999+02811+02381100851ADDMA1100851999999OC100621REMMET105MOBOB2 METAR XM21 //000 073342 240453Z AUTO 07009G12KT 28/24 A2978 RMK A02 SLP085 T02810238 PA131 DA2062=
0167008415999992015122405534+07300+134200FM-15+000099999V0200501N008219999999N999999999+02761+02331100781ADDAA101000021AW1611MA1100781999999OC100981REMMET115MOBOB2 METAR XM21 //000 073342 240553Z AUTO 05016G19KT -RA 28/23 A2976 RMK A02 SLP078 P0000 T02760233 PA149 DA2019=
0140008415999992015122406534+07300+134200FM-15+000099999V0200301N007719999999N999999999+02701+02381100781ADDMA1100781999999OC100931REMMET105MOBOB2 METAR XM21 //000 073342 240653Z AUTO 03015G18KT 27/24 A2976 RMK A02 SLP078 T02700238 PA149 DA1962=
0140008415999992015122407534+07300+134200FM-15+000099999V0200801N007719999999N999999999+02641+02361100851ADDMA1100851999999OC101031REMMET105MOBOB2 METAR XM21 //000 073342 240753Z AUTO 08015G20KT 26/24 A2978 RMK A02 SLP085 T02640236 PA131 DA1866=
0140008415999992015122408534+07300+134200FM-15+000099999V0200701N005119999999N999999999+02691+02421100891ADDMA1100881999999OC100621REMMET105MOBOB2 METAR XM21 //000 073342 240853Z AUTO 07010G12KT 27/24 A2979 RMK A02 SLP089 T02690242 PA122 DA1925=
0140008415999992015122409534+07300+134200FM-15+000099999V0200601N007719999999N999999999+02791+02401100951ADDMA1100951999999OC100981REMMET105MOBOB2 METAR XM21 //000 073342 240953Z AUTO 06015G19KT 28/24 A2981 RMK A02 SLP095 T02790240 PA103 DA2009=
0140008415999992015122410534+07300+134200FM-15+000099999V0200501N008819999999N999999999+02801+02381101021ADDMA1101021999999OC101131REMMET105MOBOB2 METAR XM21 //000 073342 241053Z AUTO 05017G22KT 28/24 A2983 RMK A02 SLP102 T02800238 PA084 DA1995=
0140008415999992015122411534+07300+134200FM-15+000099999V0200601N010319999999N999999999+02791+02371101061ADDMA1101051999999OC101241REMMET105MOBOB2 METAR XM21 //000 073342 241153Z AUTO 06020G24KT 28/24 A2984 RMK A02 SLP106 T02790237 PA075 DA1970=
0140008415999992015122412534+07300+134200FM-15+000099999V0200601N010819999999N999999999+02751+02381101091ADDMA1101081999999OC101291REMMET105MOBOB2 METAR XM21 //000 073342 241253Z AUTO 06021G25KT 28/24 A2985 RMK A02 SLP109 T02750238 PA066 DA1914=
0140008415999992015122413534+07300+134200FM-15+000099999V0200701N009319999999N999999999+02671+02301101061ADDMA1101051999999OC101291REMMET105MOBOB2 METAR XM21 //000 073342 241353Z AUTO 07018G25KT 27/23 A2984 RMK A02 SLP106 T02670230 PA075 DA1819=
0140008415999992015122414534+07300+134200FM-15+000099999V0200601N008219999999N999999999+02761+02331101021ADDMA1101021999999OC101131REMMET105MOBOB2 METAR XM21 //000 073342 241453Z AUTO 06016G22KT 28/23 A2983 RMK A02 SLP102 T02760233 PA084 DA1939=
0140008415999992015122415534+07300+134200FM-15+000099999V0200501N008219999999N999999999+02781+02351100991ADDMA1100981999999OC101031REMMET105MOBOB2 METAR XM21 //000 073342 241553Z AUTO 05016G20KT 28/24 A2982 RMK A02 SLP099 T02780235 PA094 DA1977=
0140008415999992015122416534+07300+134200FM-15+000099999V0200601N009319999999N999999999+02771+02341100891ADDMA1100881999999OC101131REMMET105MOBOB2 METAR XM21 //000 073342 241653Z AUTO 06018G22KT 28/23 A2979 RMK A02 SLP089 T02770234 PA122 DA1996=
0140008415999992015122417534+07300+134200FM-15+000099999V0200401N008819999999N999999999+02761+02321100851ADDMA1100851999999OC101031REMMET105MOBOB2 METAR XM21 //000 073342 241753Z AUTO 04017G20KT 28/23 A2978 RMK A02 SLP085 T02760232 PA131 DA1993=
0140008415999992015122420534+07300+134200FM-15+000099999V0200501N008219999999N999999999+02761+02341100951ADDMA1100951999999OC100981REMMET105MOBOB2 METAR XM21 //000 073342 242053Z AUTO 05016G19KT 28/23 A2981 RMK A02 SLP095 T02760234 PA103 DA1964=
0140008415999992015122421534+07300+134200FM-15+000099999V0200501N008219999999N999999999+02771+02291101061ADDMA1101051999999OC100981REMMET105MOBOB2 METAR XM21 //000 073342 242153Z AUTO 05016G19KT 28/23 A2984 RMK A02 SLP106 T02770229 PA075 DA1930=
0140008415999992015122422534+07300+134200FM-15+000099999V0200601N008819999999N999999999+02791+02221101161ADDMA1101151999999OC101031REMMET105MOBOB2 METAR XM21 //000 073342 242253Z AUTO 06017G20KT 28/22 A2987 RMK A02 SLP116 T02790222 PA047 DA1902=
0140008415999992015122423534+07300+134200FM-15+000099999V0200501N008819999999N999999999+02801+02181101191ADDMA1101181999999OC101031REMMET105MOBOB2 METAR XM21 //000 073342 242353Z AUTO 05017G20KT 28/22 A2988 RMK A02 SLP119 T02800218 PA038 DA1895=
0140008415999992015122500534+07300+134200FM-15+000099999V0200501N008219999999N999999999+02851+02181101191ADDMA1101181999999OC100981REMMET105MOBOB2 METAR XM21 //000 073342 250053Z AUTO 05016G19KT 29/22 A2988 RMK A02 SLP119 T02850218 PA038 DA1951=
0140008415999992015122501534+07300+134200FM-15+000099999V0200501N008219999999N999999999+02871+02121101121ADDMA1101121999999OC101031REMMET105MOBOB2 METAR XM21 //000 073342 250153Z AUTO 05016G20KT 29/21 A2986 RMK A02 SLP112 T02870212 PA057 DA1983=
0140008415999992015122502534+07300+134200FM-15+000099999V0200301N008819999999N999999999+02881+02191101021ADDMA1101021999999OC101081REMMET105MOBOB2 METAR XM21 //000 073342 250253Z AUTO 03017G21KT 29/22 A2983 RMK A02 SLP102 T02880219 PA084 DA2042=
0140008415999992015122503534+07300+134200FM-15+000099999V0200301N008819999999N999999999+02881+02141100951ADDMA1100951999999OC101031REMMET105MOBOB2 METAR XM21 //000 073342 250353Z AUTO 03017G20KT 29/21 A2981 RMK A02 SLP095 T02880214 PA103 DA2055=
0140008415999992015122504534+07300+134200FM-15+000099999V0200301N008219999999N999999999+02881+02121100851ADDMA1100851999999OC100931REMMET105MOBOB2 METAR XM21 //000 073342 250453Z AUTO 03016G18KT 29/21 A2978 RMK A02 SLP085 T02880212 PA131 DA2086=
0140008415999992015122505534+07300+134200FM-15+000099999V0200301N008219999999N999999999+02861+02141100851ADDMA1100851999999OC100981REMMET105MOBOB2 METAR XM21 //000 073342 250553Z AUTO 03016G19KT 29/21 A2978 RMK A02 SLP085 T02860214 PA131 DA2068=
0140008415999992015122506534+07300+134200FM-15+000099999V0200301N008219999999N999999999+02861+02231100851ADDMA1100851999999OC100981REMMET105MOBOB2 METAR XM21 //000 073342 250653Z AUTO 03016G19KT 29/22 A2978 RMK A02 SLP085 T02860223 PA131 DA2085=
0140008415999992015122507534+07300+134200FM-15+000099999V0200401N008219999999N999999999+02811+02171100891ADDMA1100881999999OC100981REMMET105MOBOB2 METAR XM21 //000 073342 250753Z AUTO 04016G19KT 28/22 A2979 RMK A02 SLP089 T02810217 PA122 DA2006=
0140008415999992015122508534+07300+134200FM-15+000099999V0200301N006719999999N999999999+02791+02261100921ADDMA1100911999999OC100821REMMET105MOBOB2 METAR XM21 //000 073342 250853Z AUTO 03013G16KT 28/23 A2980 RMK A02 SLP092 T02790226 PA112 DA1990=
0140008415999992015122509534+07300+134200FM-15+000099999V0200401N007719999999N999999999+02801+02241100991ADDMA1100981999999OC100981REMMET105MOBOB2 METAR XM21 //000 073342 250953Z AUTO 04015G19KT 28/22 A2982 RMK A02 SLP099 T02800224 PA094 DA1975=
0140008415999992015122510534+07300+134200FM-15+000099999V0200501N008219999999N999999999+02811+02211101061ADDMA1101051999999OC100981REMMET105MOBOB2 METAR XM21 //000 073342 251053Z AUTO 05016G19KT 28/22 A2984 RMK A02 SLP106 T02810221 PA075 DA1957=
0140008415999992015122511534+07300+134200FM-15+000099999V0200401N006719999999N999999999+02761+02291101061ADDMA1101051999999OC100821REMMET105MOBOB2 METAR XM21 //000 073342 251153Z AUTO 04013G16KT 28/23 A2984 RMK A02 SLP106 T02760229 PA075 DA1917=
0140008415999992015122512534+07300+134200FM-15+000099999V0200301N006219999999N999999999+02731+02241101091ADDMA1101081999999OC100771REMMET105MOBOB2 METAR XM21 //000 073342 251253Z AUTO 03012G15KT 27/22 A2985 RMK A02 SLP109 T02730224 PA066 DA1862=
0140008415999992015122513534+07300+134200FM-15+000099999V0200501N007719999999N999999999+02781+02291101061ADDMA1101051999999OC100931REMMET105MOBOB2 METAR XM21 //000 073342 251353Z AUTO 05015G18KT 28/23 A2984 RMK A02 SLP106 T02780229 PA075 DA1941=
0140008415999992015122514534+07300+134200FM-15+000099999V0200501N008219999999N999999999+02761+02111101061ADDMA1101051999999OC100931REMMET105MOBOB2 METAR XM21 //000 073342 251453Z AUTO 05016G18KT 28/21 A2984 RMK A02 SLP106 T02760211 PA075 DA1880=
0140008415999992015122515534+07300+134200FM-15+000099999V0200601N008219999999N999999999+02751+02161100991ADDMA1100981999999OC101081REMMET105MOBOB2 METAR XM21 //000 073342 251553Z AUTO 06016G21KT 28/22 A2982 RMK A02 SLP099 T02750216 PA094 DA1903=
0140008415999992015122516534+07300+134200FM-15+000099999V0200601N008219999999N999999999+02741+02141100921ADDMA1100911999999OC101031REMMET105MOBOB2 METAR XM21 //000 073342 251653Z AUTO 06016G20KT 27/21 A2980 RMK A02 SLP092 T02740214 PA112 DA1910=
0140008415999992015122517534+07300+134200FM-15+000099999V0200501N008219999999N999999999+02721+02131100891ADDMA1100881999999OC101031REMMET105MOBOB2 METAR XM21 //000 073342 251753Z AUTO 05016G20KT 27/21 A2979 RMK A02 SLP089 T02720213 PA122 DA1897=
0140008415999992015122518534+07300+134200FM-15+000099999V0200501N007719999999N999999999+02731+02151100891ADDMA1100881999999OC100931REMMET105MOBOB2 METAR XM21 //000 073342 251853Z AUTO 05015G18KT 27/22 A2979 RMK A02 SLP089 T02730215 PA122 DA1913=
0140008415999992015122519534+07300+134200FM-15+000099999V0200501N008819999999N999999999+02711+02221100921ADDMA1100911999999OC101081REMMET105MOBOB2 METAR XM21 //000 073342 251953Z AUTO 05017G21KT 27/22 A2980 RMK A02 SLP092 T02710222 PA112 DA1893=
0140008415999992015122520534+07300+134200FM-15+000099999V0200501N008219999999N999999999+02731+02171100991ADDMA1100981999999OC100981REMMET105MOBOB2 METAR XM21 //000 073342 252053Z AUTO 05016G19KT 27/22 A2982 RMK A02 SLP099 T02730217 PA094 DA1882=
0140008415999992015122521534+07300+134200FM-15+000099999V0200501N008819999999N999999999+02721+02241101091ADDMA1101081999999OC101081REMMET105MOBOB2 METAR XM21 //000 073342 252153Z AUTO 05017G21KT 27/22 A2985 RMK A02 SLP109 T02720224 PA066 DA1851=
0140008415999992015122522534+07300+134200FM-15+000099999V0200601N007719999999N999999999+02761+02221101161ADDMA1101151999999OC101131REMMET105MOBOB2 METAR XM21 //000 073342 252253Z AUTO 06015G22KT 28/22 A2987 RMK A02 SLP116 T02760222 PA047 DA1869=
0140008415999992015122523534+07300+134200FM-15+000099999V0200601N006219999999N999999999+02781+02261101191ADDMA1101181999999OC100881REMMET105MOBOB2 METAR XM21 //000 073342 252353Z AUTO 06012G17KT 28/23 A2988 RMK A02 SLP119 T02780226 PA038 DA1888=
0140008415999992015122600534+07300+134200FM-15+000099999V0200601N007719999999N999999999+02811+02231101191ADDMA1101181999999OC100981REMMET105MOBOB2 METAR XM21 //000 073342 260053Z AUTO 06015G19KT 28/22 A2988 RMK A02 SLP119 T02810223 PA038 DA1915=
0140008415999992015122601534+07300+134200FM-15+000099999V0200601N007219999999N999999999+02861+02211101161ADDMA1101151999999OC100981REMMET105MOBOB2 METAR XM21 //000 073342 260153Z AUTO 06014G19KT 29/22 A2987 RMK A02 SLP116 T02860221 PA047 DA1979=
0140008415999992015122602534+07300+134200FM-15+000099999V0200601N007219999999N999999999+02871+02251101121ADDMA1101121999999OC100931REMMET105MOBOB2 METAR XM21 //000 073342 260253Z AUTO 06014G18KT 29/22 A2986 RMK A02 SLP112 T02870225 PA057 DA2009=
0140008415999992015122603534+07300+134200FM-15+000099999V0200601N006719999999N999999999+02891+02281101021ADDMA1101021999999OC100821REMMET105MOBOB2 METAR XM21 //000 073342 260353Z AUTO 06013G16KT 29/23 A2983 RMK A02 SLP102 T02890228 PA084 DA2072=
0140008415999992015122604534+07300+134200FM-15+000099999V0200401N007219999999N999999999+02871+02341100951ADDMA1100951999999OC100881REMMET105MOBOB2 METAR XM21 //000 073342 260453Z AUTO 04014G17KT 29/23 A2981 RMK A02 SLP095 T02870234 PA103 DA2085=
0167008415999992015122605534+07300+134200FM-15+000099999V0200301N006719999999N999999999+02821+02321100921ADDAA101000531AW1611MA1100911999999OC100881REMMET115MOBOB2 METAR XM21 //000 073342 260553Z AUTO 03013G17KT -RA 28/23 A2980 RMK A02 SLP092 P0002 T02820232 PA112 DA2036=
0167008415999992015122606534+07300+134200FM-15+000099999V0200601N008819999999N999999999+02731+02261100951ADDAA101000531AW1631MA1100951999999OC101291REMMET115MOBOB2 METAR XM21 //000 073342 260653Z AUTO 06017G25KT +RA 27/23 A2981 RMK A02 SLP095 P0002 T02730226 PA103 DA1913=
0167008415999992015122607534+07300+134200FM-15+000099999V0200701N005119999999N999999999+02711+02291100991ADDAA101000021AW1611MA1100981999999OC100671REMMET115MOBOB2 METAR XM21 //000 073342 260753Z AUTO 07010G13KT -RA 27/23 A2982 RMK A02 SLP099 P0000 T02710229 PA094 DA1884=
0140008415999992015122608534+07300+134200FM-15+000099999V0200501N006219999999N999999999+02731+02271101021ADDMA1101021999999OC100721REMMET105MOBOB2 METAR XM21 //000 073342 260853Z AUTO 05012G14KT 27/23 A2983 RMK A02 SLP102 T02730227 PA084 DA1892=
0140008415999992015122609534+07300+134200FM-15+000099999V0200401N006719999999N999999999+02701+02361101091ADDMA1101081999999OC100771REMMET105MOBOB2 METAR XM21 //000 073342 260953Z AUTO 04013G15KT 27/24 A2985 RMK A02 SLP109 T02700236 PA066 DA1854=
0140008415999992015122610534+07300+134200FM-15+000099999V0200601N006219999999N999999999+02701+02311101121ADDMA1101121999999OC100771REMMET105MOBOB2 METAR XM21 //000 073342 261053Z AUTO 06012G15KT 27/23 A2986 RMK A02 SLP112 T02700231 PA057 DA1833=
0129008415999992015122611534+07300+134200FM-15+000099999V0200701N004619999999N999999999+02721+02371101161ADDMA1101151999999REMMET102MOBOB2 METAR XM21 //000 073342 261153Z AUTO 07009KT 27/24 A2987 RMK A02 SLP116 T02720237 PA047 DA1855=
0140008415999992015122612534+07300+134200FM-15+000099999V0200801N005719999999N999999999+02741+02371101161ADDMA1101151999999OC100671REMMET105MOBOB2 METAR XM21 //000 073342 261253Z AUTO 08011G13KT 27/24 A2987 RMK A02 SLP116 T02740237 PA047 DA1879=
0140008415999992015122613534+07300+134200FM-15+000099999V0200701N006719999999N999999999+02741+02371101121ADDMA1101121999999OC100881REMMET105MOBOB2 METAR XM21 //000 073342 261353Z AUTO 07013G17KT 27/24 A2986 RMK A02 SLP112 T02740237 PA057 DA1891=
0140008415999992015122614534+07300+134200FM-15+000099999V0200701N004619999999N999999999+02741+02421101121ADDMA1101121999999OC100721REMMET105MOBOB2 METAR XM21 //000 073342 261453Z AUTO 07009G14KT 27/24 A2986 RMK A02 SLP112 T02740242 PA057 DA1901=
0140008415999992015122615534+07300+134200FM-15+000099999V0200701N006719999999N999999999+02781+02391101091ADDMA1101081999999OC100881REMMET105MOBOB2 METAR XM21 //000 073342 261553Z AUTO 07013G17KT 28/24 A2985 RMK A02 SLP109 T02780239 PA066 DA1950=
0140008415999992015122616534+07300+134200FM-15+000099999V0200801N005719999999N999999999+02761+02361101091ADDMA1101081999999OC100721REMMET105MOBOB2 METAR XM21 //000 073342 261653Z AUTO 08011G14KT 28/24 A2985 RMK A02 SLP109 T02760236 PA066 DA1921=
0140008415999992015122617534+07300+134200FM-15+000099999V0200701N006219999999N999999999+02771+02371101061ADDMA1101051999999OC100771REMMET105MOBOB2 METAR XM21 //000 073342 261753Z AUTO 07012G15KT 28/24 A2984 RMK A02 SLP106 T02770237 PA075 DA1946=
0140008415999992015122618534+07300+134200FM-15+000099999V0200801N006719999999N999999999+02781+02361101061ADDMA1101051999999OC100881REMMET105MOBOB2 METAR XM21 //000 073342 261853Z AUTO 08013G17KT 28/24 A2984 RMK A02 SLP106 T02780236 PA075 DA1955=
0140008415999992015122619534+07300+134200FM-15+000099999V0200701N006219999999N999999999+02781+02311101121ADDMA1101121999999OC100771REMMET105MOBOB2 METAR XM21 //000 073342 261953Z AUTO 07012G15KT 28/23 A2986 RMK A02 SLP112 T02780231 PA057 DA1922=
0140008415999992015122620534+07300+134200FM-15+000099999V0200801N005719999999N999999999+02791+02331101191ADDMA1101181999999OC100671REMMET105MOBOB2 METAR XM21 //000 073342 262053Z AUTO 08011G13KT 28/23 A2988 RMK A02 SLP119 T02790233 PA038 DA1914=
0140008415999992015122621534+07300+134200FM-15+000099999V0200801N006219999999N999999999+02801+02301101261ADDMA1101251999999OC100821REMMET105MOBOB2 METAR XM21 //000 073342 262153Z AUTO 08012G16KT 28/23 A2990 RMK A02 SLP126 T02800230 PA020 DA1896=
0140008415999992015122622534+07300+134200FM-15+000099999V0200701N006219999999N999999999+02821+02311101291ADDMA1101291999999OC100821REMMET105MOBOB2 METAR XM21 //000 073342 262253Z AUTO 07012G16KT 28/23 A2991 RMK A02 SLP129 T02820231 PA010 DA1908=
0140008415999992015122623534+07300+134200FM-15+000099999V0200901N007719999999N999999999+02851+02291101331ADDMA1101321999999OC100931REMMET105MOBOB2 METAR XM21 //000 073342 262353Z AUTO 09015G18KT 29/23 A2992 RMK A02 SLP133 T02850229 PA001 DA1927=
0140008415999992015122700534+07300+134200FM-15+000099999V0200801N006219999999N999999999+02751+02291101331ADDMA1101321999999OC100721REMMET105MOBOB2 METAR XM21 //000 073342 270053Z AUTO 08012G14KT 28/23 A2992 RMK A02 SLP133 T02750229 PA001 DA1816=
0140008415999992015122701534+07300+134200FM-15+000099999V0200901N007219999999N999999999+02861+02271101291ADDMA1101291999999OC101031REMMET105MOBOB2 METAR XM21 //000 073342 270153Z AUTO 09014G20KT 29/23 A2991 RMK A02 SLP129 T02860227 PA010 DA1947=
0140008415999992015122702534+07300+134200FM-15+000099999V0200801N007219999999N999999999+02881+02281101261ADDMA1101251999999OC100931REMMET105MOBOB2 METAR XM21 //000 073342 270253Z AUTO 08014G18KT 29/23 A2990 RMK A02 SLP126 T02880228 PA020 DA1981=
0140008415999992015122703534+07300+134200FM-15+000099999V0200801N006719999999N999999999+02891+02211101161ADDMA1101151999999OC100821REMMET105MOBOB2 METAR XM21 //000 073342 270353Z AUTO 08013G16KT 29/22 A2987 RMK A02 SLP116 T02890221 PA047 DA2012=
0140008415999992015122704534+07300+134200FM-15+000099999V0200801N007219999999N999999999+02881+02211101121ADDMA1101121999999OC101081REMMET105MOBOB2 METAR XM21 //000 073342 270453Z AUTO 08014G21KT 29/22 A2986 RMK A02 SLP112 T02880221 PA057 DA2011=
0140008415999992015122705534+07300+134200FM-15+000099999V0200901N006719999999N999999999+02881+02191101061ADDMA1101051999999OC100881REMMET105MOBOB2 METAR XM21 //000 073342 270553Z AUTO 09013G17KT 29/22 A2984 RMK A02 SLP106 T02880219 PA075 DA2030=
0140008415999992015122706534+07300+134200FM-15+000099999V0200801N006719999999N999999999+02881+02191101061ADDMA1101051999999OC100821REMMET105MOBOB2 METAR XM21 //000 073342 270653Z AUTO 08013G16KT 29/22 A2984 RMK A02 SLP106 T02880219 PA075 DA2031=
0140008415999992015122707534+07300+134200FM-15+000099999V0200801N006719999999N999999999+02861+02181101091ADDMA1101081999999OC100931REMMET105MOBOB2 METAR XM21 //000 073342 270753Z AUTO 08013G18KT 29/22 A2985 RMK A02 SLP109 T02860218 PA066 DA1995=
0140008415999992015122708534+07300+134200FM-15+000099999V0200701N007219999999N999999999+02841+02221101161ADDMA1101151999999OC100931REMMET105MOBOB2 METAR XM21 //000 073342 270853Z AUTO 07014G18KT 28/22 A2987 RMK A02 SLP116 T02840222 PA047 DA1957=
0140008415999992015122709534+07300+134200FM-15+000099999V0200601N007719999999N999999999+02801+02221101221ADDMA1101221999999OC100981REMMET105MOBOB2 METAR XM21 //000 073342 270953Z AUTO 06015G19KT 28/22 A2989 RMK A02 SLP122 T02800222 PA029 DA1891=
0140008415999992015122710534+07300+134200FM-15+000099999V0200701N007219999999N999999999+02791+02231101291ADDMA1101291999999OC100931REMMET105MOBOB2 METAR XM21 //000 073342 271053Z AUTO 07014G18KT 28/22 A2991 RMK A02 SLP129 T02790223 PA010 DA1858=
0140008415999992015122711534+07300+134200FM-15+000099999V0200601N006219999999N999999999+02781+02281101331ADDMA1101321999999OC100721REMMET105MOBOB2 METAR XM21 //000 073342 271153Z AUTO 06012G14KT 28/23 A2992 RMK A02 SLP133 T02780228 PA001 DA1846=
0140008415999992015122712534+07300+134200FM-15+000099999V0200501N006219999999N999999999+02771+02331101331ADDMA1101321999999OC100721REMMET105MOBOB2 METAR XM21 //000 073342 271253Z AUTO 05012G14KT 28/23 A2992 RMK A02 SLP133 T02770233 PA001 DA1846=
0140008415999992015122713534+07300+134200FM-15+000099999V0200601N007219999999N999999999+02771+02281101291ADDMA1101291999999OC100881REMMET105MOBOB2 METAR XM21 //000 073342 271353Z AUTO 06014G17KT 28/23 A2991 RMK A02 SLP129 T02770228 PA010 DA1848=
0140008415999992015122714534+07300+134200FM-15+000099999V0200601N006219999999N999999999+02761+02321101291ADDMA1101291999999OC100771REMMET105MOBOB2 METAR XM21 //000 073342 271453Z AUTO 06012G15KT 28/23 A2991 RMK A02 SLP129 T02760232 PA010 DA1845=
0140008415999992015122715534+07300+134200FM-15+000099999V0200601N006219999999N999999999+02751+02281101261ADDMA1101251999999OC100771REMMET105MOBOB2 METAR XM21 //000 073342 271553Z AUTO 06012G15KT 28/23 A2990 RMK A02 SLP126 T02750228 PA020 DA1836=
0140008415999992015122716534+07300+134200FM-15+000099999V0200601N007219999999N999999999+02761+02321101221ADDMA1101221999999OC100931REMMET105MOBOB2 METAR XM21 //000 073342 271653Z AUTO 06014G18KT 28/23 A2989 RMK A02 SLP122 T02760232 PA029 DA1866=
0140008415999992015122717534+07300+134200FM-15+000099999V0200501N006219999999N999999999+02741+02231101191ADDMA1101181999999OC100771REMMET105MOBOB2 METAR XM21 //000 073342 271753Z AUTO 05012G15KT 27/22 A2988 RMK A02 SLP119 T02740223 PA038 DA1837=
0140008415999992015122718534+07300+134200FM-15+000099999V0200501N007219999999N999999999+02741+02301101191ADDMA1101181999999OC100931REMMET105MOBOB2 METAR XM21 //000 073342 271853Z AUTO 05014G18KT 27/23 A2988 RMK A02 SLP119 T02740230 PA038 DA1852=
0140008415999992015122719534+07300+134200FM-15+000099999V0200601N007219999999N999999999+02741+02281101221ADDMA1101221999999OC100931REMMET105MOBOB2 METAR XM21 //000 073342 271953Z AUTO 06014G18KT 27/23 A2989 RMK A02 SLP122 T02740228 PA029 DA1837=
0140008415999992015122720534+07300+134200FM-15+000099999V0200501N007719999999N999999999+02741+02281101291ADDMA1101291999999OC100981REMMET105MOBOB2 METAR XM21 //000 073342 272053Z AUTO 05015G19KT 27/23 A2991 RMK A02 SLP129 T02740228 PA010 DA1814=
0140008415999992015122721534+07300+134200FM-15+000099999V0200501N007719999999N999999999+02741+02231101331ADDMA1101321999999OC100981REMMET105MOBOB2 METAR XM21 //000 073342 272153Z AUTO 05015G19KT 27/22 A2992 RMK A02 SLP133 T02740223 PA001 DA1791=
0140008415999992015122722534+07300+134200FM-15+000099999V0200601N006719999999N999999999+02761+02241101431ADDMA1101421999999OC100931REMMET105MOBOB2 METAR XM21 //000 073342 272253Z AUTO 06013G18KT 28/22 A2995 RMK A02 SLP143 T02760224 PA-27 DA1782=
0140008415999992015122723534+07300+134200FM-15+000099999V0200501N006719999999N999999999+02771+02211101461ADDMA1101461999999OC100821REMMET105MOBOB2 METAR XM21 //000 073342 272353Z AUTO 05013G16KT 28/22 A2996 RMK A02 SLP146 T02770221 PA-36 DA1775=
0140008415999992015122800534+07300+134200FM-15+000099999V0200501N006719999999N999999999+02811+02201101431ADDMA1101421999999OC100821REMMET105MOBOB2 METAR XM21 //000 073342 280053Z AUTO 05013G16KT 28/22 A2995 RMK A02 SLP143 T02810220 PA-27 DA1829=
0140008415999992015122801534+07300+134200FM-15+000099999V0200501N006719999999N999999999+02851+02221101391ADDMA1101391999999OC100771REMMET105MOBOB2 METAR XM21 //000 073342 280153Z AUTO 05013G15KT 29/22 A2994 RMK A02 SLP139 T02850222 PA-17 DA1889=
0140008415999992015122802534+07300+134200FM-15+000099999V0200401N007219999999N999999999+02851+02281101331ADDMA1101321999999OC100881REMMET105MOBOB2 METAR XM21 //000 073342 280253Z AUTO 04014G17KT 29/23 A2992 RMK A02 SLP133 T02850228 PA001 DA1926=
0140008415999992015122803534+07300+134200FM-15+000099999V0200501N007219999999N999999999+02861+02131101261ADDMA1101251999999OC100981REMMET105MOBOB2 METAR XM21 //000 073342 280353Z AUTO 05014G19KT 29/21 A2990 RMK A02 SLP126 T02860213 PA020 DA1928=
0140008415999992015122804534+07300+134200FM-15+000099999V0200301N007219999999N999999999+02831+02181101161ADDMA1101151999999OC100881REMMET105MOBOB2 METAR XM21 //000 073342 280453Z AUTO 03014G17KT 28/22 A2987 RMK A02 SLP116 T02830218 PA047 DA1939=
0140008415999992015122805534+07300+134200FM-15+000099999V0200301N007719999999N999999999+02821+02221101121ADDMA1101121999999OC100931REMMET105MOBOB2 METAR XM21 //000 073342 280553Z AUTO 03015G18KT 28/22 A2986 RMK A02 SLP112 T02820222 PA057 DA1947=
0140008415999992015122806534+07300+134200FM-15+000099999V0200301N007219999999N999999999+02831+02241101091ADDMA1101081999999OC100881REMMET105MOBOB2 METAR XM21 //000 073342 280653Z AUTO 03014G17KT 28/22 A2985 RMK A02 SLP109 T02830224 PA066 DA1974=
0140008415999992015122807534+07300+134200FM-15+000099999V0200401N007219999999N999999999+02841+02231101121ADDMA1101121999999OC100881REMMET105MOBOB2 METAR XM21 //000 073342 280753Z AUTO 04014G17KT 28/22 A2986 RMK A02 SLP112 T02840223 PA057 DA1971=
0140008415999992015122808534+07300+134200FM-15+000099999V0200601N007219999999N999999999+02821+02171101161ADDMA1101151999999OC100821REMMET105MOBOB2 METAR XM21 //000 073342 280853Z AUTO 06014G16KT 28/22 A2987 RMK A02 SLP116 T02820217 PA047 DA1926=
0140008415999992015122809534+07300+134200FM-15+000099999V0200401N006219999999N999999999+02791+02251101191ADDMA1101181999999OC100721REMMET105MOBOB2 METAR XM21 //000 073342 280953Z AUTO 04012G14KT 28/23 A2988 RMK A02 SLP119 T02790225 PA038 DA1898=
0140008415999992015122810534+07300+134200FM-15+000099999V0200401N007219999999N999999999+02781+02261101261ADDMA1101251999999OC100881REMMET105MOBOB2 METAR XM21 //000 073342 281053Z AUTO 04014G17KT 28/23 A2990 RMK A02 SLP126 T02780226 PA020 DA1865=
0140008415999992015122811534+07300+134200FM-15+000099999V0200401N007219999999N999999999+02801+02281101291ADDMA1101291999999OC100881REMMET105MOBOB2 METAR XM21 //000 073342 281153Z AUTO 04014G17KT 28/23 A2991 RMK A02 SLP129 T02800228 PA010 DA1881=
0140008415999992015122812534+07300+134200FM-15+000099999V0200501N006719999999N999999999+02781+02321101291ADDMA1101291999999OC100881REMMET105MOBOB2 METAR XM21 //000 073342 281253Z AUTO 05013G17KT 28/23 A2991 RMK A02 SLP129 T02780232 PA010 DA1867=
0140008415999992015122813534+07300+134200FM-15+000099999V0200401N006219999999N999999999+02771+02301101261ADDMA1101251999999OC100771REMMET105MOBOB2 METAR XM21 //000 073342 281353Z AUTO 04012G15KT 28/23 A2990 RMK A02 SLP126 T02770230 PA020 DA1862=
0140008415999992015122814534+07300+134200FM-15+000099999V0200401N005119999999N999999999+02771+02391101261ADDMA1101251999999OC100671REMMET105MOBOB2 METAR XM21 //000 073342 281453Z AUTO 04010G13KT 28/24 A2990 RMK A02 SLP126 T02770239 PA020 DA1883=
0129008415999992015122815534+07300+134200FM-15+000099999V0200401N005119999999N999999999+02771+02311101221ADDMA1101221999999REMMET102MOBOB2 METAR XM21 //000 073342 281553Z AUTO 04010KT 28/23 A2989 RMK A02 SLP122 T02770231 PA029 DA1876=
0167008415999992015122816534+07300+134200FM-15+000099999V0200401N005119999999N999999999+02721+02331101121ADDAA101000021AW1611MA1101121999999OC100621REMMET115MOBOB2 METAR XM21 //000 073342 281653Z AUTO 04010G12KT -RA 27/23 A2986 RMK A02 SLP112 P0000 T02720233 PA057 DA1858=
0140008415999992015122817534+07300+134200FM-15+000099999V0200301N005119999999N999999999+02711+02311101091ADDMA1101081999999OC100771REMMET105MOBOB2 METAR XM21 //000 073342 281753Z AUTO 03010G15KT 27/23 A2985 RMK A02 SLP109 T02710231 PA066 DA1855=
0129008415999992015122818534+07300+134200FM-15+000099999V0200501N004619999999N999999999+02721+02281101121ADDMA1101121999999REMMET102MOBOB2 METAR XM21 //000 073342 281853Z AUTO 05009KT 27/23 A2986 RMK A02 SLP112 T02720228 PA057 DA1847=
0129008415999992015122819534+07300+134200FM-15+000099999V0200601N004119999999N999999999+02731+02301101121ADDMA1101121999999REMMET102MOBOB2 METAR XM21 //000 073342 281953Z AUTO 06008KT 27/23 A2986 RMK A02 SLP112 T02730230 PA057 DA1864=
0129008415999992015122820534+07300+134200FM-15+000099999V0200501N004119999999N999999999+02721+02331101161ADDMA1101151999999REMMET102MOBOB2 METAR XM21 //000 073342 282053Z AUTO 05008KT 27/23 A2987 RMK A02 SLP116 T02720233 PA047 DA1847=
0140008415999992015122821534+07300+134200FM-15+000099999V0200401N005119999999N999999999+02701+02351101221ADDMA1101221999999OC100671REMMET105MOBOB2 METAR XM21 //000 073342 282153Z AUTO 04010G13KT 27/23 A2989 RMK A02 SLP122 T02700235 PA029 DA1806=
0140008415999992015122822534+07300+134200FM-15+000099999V0200701N005119999999N999999999+02741+02321101291ADDMA1101291999999OC100721REMMET105MOBOB2 METAR XM21 //000 073342 282253Z AUTO 07010G14KT 27/23 A2991 RMK A02 SLP129 T02740232 PA010 DA1821=
0129008415999992015122823534+07300+134200FM-15+000099999V0200801N004119999999N999999999+02761+02301101361ADDMA1101351999999REMMET102MOBOB2 METAR XM21 //000 073342 282353Z AUTO 08008KT 28/23 A2993 RMK A02 SLP136 T02760230 PA-08 DA1818=
0129008415999992015122900534+07300+134200FM-15+000099999V0200701N004619999999N999999999+02761+02311101331ADDMA1101321999999REMMET102MOBOB2 METAR XM21 //000 073342 290053Z AUTO 07009KT 28/23 A2992 RMK A02 SLP133 T02760231 PA001 DA1831=
0140008415999992015122901534+07300+134200FM-15+000099999V0200901N005119999999N999999999+02831+02331101261ADDMA1101251999999OC100671REMMET105MOBOB2 METAR XM21 //000 073342 290153Z AUTO 09010G13KT 28/23 A2990 RMK A02 SLP126 T02830233 PA020 DA1936=
0140008415999992015122902534+07300+134200FM-15+000099999V0200801N005119999999N999999999+02861+02261101191ADDMA1101181999999OC100771REMMET105MOBOB2 METAR XM21 //000 073342 290253Z AUTO 08010G15KT 29/23 A2988 RMK A02 SLP119 T02860226 PA038 DA1978=
0129008415999992015122903534+07300+134200FM-15+000099999V0201001N004619999999N999999999+02871+02221101091ADDMA1101081999999REMMET102MOBOB2 METAR XM21 //000 073342 290353Z AUTO 10009KT 29/22 A2985 RMK A02 SLP109 T02870222 PA066 DA2014=
0129008415999992015122904534+07300+134200FM-15+000099999V0201001N004119999999N999999999+02871+02241100991ADDMA1100981999999REMMET102MOBOB2 METAR XM21 //000 073342 290453Z AUTO 10008KT 29/22 A2982 RMK A02 SLP099 T02870224 PA094 DA2053=
0140008415999992015122905534+07300+134200FM-15+000099999V0200701N005119999999N999999999+02811+02221100951ADDMA1100951999999OC100721REMMET105MOBOB2 METAR XM21 //000 073342 290553Z AUTO 07010G14KT 28/22 A2981 RMK A02 SLP095 T02810222 PA103 DA1993=
0140008415999992015122906534+07300+134200FM-15+000099999V0200401N005719999999N999999999+02781+02211100921ADDMA1100911999999OC100881REMMET105MOBOB2 METAR XM21 //000 073342 290653Z AUTO 04011G17KT 28/22 A2980 RMK A02 SLP092 T02780221 PA112 DA1970=
0156008415999992015122907534+07300+134200FM-15+000099999V0200701N001519999999N999999999+02811+02311100951ADDAA101000021AW1611MA1100951999999REMMET112MOBOB2 METAR XM21 //000 073342 290753Z AUTO 07003KT -RA 28/23 A2981 RMK A02 SLP095 P0000 T02810231 PA103 DA2013=
0129008415999992015122908534+07300+134200FM-15+000099999V0200701N004619999999N999999999+02801+02211101021ADDMA1101021999999REMMET102MOBOB2 METAR XM21 //000 073342 290853Z AUTO 07009KT 28/22 A2983 RMK A02 SLP102 T02800221 PA084 DA1956=
0140008415999992015122909534+07300+134200FM-15+000099999V0200701N005719999999N999999999+02811+02281101061ADDMA1101051999999OC100721REMMET105MOBOB2 METAR XM21 //000 073342 290953Z AUTO 07011G14KT 28/23 A2984 RMK A02 SLP106 T02810228 PA075 DA1973=
0140008415999992015122910534+07300+134200FM-15+000099999V0200701N005119999999N999999999+02781+02351101121ADDMA1101121999999OC100671REMMET105MOBOB2 METAR XM21 //000 073342 291053Z AUTO 07010G13KT 28/23 A2986 RMK A02 SLP112 T02780235 PA057 DA1931=
0140008415999992015122911534+07300+134200FM-15+000099999V0200601N005719999999N999999999+02771+02331101161ADDMA1101151999999OC100721REMMET105MOBOB2 METAR XM21 //000 073342 291153Z AUTO 06011G14KT 28/23 A2987 RMK A02 SLP116 T02770233 PA047 DA1903=
0140008415999992015122912534+07300+134200FM-15+000099999V0200601N004619999999N999999999+02771+02291101161ADDMA1101151999999OC100621REMMET105MOBOB2 METAR XM21 //000 073342 291253Z AUTO 06009G12KT 28/23 A2987 RMK A02 SLP116 T02770229 PA047 DA1895=
0140008415999992015122913534+07300+134200FM-15+000099999V0200601N004619999999N999999999+02761+02361101121ADDMA1101121999999OC100621REMMET105MOBOB2 METAR XM21 //000 073342 291353Z AUTO 06009G12KT 28/24 A2986 RMK A02 SLP112 T02760236 PA057 DA1910=
0129008415999992015122914534+07300+134200FM-15+000099999V0200701N003619999999N999999999+02761+02321101161ADDMA1101151999999REMMET102MOBOB2 METAR XM21 //000 073342 291453Z AUTO 07007KT 28/23 A2987 RMK A02 SLP116 T02760232 PA047 DA1891=
0129008415999992015122915534+07300+134200FM-15+000099999V0200601N004619999999N999999999+02751+02361101121ADDMA1101121999999REMMET102MOBOB2 METAR XM21 //000 073342 291553Z AUTO 06009KT 28/24 A2986 RMK A02 SLP112 T02750236 PA057 DA1900=
0140008415999992015122916534+07300+134200FM-15+000099999V0200601N005119999999N999999999+02741+02311101061ADDMA1101051999999OC100671REMMET105MOBOB2 METAR XM21 //000 073342 291653Z AUTO 06010G13KT 27/23 A2984 RMK A02 SLP106 T02740231 PA075 DA1900=
0140008415999992015122917534+07300+134200FM-15+000099999V0200601N005119999999N999999999+02731+02321100991ADDMA1100981999999OC100671REMMET105MOBOB2 METAR XM21 //000 073342 291753Z AUTO 06010G13KT 27/23 A2982 RMK A02 SLP099 T02730232 PA094 DA1914=
0140008415999992015122918534+07300+134200FM-15+000099999V0200701N005719999999N999999999+02731+02321100991ADDMA1100981999999OC100721REMMET105MOBOB2 METAR XM21 //000 073342 291853Z AUTO 07011G14KT 27/23 A2982 RMK A02 SLP099 T02730232 PA094 DA1914=
0129008415999992015122919534+07300+134200FM-15+000099999V0200801N004619999999N999999999+02761+02361101021ADDMA1101021999999REMMET102MOBOB2 METAR XM21 //000 073342 291953Z AUTO 08009KT 28/24 A2983 RMK A02 SLP102 T02760236 PA084 DA1944=
0140008415999992015122920534+07300+134200FM-15+000099999V0200801N005119999999N999999999+02761+02321101021ADDMA1101021999999OC100671REMMET105MOBOB2 METAR XM21 //000 073342 292053Z AUTO 08010G13KT 28/23 A2983 RMK A02 SLP102 T02760232 PA084 DA1936=
0140008415999992015122921534+07300+134200FM-15+000099999V0200801N005119999999N999999999+02781+02301101121ADDMA1101121999999OC100721REMMET105MOBOB2 METAR XM21 //000 073342 292153Z AUTO 08010G14KT 28/23 A2986 RMK A02 SLP112 T02780230 PA057 DA1919=
0129008415999992015122922534+07300+134200FM-15+000099999V0200701N004119999999N999999999+02801+02371101221ADDMA1101221999999REMMET102MOBOB2 METAR XM21 //000 073342 292253Z AUTO 07008KT 28/24 A2989 RMK A02 SLP122 T02800237 PA029 DA1923=
0140008415999992015122923534+07300+134200FM-15+000099999V0200801N005119999999N999999999+02811+02351101261ADDMA1101251999999OC100721REMMET105MOBOB2 METAR XM21 //000 073342 292353Z AUTO 08010G14KT 28/23 A2990 RMK A02 SLP126 T02810235 PA020 DA1918=
0140008415999992015123000534+07300+134200FM-15+000099999V0200801N006219999999N999999999+02841+02371101221ADDMA1101221999999OC100821REMMET105MOBOB2 METAR XM21 //000 073342 300053Z AUTO 08012G16KT 28/24 A2989 RMK A02 SLP122 T02840237 PA029 DA1967=
0140008415999992015123001534+07300+134200FM-15+000099999V0200801N006219999999N999999999+02871+02311101161ADDMA1101151999999OC100721REMMET105MOBOB2 METAR XM21 //000 073342 300153Z AUTO 08012G14KT 29/23 A2987 RMK A02 SLP116 T02870231 PA047 DA2012=
0140008415999992015123002534+07300+134200FM-15+000099999V0200901N006219999999N999999999+02871+02351101091ADDMA1101081999999OC100821REMMET105MOBOB2 METAR XM21 //000 073342 300253Z AUTO 09012G16KT 29/24 A2985 RMK A02 SLP109 T02870235 PA066 DA2043=
0140008415999992015123003534+07300+134200FM-15+000099999V0200901N006719999999N999999999+02851+02331101021ADDMA1101021999999OC100881REMMET105MOBOB2 METAR XM21 //000 073342 300353Z AUTO 09013G17KT 29/23 A2983 RMK A02 SLP102 T02850233 PA084 DA2040=
0140008415999992015123004534+07300+134200FM-15+000099999V0200801N006719999999N999999999+02891+02291100921ADDMA1100911999999OC100821REMMET105MOBOB2 METAR XM21 //000 073342 300453Z AUTO 08013G16KT 29/23 A2980 RMK A02 SLP092 T02890229 PA112 DA2108=
0140008415999992015123005534+07300+134200FM-15+000099999V0200601N005719999999N999999999+02861+02341100891ADDMA1100881999999OC100821REMMET105MOBOB2 METAR XM21 //000 073342 300553Z AUTO 06011G16KT 29/23 A2979 RMK A02 SLP089 T02860234 PA122 DA2098=
0167008415999992015123006534+07300+134200FM-15+000099999V0200801N006219999999N999999999+02891+02311100891ADDAA101000021AW1611MA1100881999999OC100771REMMET115MOBOB2 METAR XM21 //000 073342 300653Z AUTO 08012G15KT -RA 29/23 A2979 RMK A02 SLP089 P0000 T02890231 PA122 DA2125=
0140008415999992015123007534+07300+134200FM-15+000099999V0200801N005719999999N999999999+02881+02331100951ADDMA1100951999999OC100721REMMET105MOBOB2 METAR XM21 //000 073342 300753Z AUTO 08011G14KT 29/23 A2981 RMK A02 SLP095 T02880233 PA103 DA2096=
0140008415999992015123008534+07300+134200FM-15+000099999V0200701N006219999999N999999999+02831+02331100991ADDMA1100981999999OC100881REMMET105MOBOB2 METAR XM21 //000 073342 300853Z AUTO 07012G17KT 28/23 A2982 RMK A02 SLP099 T02830233 PA094 DA2028=
0140008415999992015123009534+07300+134200FM-15+000099999V0200601N006719999999N999999999+02811+02271101061ADDMA1101051999999OC100881REMMET105MOBOB2 METAR XM21 //000 073342 300953Z AUTO 06013G17KT 28/23 A2984 RMK A02 SLP106 T02810227 PA075 DA1969=
0140008415999992015123010534+07300+134200FM-15+000099999V0200701N006219999999N999999999+02801+02311101121ADDMA1101121999999OC100771REMMET105MOBOB2 METAR XM21 //000 073342 301053Z AUTO 07012G15KT 28/23 A2986 RMK A02 SLP112 T02800231 PA057 DA1944=
0140008415999992015123011534+07300+134200FM-15+000099999V0200701N005719999999N999999999+02791+02291101221ADDMA1101221999999OC100821REMMET105MOBOB2 METAR XM21 //000 073342 301153Z AUTO 07011G16KT 28/23 A2989 RMK A02 SLP122 T02790229 PA029 DA1893=
0140008415999992015123012534+07300+134200FM-15+000099999V0200701N005719999999N999999999+02801+02291101221ADDMA1101221999999OC100771REMMET105MOBOB2 METAR XM21 //000 073342 301253Z AUTO 07011G15KT 28/23 A2989 RMK A02 SLP122 T02800229 PA029 DA1906=
0140008415999992015123013534+07300+134200FM-15+000099999V0200701N006219999999N999999999+02781+02271101161ADDMA1101151999999OC100821REMMET105MOBOB2 METAR XM21 //000 073342 301353Z AUTO 07012G16KT 28/23 A2987 RMK A02 SLP116 T02780227 PA047 DA1902=
0140008415999992015123014534+07300+134200FM-15+000099999V0200701N005119999999N999999999+02771+02291101161ADDMA1101151999999OC100671REMMET105MOBOB2 METAR XM21 //000 073342 301453Z AUTO 07010G13KT 28/23 A2987 RMK A02 SLP116 T02770229 PA047 DA1894=
0140008415999992015123015534+07300+134200FM-15+000099999V0200601N006219999999N999999999+02771+02311101121ADDMA1101121999999OC100821REMMET105MOBOB2 METAR XM21 //000 073342 301553Z AUTO 06012G16KT 28/23 A2986 RMK A02 SLP112 T02770231 PA057 DA1912=
0140008415999992015123016534+07300+134200FM-15+000099999V0200601N007219999999N999999999+02751+02311101091ADDMA1101081999999OC100981REMMET105MOBOB2 METAR XM21 //000 073342 301653Z AUTO 06014G19KT 28/23 A2985 RMK A02 SLP109 T02750231 PA066 DA1900=
0140008415999992015123017534+07300+134200FM-15+000099999V0200701N007719999999N999999999+02751+02351101021ADDMA1101021999999OC100981REMMET105MOBOB2 METAR XM21 //000 073342 301753Z AUTO 07015G19KT 28/24 A2983 RMK A02 SLP102 T02750235 PA084 DA1932=
0140008415999992015123018534+07300+134200FM-15+000099999V0200601N007219999999N999999999+02761+02341101021ADDMA1101021999999OC100981REMMET105MOBOB2 METAR XM21 //000 073342 301853Z AUTO 06014G19KT 28/23 A2983 RMK A02 SLP102 T02760234 PA084 DA1940=
0140008415999992015123019534+07300+134200FM-15+000099999V0200501N008219999999N999999999+02741+02331101061ADDMA1101051999999OC101031REMMET105MOBOB2 METAR XM21 //000 073342 301953Z AUTO 05016G20KT 27/23 A2984 RMK A02 SLP106 T02740233 PA075 DA1904=
0140008415999992015123020534+07300+134200FM-15+000099999V0200601N006719999999N999999999+02731+02321101091ADDMA1101081999999OC100931REMMET105MOBOB2 METAR XM21 //000 073342 302053Z AUTO 06013G18KT 27/23 A2985 RMK A02 SLP109 T02730232 PA066 DA1880=
0140008415999992015123021534+07300+134200FM-15+000099999V0200701N006219999999N999999999+02741+02321101191ADDMA1101181999999OC100771REMMET105MOBOB2 METAR XM21 //000 073342 302153Z AUTO 07012G15KT 27/23 A2988 RMK A02 SLP119 T02740232 PA038 DA1857=
0140008415999992015123022534+07300+134200FM-15+000099999V0200601N006219999999N999999999+02761+02321101261ADDMA1101251999999OC100771REMMET105MOBOB2 METAR XM21 //000 073342 302253Z AUTO 06012G15KT 28/23 A2990 RMK A02 SLP126 T02760232 PA020 DA1856=
0140008415999992015123023534+07300+134200FM-15+000099999V0200701N004619999999N999999999+02801+02311101291ADDMA1101291999999OC100621REMMET105MOBOB2 METAR XM21 //000 073342 302353Z AUTO 07009G12KT 28/23 A2991 RMK A02 SLP129 T02800231 PA010 DA1887=
0167008415999992015123100534+07300+134200FM-15+000099999V0200601N006719999999N999999999+02791+02351101291ADDAA101000021AW1611MA1101291999999OC100881REMMET115MOBOB2 METAR XM21 //000 073342 310053Z AUTO 06013G17KT -RA 28/23 A2991 RMK A02 SLP129 P0000 T02790235 PA010 DA1884=
0140008415999992015123101534+07300+134200FM-15+000099999V0200701N007219999999N999999999+02861+02311101261ADDMA1101251999999OC100981REMMET105MOBOB2 METAR XM21 //000 073342 310153Z AUTO 07014G19KT 29/23 A2990 RMK A02 SLP126 T02860231 PA020 DA1966=
0140008415999992015123102534+07300+134200FM-15+000099999V0200701N005119999999N999999999+02891+02281101191ADDMA1101181999999OC100881REMMET105MOBOB2 METAR XM21 //000 073342 310253Z AUTO 07010G17KT 29/23 A2988 RMK A02 SLP119 T02890228 PA038 DA2015=
0140008415999992015123103534+07300+134200FM-15+000099999V0200701N006219999999N999999999+02881+02241101121ADDMA1101121999999OC100821REMMET105MOBOB2 METAR XM21 //000 073342 310353Z AUTO 07012G16KT 29/22 A2986 RMK A02 SLP112 T02880224 PA057 DA2018=
0140008415999992015123104534+07300+134200FM-15+000099999V0200801N006219999999N999999999+02901+02221101061ADDMA1101051999999OC100771REMMET105MOBOB2 METAR XM21 //000 073342 310453Z AUTO 08012G15KT 29/22 A2984 RMK A02 SLP106 T02900222 PA075 DA2059=
0140008415999992015123105534+07300+134200FM-15+000099999V0200801N007219999999N999999999+02911+02131101021ADDMA1101021999999OC100881REMMET105MOBOB2 METAR XM21 //000 073342 310553Z AUTO 08014G17KT 29/21 A2983 RMK A02 SLP102 T02910213 PA084 DA2064=
0140008415999992015123106534+07300+134200FM-15+000099999V0200801N005719999999N999999999+02881+02251101021ADDMA1101021999999OC100721REMMET105MOBOB2 METAR XM21 //000 073342 310653Z AUTO 08011G14KT 29/22 A2983 RMK A02 SLP102 T02880225 PA084 DA2054=
0140008415999992015123107534+07300+134200FM-15+000099999V0200801N006219999999N999999999+02861+02191101061ADDMA1101051999999OC100771REMMET105MOBOB2 METAR XM21 //000 073342 310753Z AUTO 08012G15KT 29/22 A2984 RMK A02 SLP106 T02860219 PA075 DA2009=
0140008415999992015123108534+07300+134200FM-15+000099999V0200601N005719999999N999999999+02821+02241101121ADDMA1101121999999OC100771REMMET105MOBOB2 METAR XM21 //000 073342 310853Z AUTO 06011G15KT 28/22 A2986 RMK A02 SLP112 T02820224 PA057 DA1951=
0140008415999992015123109534+07300+134200FM-15+000099999V0200501N007219999999N999999999+02791+02281101221ADDMA1101221999999OC100821REMMET105MOBOB2 METAR XM21 //000 073342 310953Z AUTO 05014G16KT 28/23 A2989 RMK A02 SLP122 T02790228 PA029 DA1893=
0140008415999992015123110534+07300+134200FM-15+000099999V0200501N006719999999N999999999+02771+02291101291ADDMA1101291999999OC100881REMMET105MOBOB2 METAR XM21 //000 073342 311053Z AUTO 05013G17KT 28/23 A2991 RMK A02 SLP129 T02770229 PA010 DA1850=
0140008415999992015123111534+07300+134200FM-15+000099999V0200501N005719999999N999999999+02771+02371101331ADDMA1101321999999OC100721REMMET105MOBOB2 METAR XM21 //000 073342 311153Z AUTO 05011G14KT 28/24 A2992 RMK A02 SLP133 T02770237 PA001 DA1855=
0140008415999992015123112534+07300+134200FM-15+000099999V0200501N007219999999N999999999+02751+02281101331ADDMA1101321999999OC100821REMMET105MOBOB2 METAR XM21 //000 073342 311253Z AUTO 05014G16KT 28/23 A2992 RMK A02 SLP133 T02750228 PA001 DA1814=
0140008415999992015123113534+07300+134200FM-15+000099999V0200601N006719999999N999999999+02751+02291101291ADDMA1101291999999OC100821REMMET105MOBOB2 METAR XM21 //000 073342 311353Z AUTO 06013G16KT 28/23 A2991 RMK A02 SLP129 T02750229 PA010 DA1827=
0140008415999992015123114534+07300+134200FM-15+000099999V0200601N006219999999N999999999+02741+02221101291ADDMA1101291999999OC100771REMMET105MOBOB2 METAR XM21 //000 073342 311453Z AUTO 06012G15KT 27/22 A2991 RMK A02 SLP129 T02740222 PA010 DA1801=
0140008415999992015123115534+07300+134200FM-15+000099999V0200501N006219999999N999999999+02731+02301101291ADDMA1101291999999OC100721REMMET105MOBOB2 METAR XM21 //000 073342 311553Z AUTO 05012G14KT 27/23 A2991 RMK A02 SLP129 T02730230 PA010 DA1805=
0140008415999992015123116534+07300+134200FM-15+000099999V0200601N005719999999N999999999+02731+02281101221ADDMA1101221999999OC100671REMMET105MOBOB2 METAR XM21 //000 073342 311653Z AUTO 06011G13KT 27/23 A2989 RMK A02 SLP122 T02730228 PA029 DA1825=
0129008415999992015123117534+07300+134200FM-15+000099999V0200701N004119999999N999999999+02721+02251101191ADDMA1101181999999REMMET102MOBOB2 METAR XM21 //000 073342 311753Z AUTO 07008KT 27/22 A2988 RMK A02 SLP119 T02720225 PA038 DA1818=
0129008415999992015123118534+07300+134200FM-15+000099999V0200601N003119999999N999999999+02711+02261101161ADDMA1101151999999REMMET102MOBOB2 METAR XM21 //000 073342 311853Z AUTO 06006KT 27/23 A2987 RMK A02 SLP116 T02710226 PA047 DA1822=
0129008415999992015123119534+07300+134200FM-15+000099999V0200701N004619999999N999999999+02741+02321101221ADDMA1101221999999REMMET102MOBOB2 METAR XM21 //000 073342 311953Z AUTO 07009KT 27/23 A2989 RMK A02 SLP122 T02740232 PA029 DA1844=
0129008415999992015123120534+07300+134200FM-15+000099999V0200801N003119999999N999999999+02731+02201101261ADDMA1101251999999REMMET102MOBOB2 METAR XM21 //000 073342 312053Z AUTO 08006KT 27/22 A2990 RMK A02 SLP126 T02730220 PA020 DA1797=
0140008415999992015123121534+07300+134200FM-15+000099999V0200301N005719999999N999999999+02691+02311101291ADDMA1101291999999OC100721REMMET105MOBOB2 METAR XM21 //000 073342 312153Z AUTO 03011G14KT 27/23 A2991 RMK A02 SLP129 T02690231 PA010 DA1763=
0140008415999992015123122534+07300+134200FM-15+000099999V0200301N006219999999N999999999+02661+02361101391ADDMA1101391999999OC100771REMMET105MOBOB2 METAR XM21 //000 073342 312253Z AUTO 03012G15KT 27/24 A2994 RMK A02 SLP139 T02660236 PA-17 DA1707=
0129008415999992015123123534+07300+134200FM-15+000099999V0200501N004619999999N999999999+02731+02371101461ADDMA1101461999999REMMET102MOBOB2 METAR XM21 //000 073342 312353Z AUTO 05009KT 27/24 A2996 RMK A02 SLP146 T02730237 PA-36 DA1765=
